{
  "type": "FeatureCollection",
  "name": "valvole_distrettuali",
  "crs": {
    "type": "name",
    "properties": {
      "name": "urn:ogc:def:crs:EPSG::32632"
    }
  },
  "features": [
    {
      "type": "Feature",
      "properties": {
        "stato": "CHIUSA",
        "tipologia": "Valvola a 2 vie",
        "id": 1524,
        "codice": "Va",
        "comune": "Pozzolo Formigaro",
        "distretto": null
      },
      "geometry": {
        "type": "Point",
        "coordinates": [
          8.78090069711911,
          44.79143794643715
        ]
      }
    },
    {
      "type": "Feature",
      "properties": {
        "stato": "CHIUSA",
        "tipologia": "Valvola a 2 vie",
        "id": 1526,
        "codice": "VB",
        "comune": "Pozzolo Formigaro",
        "distretto": null
      },
      "geometry": {
        "type": "Point",
        "coordinates": [
          8.783726236380463,
          44.78989170938834
        ]
      }
    },
    {
      "type": "Feature",
      "properties": {
        "stato": "CHIUSA",
        "tipologia": "Valvola a 2 vie",
        "id": 1567,
        "codice": null,
        "comune": "Pozzolo Formigaro",
        "distretto": null
      },
      "geometry": {
        "type": "Point",
        "coordinates": [
          8.780129115483856,
          44.797388751652996
        ]
      }
    },
    {
      "type": "Feature",
      "properties": {
        "stato": "CHIUSA",
        "tipologia": "Valvola a 2 vie",
        "id": 1584,
        "codice": "VD",
        "comune": "Pozzolo Formigaro",
        "distretto": null
      },
      "geometry": {
        "type": "Point",
        "coordinates": [
          8.784468138336733,
          44.79129668265016
        ]
      }
    },
    {
      "type": "Feature",
      "properties": {
        "stato": "CHIUSA",
        "tipologia": "Valvola a 2 vie",
        "id": 1623,
        "codice": null,
        "comune": "Pozzolo Formigaro",
        "distretto": null
      },
      "geometry": {
        "type": "Point",
        "coordinates": [
          8.780568927834498,
          44.79274227365061
        ]
      }
    },
    {
      "type": "Feature",
      "properties": {
        "stato": "CHIUSA",
        "tipologia": "Valvola a 2 vie",
        "id": 1624,
        "codice": null,
        "comune": "Pozzolo Formigaro",
        "distretto": null
      },
      "geometry": {
        "type": "Point",
        "coordinates": [
          8.780552550383177,
          44.79274338674751
        ]
      }
    },
    {
      "type": "Feature",
      "properties": {
        "stato": "CHIUSA",
        "tipologia": "Valvola a 2 vie",
        "id": 1652,
        "codice": null,
        "comune": "Pozzolo Formigaro",
        "distretto": null
      },
      "geometry": {
        "type": "Point",
        "coordinates": [
          8.81785123175063,
          44.80771696675054
        ]
      }
    },
    {
      "type": "Feature",
      "properties": {
        "stato": "CHIUSA",
        "tipologia": "Valvola a 2 vie",
        "id": 1670,
        "codice": null,
        "comune": "Pozzolo Formigaro",
        "distretto": null
      },
      "geometry": {
        "type": "Point",
        "coordinates": [
          8.779176042666435,
          44.80018807339254
        ]
      }
    },
    {
      "type": "Feature",
      "properties": {
        "stato": "CHIUSA",
        "tipologia": "Valvola a 2 vie",
        "id": 1685,
        "codice": "",
        "comune": "Pozzolo Formigaro",
        "distretto": null
      },
      "geometry": {
        "type": "Point",
        "coordinates": [
          8.78478319043641,
          44.79137982179351
        ]
      }
    },
    {
      "type": "Feature",
      "properties": {
        "stato": "CHIUSA",
        "tipologia": "Valvola a 2 vie",
        "id": 1691,
        "codice": "VG",
        "comune": "Pozzolo Formigaro",
        "distretto": null
      },
      "geometry": {
        "type": "Point",
        "coordinates": [
          8.783897490873763,
          44.79967116212522
        ]
      }
    }
  ]
}
