{
  "type": "FeatureCollection",
  "name": "direzione_flusso",
  "crs": {
    "type": "name",
    "properties": {
      "name": "urn:ogc:def:crs:EPSG::32632"
    }
  },
  "features": [
    {
      "type": "Feature",
      "properties": {
        "id": 1
      },
      "geometry": {
        "type": "Point",
        "coordinates": [
          8.732106791577909,
          44.727847356946846
        ]
      }
    },
    {
      "type": "Feature",
      "properties": {
        "id": 2
      },
      "geometry": {
        "type": "Point",
        "coordinates": [
          8.763930724722801,
          44.722551038869774
        ]
      }
    },
    {
      "type": "Feature",
      "properties": {
        "id": 4
      },
      "geometry": {
        "type": "Point",
        "coordinates": [
          8.770060752526204,
          44.72732059440244
        ]
      }
    },
    {
      "type": "Feature",
      "properties": {
        "id": 5
      },
      "geometry": {
        "type": "Point",
        "coordinates": [
          8.770992800065473,
          44.72865606175071
        ]
      }
    },
    {
      "type": "Feature",
      "properties": {
        "id": 6
      },
      "geometry": {
        "type": "Point",
        "coordinates": [
          8.769355712175203,
          44.729070738769906
        ]
      }
    },
    {
      "type": "Feature",
      "properties": {
        "id": 7
      },
      "geometry": {
        "type": "Point",
        "coordinates": [
          8.768836218863921,
          44.72853708943027
        ]
      }
    },
    {
      "type": "Feature",
      "properties": {
        "id": 3
      },
      "geometry": {
        "type": "Point",
        "coordinates": [
          8.7709002611944,
          44.726266868383306
        ]
      }
    }
  ]
}