{
  "type": "FeatureCollection",
  "name": "sensori_tlc",
  "crs": {
    "type": "name",
    "properties": {
      "name": "urn:ogc:def:crs:EPSG::32632"
    }
  },
  "features": [
    {
      "type": "Feature",
      "properties": {
        "GATEID": 6620194,
        "NOME": "F01A02",
        "DESCRIZIONE": "Tassarolo serbatoio: Livello serbatoio",
        "COMUNE_COMPETENZA": "Tassarolo",
        "AREA_COMPETENZA": "NOVESE",
        "FLAG_ATTIVO": "S",
        "UM": "%",
        "DATA_DA": "1970-01-01T00:00:00",
        "DATA_A": null,
        "FONDO_SCALA": null,
        "INDIRIZZO_UBICAZIONE": null,
        "NATURA_IMPIANTO": null,
        "MATRICOLA": null,
        "TIPO_MISURATORE": null,
        "PROVENIENZA": null,
        "NOTE": null,
        "REGISTRO": null,
        "GATEID_TOT": null,
        "X": 482360.13,
        "Y": 4951784.04
      },
      "geometry": {
        "type": "Point",
        "coordinates": [
          8.777272361779598,
          44.71921859547908
        ]
      }
    },
    {
      "type": "Feature",
      "properties": {
        "GATEID": 6620209,
        "NOME": "F04A05",
        "DESCRIZIONE": "Francavilla Pozzi C. Sportivo: Pressione Tassarolo",
        "COMUNE_COMPETENZA": "Francavilla Bisio",
        "AREA_COMPETENZA": "NOVESE",
        "FLAG_ATTIVO": "S",
        "UM": "bar",
        "DATA_DA": "1970-01-01T00:00:00",
        "DATA_A": null,
        "FONDO_SCALA": null,
        "INDIRIZZO_UBICAZIONE": null,
        "NATURA_IMPIANTO": null,
        "MATRICOLA": null,
        "TIPO_MISURATORE": null,
        "PROVENIENZA": null,
        "NOTE": null,
        "REGISTRO": null,
        "GATEID_TOT": null,
        "X": 479003.93,
        "Y": 4953113.34
      },
      "geometry": {
        "type": "Point",
        "coordinates": [
          8.734841417150532,
          44.73109476553074
        ]
      }
    },
    {
      "type": "Feature",
      "properties": {
        "GATEID": 6620240,
        "NOME": "F04T02",
        "DESCRIZIONE": "Francavilla Pozzi C. Sportivo: Portata Tassarolo",
        "COMUNE_COMPETENZA": "Francavilla Bisio",
        "AREA_COMPETENZA": "NOVESE",
        "FLAG_ATTIVO": "S",
        "UM": "l/s",
        "DATA_DA": null,
        "DATA_A": null,
        "FONDO_SCALA": null,
        "INDIRIZZO_UBICAZIONE": "POZZO CAMPO SPORTIVO: \r\n44°43'52,20\"N;8°44'05,60\"E",
        "NATURA_IMPIANTO": null,
        "MATRICOLA": "MADDALENA: M21US002595",
        "TIPO_MISURATORE": "MECCANICO",
        "PROVENIENZA": "DA POZZO A SERBATOIO DISTRIBUZIONE",
        "NOTE": null,
        "REGISTRO": "M1",
        "GATEID_TOT": 6620257,
        "X": 479003.93,
        "Y": 4953113.34
      },
      "geometry": {
        "type": "Point",
        "coordinates": [
          8.734841473254185,
          44.73109480351426
        ]
      }
    },
    {
      "type": "Feature",
      "properties": {
        "GATEID": 6627376,
        "NOME": "TGO_PRESSIONE_OUT",
        "DESCRIZIONE": "Tassarolo Golf: Pressione uscita",
        "COMUNE_COMPETENZA": "Tassarolo",
        "AREA_COMPETENZA": "NOVESE",
        "FLAG_ATTIVO": "S",
        "UM": "bar",
        "DATA_DA": "2019-05-28T05:36:07",
        "DATA_A": null,
        "FONDO_SCALA": null,
        "INDIRIZZO_UBICAZIONE": null,
        "NATURA_IMPIANTO": null,
        "MATRICOLA": null,
        "TIPO_MISURATORE": null,
        "PROVENIENZA": null,
        "NOTE": null,
        "REGISTRO": null,
        "GATEID_TOT": null,
        "X": 480784.3,
        "Y": 4953717.6
      },
      "geometry": {
        "type": "Point",
        "coordinates": [
          8.757302688873517,
          44.73658446896992
        ]
      }
    },
    {
      "type": "Feature",
      "properties": {
        "GATEID": 6627377,
        "NOME": "TGO_PORTATA_RETE",
        "DESCRIZIONE": "Tassarolo Golf: Portata rete",
        "COMUNE_COMPETENZA": "Tassarolo",
        "AREA_COMPETENZA": "NOVESE",
        "FLAG_ATTIVO": "S",
        "UM": "l/s",
        "DATA_DA": "2019-05-28T05:36:07",
        "DATA_A": null,
        "FONDO_SCALA": null,
        "INDIRIZZO_UBICAZIONE": null,
        "NATURA_IMPIANTO": null,
        "MATRICOLA": null,
        "TIPO_MISURATORE": null,
        "PROVENIENZA": null,
        "NOTE": null,
        "REGISTRO": null,
        "GATEID_TOT": 6627393,
        "X": 480783.75,
        "Y": 4953717.61
      },
      "geometry": {
        "type": "Point",
        "coordinates": [
          8.757295828171133,
          44.73658457976839
        ]
      }
    },
    {
      "type": "Feature",
      "properties": {
        "GATEID": 6631216,
        "NOME": "F01_POR_IN",
        "DESCRIZIONE": "Tassarolo serbatoio: Portata ingresso",
        "COMUNE_COMPETENZA": "Tassarolo",
        "AREA_COMPETENZA": "NOVESE",
        "FLAG_ATTIVO": "S",
        "UM": "l/s",
        "DATA_DA": "2022-06-23T00:00:00",
        "DATA_A": null,
        "FONDO_SCALA": null,
        "INDIRIZZO_UBICAZIONE": "SERBATOIO TASSAROLO:\r\n44°43'09,80\"N; 8°46'37,90\"E",
        "NATURA_IMPIANTO": null,
        "MATRICOLA": "MADDALENA: 28039456",
        "TIPO_MISURATORE": "ELETTROMAGNETICO",
        "PROVENIENZA": "INGRESSO SERBATOIO DA MANDATA POZZI/ARRIVO NOVI",
        "NOTE": null,
        "REGISTRO": null,
        "GATEID_TOT": 6631217,
        "X": 482354.69,
        "Y": 4951826.02
      },
      "geometry": {
        "type": "Point",
        "coordinates": [
          8.77720222451627,
          44.719596378189436
        ]
      }
    },
    {
      "type": "Feature",
      "properties": {
        "GATEID": 6631219,
        "NOME": "F01_POR_OUT",
        "DESCRIZIONE": "Tassarolo serbatoio: Portata uscita",
        "COMUNE_COMPETENZA": "Tassarolo",
        "AREA_COMPETENZA": "NOVESE",
        "FLAG_ATTIVO": "S",
        "UM": "l/s",
        "DATA_DA": "2022-06-23T00:00:00",
        "DATA_A": null,
        "FONDO_SCALA": null,
        "INDIRIZZO_UBICAZIONE": "SERBATOIO TASSAROLO:\r\n44°43'09,80\"N; 8°46'37,90\"E",
        "NATURA_IMPIANTO": null,
        "MATRICOLA": null,
        "TIPO_MISURATORE": "MECCANICO",
        "PROVENIENZA": "DA SERBATOIO A RETE TASSAROLO",
        "NOTE": null,
        "REGISTRO": null,
        "GATEID_TOT": 6631220,
        "X": 482354.69,
        "Y": 4951826.02
      },
      "geometry": {
        "type": "Point",
        "coordinates": [
          8.77720222451627,
          44.719596378189436
        ]
      }
    }
  ]
}