{
  "type": "FeatureCollection",
  "name": "rid_prex",
  "crs": {
    "type": "name",
    "properties": {
      "name": "urn:ogc:def:crs:EPSG::32632"
    }
  },
  "features": [
    {
      "type": "Feature",
      "properties": {
        "rot": 100,
        "layer": "RA_03ridprex",
        "comune": "Tassarolo",
        "marca": null,
        "modello": null,
        "materiale": null,
        "dn": null,
        "pn": null,
        "prex_monte": null,
        "alt_rel": null,
        "prex_valle": null,
        "data_ui": null,
        "ui_operatore": null,
        "tipo_giunz": null,
        "anno_posa": 2022,
        "x": null,
        "y": null,
        "rotazione": null,
        "id": 173,
        "quota": null,
        "pnrr": false,
        "distretto_modello": null
      },
      "geometry": {
        "type": "Point",
        "coordinates": [
          8.775314856686187,
          44.72986629842718
        ]
      }
    },
    {
      "type": "Feature",
      "properties": {
        "rot": 225,
        "layer": "RA_03ridprex",
        "comune": "Tassarolo",
        "marca": null,
        "modello": null,
        "materiale": null,
        "dn": null,
        "pn": null,
        "prex_monte": null,
        "alt_rel": null,
        "prex_valle": null,
        "data_ui": null,
        "ui_operatore": null,
        "tipo_giunz": null,
        "anno_posa": 2022,
        "x": null,
        "y": null,
        "rotazione": null,
        "id": 174,
        "quota": null,
        "pnrr": false,
        "distretto_modello": null
      },
      "geometry": {
        "type": "Point",
        "coordinates": [
          8.771357598614864,
          44.73237039004888
        ]
      }
    },
    {
      "type": "Feature",
      "properties": {
        "rot": 110,
        "layer": "RA_03ridprex",
        "comune": "Tassarolo",
        "marca": null,
        "modello": null,
        "materiale": null,
        "dn": null,
        "pn": null,
        "prex_monte": null,
        "alt_rel": null,
        "prex_valle": null,
        "data_ui": null,
        "ui_operatore": null,
        "tipo_giunz": null,
        "anno_posa": null,
        "x": null,
        "y": null,
        "rotazione": null,
        "id": 195,
        "quota": null,
        "pnrr": false,
        "distretto_modello": null
      },
      "geometry": {
        "type": "Point",
        "coordinates": [
          8.766217366312578,
          44.73012030384132
        ]
      }
    },
    {
      "type": "Feature",
      "properties": {
        "rot": 140,
        "layer": null,
        "comune": "Tassarolo",
        "marca": null,
        "modello": null,
        "materiale": null,
        "dn": null,
        "pn": null,
        "prex_monte": null,
        "alt_rel": null,
        "prex_valle": null,
        "data_ui": null,
        "ui_operatore": null,
        "tipo_giunz": null,
        "anno_posa": null,
        "x": null,
        "y": null,
        "rotazione": null,
        "id": 232,
        "quota": null,
        "pnrr": false,
        "distretto_modello": null
      },
      "geometry": {
        "type": "Point",
        "coordinates": [
          8.758374596885167,
          44.728841253538604
        ]
      }
    },
    {
      "type": "Feature",
      "properties": {
        "rot": 100,
        "layer": null,
        "comune": "Tassarolo",
        "marca": null,
        "modello": null,
        "materiale": null,
        "dn": null,
        "pn": null,
        "prex_monte": null,
        "alt_rel": null,
        "prex_valle": null,
        "data_ui": null,
        "ui_operatore": null,
        "tipo_giunz": null,
        "anno_posa": null,
        "x": null,
        "y": null,
        "rotazione": null,
        "id": 233,
        "quota": null,
        "pnrr": false,
        "distretto_modello": null
      },
      "geometry": {
        "type": "Point",
        "coordinates": [
          8.775216866800504,
          44.73043273996193
        ]
      }
    }
  ]
}