{
"type": "FeatureCollection",
"name": "DISTRETTI",
"crs": { "type": "name", "properties": { "name": "urn:ogc:def:crs:OGC:1.3:CRS84" } },
"features": [
{ "type": "Feature", "properties": { "Name": "Ortoliuzzo", "GlobalID": "{78BE5CBF-303F-48F9-8254-D7507308B857}", "KM_Distretto": 1.4, "Shape_Length": 7428.9235889918691, "Shape_Area": 743025.894749247, "SORGENTE_DATI": "RILEVATA" }, "geometry": { "type": "MultiPolygon", "coordinates": [ [ [ [ 15.45364588033965, 38.242862248273234, 0.0 ], [ 15.452874789707742, 38.24320868835914, 0.0 ], [ 15.452218708726907, 38.243609302095088, 0.0 ], [ 15.450244526956478, 38.244546204788975, 0.0 ], [ 15.449452622361679, 38.24482107931388, 0.0 ], [ 15.449162963563456, 38.245292468198294, 0.0 ], [ 15.449413166653878, 38.246224681756992, 0.0 ], [ 15.450147235403477, 38.246967846515574, 0.0 ], [ 15.452660330208662, 38.248898987676377, 0.0 ], [ 15.453342057256458, 38.248536516996474, 0.0 ], [ 15.454118350686452, 38.249613793051552, 0.0 ], [ 15.455023853419206, 38.250853968395354, 0.0 ], [ 15.456067834664111, 38.251535438670494, 0.0 ], [ 15.453652810216477, 38.253158449470327, 0.0 ], [ 15.453116383968474, 38.253516125890826, 0.0 ], [ 15.454414604632838, 38.254795230470457, 0.0 ], [ 15.456992593987994, 38.256385435028989, 0.0 ], [ 15.459307996769759, 38.258035877888254, 0.0 ], [ 15.461103356015137, 38.259290832828462, 0.0 ], [ 15.461827016526543, 38.25961672274623, 0.0 ], [ 15.462946234939979, 38.260364610935703, 0.0 ], [ 15.464580666189933, 38.261432862995996, 0.0 ], [ 15.466223560520815, 38.26044251263761, 0.0 ], [ 15.466725735209556, 38.260129055865292, 0.0 ], [ 15.466777248727521, 38.260044309873763, 0.0 ], [ 15.466806677095153, 38.259845671514732, 0.0 ], [ 15.467115250036288, 38.259515625100626, 0.0 ], [ 15.467473586592016, 38.258960579865551, 0.0 ], [ 15.467498772486236, 38.258517983568545, 0.0 ], [ 15.466625983732913, 38.258676078253039, 0.0 ], [ 15.466189183873462, 38.259391829613079, 0.0 ], [ 15.465972023550652, 38.259235257572755, 0.0 ], [ 15.46537034623381, 38.258527507024979, 0.0 ], [ 15.464278866049684, 38.25759550348144, 0.0 ], [ 15.464356560400153, 38.256903333991822, 0.0 ], [ 15.465383495909805, 38.256295414720739, 0.0 ], [ 15.465821625710911, 38.255145982257481, 0.0 ], [ 15.465223023071323, 38.255012773728374, 0.0 ], [ 15.46423055879402, 38.255725456490374, 0.0 ], [ 15.463701649068575, 38.255944688757651, 0.0 ], [ 15.462759594803103, 38.256174827753725, 0.0 ], [ 15.46205642570566, 38.255396449981099, 0.0 ], [ 15.462367238991947, 38.25498047247212, 0.0 ], [ 15.461833887815855, 38.254264353333767, 0.0 ], [ 15.461154200932924, 38.254889502809469, 0.0 ], [ 15.460632995315407, 38.254472781387776, 0.0 ], [ 15.459764267610179, 38.253704329313294, 0.0 ], [ 15.46016759144227, 38.253301403738405, 0.0 ], [ 15.45940954493277, 38.252596327393285, 0.0 ], [ 15.461311474092076, 38.251627947155086, 0.0 ], [ 15.460311380067555, 38.250677275949464, 0.0 ], [ 15.458776202267696, 38.251602751503647, 0.0 ], [ 15.456237630446573, 38.249201227990511, 0.0 ], [ 15.456068257796264, 38.249037518161799, 0.0 ], [ 15.455060867142654, 38.249471314412951, 0.0 ], [ 15.454323811134376, 38.248260375042321, 0.0 ], [ 15.453156140881278, 38.247411440051337, 0.0 ], [ 15.452643499885705, 38.246972663426504, 0.0 ], [ 15.451571806239793, 38.246060351429207, 0.0 ], [ 15.451020471015172, 38.245415763788735, 0.0 ], [ 15.45061516111876, 38.245082059990409, 0.0 ], [ 15.451759775878401, 38.24457831271458, 0.0 ], [ 15.453174831122388, 38.243965959256975, 0.0 ], [ 15.454484073001053, 38.243409702738376, 0.0 ], [ 15.45364588033965, 38.242862248273234, 0.0 ] ] ] ] } },
{ "type": "Feature", "properties": { "Name": "Rodia", "GlobalID": "{E82D9C45-99A5-41DC-BEFA-86C504BDBA4C}", "KM_Distretto": 14.6, "Shape_Length": 6547.699029739344, "Shape_Area": 1245184.699232436, "SORGENTE_DATI": "RILEVATA" }, "geometry": { "type": "MultiPolygon", "coordinates": [ [ [ [ 15.472999070805272, 38.258015251800771, 0.0 ], [ 15.472589765458792, 38.257536467981545, 0.0 ], [ 15.470118965597388, 38.257885522048589, 0.0 ], [ 15.469418527306683, 38.258576005186661, 0.0 ], [ 15.467819264783385, 38.258836738684494, 0.0 ], [ 15.467473586592016, 38.258960579865551, 0.0 ], [ 15.467115250036288, 38.259515625100626, 0.0 ], [ 15.466806677095153, 38.259845671514732, 0.0 ], [ 15.466777248727521, 38.260044309873763, 0.0 ], [ 15.466618919874122, 38.260298914326285, 0.0 ], [ 15.467021339795691, 38.26064980126781, 0.0 ], [ 15.467695675052894, 38.261045130551096, 0.0 ], [ 15.468846252999315, 38.262066930205613, 0.0 ], [ 15.468455758512878, 38.262449487344824, 0.0 ], [ 15.468814006782905, 38.262833240466009, 0.0 ], [ 15.468292395345101, 38.263471713960847, 0.0 ], [ 15.469095522021053, 38.264289900169707, 0.0 ], [ 15.470970405523207, 38.265525340838728, 0.0 ], [ 15.473063165530007, 38.267080422110602, 0.0 ], [ 15.47441149188159, 38.268269273217456, 0.0 ], [ 15.477573697594213, 38.270045230115237, 0.0 ], [ 15.480007828465105, 38.271496988870709, 0.0 ], [ 15.482286265312149, 38.27291867187644, 0.0 ], [ 15.484458955698033, 38.274023876967831, 0.0 ], [ 15.485398630688456, 38.273537533322703, 0.0 ], [ 15.486997163639039, 38.27412243220239, 0.0 ], [ 15.487426817897784, 38.273908252846546, 0.0 ], [ 15.487470758344015, 38.27274246107941, 0.0 ], [ 15.489098326758114, 38.271387955050677, 0.0 ], [ 15.489333610683838, 38.271052701243278, 0.0 ], [ 15.489076913617419, 38.270678197472542, 0.0 ], [ 15.488673075366343, 38.270275572641793, 0.0 ], [ 15.489436633720597, 38.269609504174525, 0.0 ], [ 15.490016870525876, 38.26909025420882, 0.0 ], [ 15.489529048248921, 38.268660419347661, 0.0 ], [ 15.488354112885903, 38.269201089424193, 0.0 ], [ 15.487974735801588, 38.267540313337541, 0.0 ], [ 15.487911559033133, 38.266803331890415, 0.0 ], [ 15.486477055237922, 38.265552028176359, 0.0 ], [ 15.484519186367169, 38.26551502885404, 0.0 ], [ 15.481222035835708, 38.26687184335421, 0.0 ], [ 15.478748451471493, 38.266179224775065, 0.0 ], [ 15.474931255405419, 38.264837176219679, 0.0 ], [ 15.474074430806731, 38.262290982632756, 0.0 ], [ 15.472955689577988, 38.261702642583501, 0.0 ], [ 15.472796697669997, 38.2605495151901, 0.0 ], [ 15.472999070805272, 38.258015251800771, 0.0 ] ] ] ] } },
{ "type": "Feature", "properties": { "Name": "Corridore", "GlobalID": "{25DB1F2B-34E6-4814-A3A9-125A8443AE99}", "KM_Distretto": 1.0, "Shape_Length": 1385.6910250686694, "Shape_Area": 69161.039743159243, "SORGENTE_DATI": "RILEVATA" }, "geometry": { "type": "MultiPolygon", "coordinates": [ [ [ [ 15.499367975015948, 38.2740506704124, 0.0 ], [ 15.499485028671984, 38.273771500713167, 0.0 ], [ 15.498702558447109, 38.273670327576632, 0.0 ], [ 15.498402317060229, 38.273505472343466, 0.0 ], [ 15.496858634983925, 38.273927346725465, 0.0 ], [ 15.496478920030951, 38.274070968723045, 0.0 ], [ 15.495489145734819, 38.274020337408118, 0.0 ], [ 15.494359740698544, 38.275124129136891, 0.0 ], [ 15.494228955872464, 38.276642383060967, 0.0 ], [ 15.494912631691907, 38.277110513356384, 0.0 ], [ 15.495458826174129, 38.276885785883692, 0.0 ], [ 15.496443695084377, 38.275272333437343, 0.0 ], [ 15.496961498457356, 38.274537456938283, 0.0 ], [ 15.497925439150837, 38.274729625106076, 0.0 ], [ 15.499367975015948, 38.2740506704124, 0.0 ] ] ] ] } },
{ "type": "Feature", "properties": { "Name": "S. Saba-S. Filippo", "GlobalID": "{5D60650C-3AC2-4CBC-8CC1-827B33836965}", "KM_Distretto": 9.0, "Shape_Length": 7530.7576410592992, "Shape_Area": 590652.1219207336, "SORGENTE_DATI": "RILEVATA" }, "geometry": { "type": "MultiPolygon", "coordinates": [ [ [ [ 15.490301025152835, 38.276253269733978, 0.0 ], [ 15.489185908979211, 38.277029860406948, 0.0 ], [ 15.490144246618165, 38.277621166615937, 0.0 ], [ 15.491870493941311, 38.278863430787496, 0.0 ], [ 15.493995680654084, 38.280182492562439, 0.0 ], [ 15.496332028217454, 38.282030509165565, 0.0 ], [ 15.498487047890022, 38.283287214617204, 0.0 ], [ 15.50032372942222, 38.284357095517038, 0.0 ], [ 15.501566722279343, 38.285134712684844, 0.0 ], [ 15.503813757892868, 38.286690933362635, 0.0 ], [ 15.504694433628481, 38.287298414408596, 0.0 ], [ 15.506119254196882, 38.288359900360192, 0.0 ], [ 15.506171364518517, 38.28852044728103, 0.0 ], [ 15.506294290927116, 38.288597622441472, 0.0 ], [ 15.506385951216778, 38.288578470292286, 0.0 ], [ 15.507681277390736, 38.289558937422512, 0.0 ], [ 15.508241066141807, 38.289878057052263, 0.0 ], [ 15.508698419744265, 38.290133308619531, 0.0 ], [ 15.509009065029966, 38.290314168824708, 0.0 ], [ 15.509524274562578, 38.290577205137112, 0.0 ], [ 15.509831636714448, 38.290774154564239, 0.0 ], [ 15.510187403147993, 38.291086112212504, 0.0 ], [ 15.510543040080096, 38.291379312780698, 0.0 ], [ 15.511095736634418, 38.291652897374028, 0.0 ], [ 15.511716375018134, 38.291918143975771, 0.0 ], [ 15.512258710543637, 38.292167652945771, 0.0 ], [ 15.512664982872977, 38.292407034749765, 0.0 ], [ 15.513217486385912, 38.292651135160355, 0.0 ], [ 15.51350291991997, 38.292628450223326, 0.0 ], [ 15.513640857077469, 38.292421522695648, 0.0 ], [ 15.512133624114588, 38.291422056209903, 0.0 ], [ 15.5108263686235, 38.290838992916854, 0.0 ], [ 15.508022751737618, 38.28873162132912, 0.0 ], [ 15.506119111797823, 38.287117480199477, 0.0 ], [ 15.505097843957635, 38.285865853504049, 0.0 ], [ 15.503994793168804, 38.284784655957779, 0.0 ], [ 15.503184237734953, 38.283990033811705, 0.0 ], [ 15.502468120306212, 38.283359855106823, 0.0 ], [ 15.501044961198343, 38.282641631496354, 0.0 ], [ 15.501522319152512, 38.282153647765959, 0.0 ], [ 15.502686228577801, 38.280374543405564, 0.0 ], [ 15.503964626103569, 38.280421394113468, 0.0 ], [ 15.504531036191697, 38.280719883387995, 0.0 ], [ 15.505710013604064, 38.280585533051322, 0.0 ], [ 15.506472490082469, 38.280799703959666, 0.0 ], [ 15.506868731864188, 38.281341061098964, 0.0 ], [ 15.507411620761236, 38.281643233923596, 0.0 ], [ 15.508046973033657, 38.281489729786443, 0.0 ], [ 15.508812985584715, 38.280655599146691, 0.0 ], [ 15.508230508560221, 38.280435701668068, 0.0 ], [ 15.507119787110298, 38.279439610132989, 0.0 ], [ 15.507047799800981, 38.27863527723666, 0.0 ], [ 15.505964924480809, 38.278057729996704, 0.0 ], [ 15.50424949682594, 38.278411831515299, 0.0 ], [ 15.503420167300641, 38.278493894337792, 0.0 ], [ 15.50215194192663, 38.279918904689126, 0.0 ], [ 15.501024412516157, 38.279368432948345, 0.0 ], [ 15.499380202638944, 38.279943818004384, 0.0 ], [ 15.497790324496229, 38.280617103449771, 0.0 ], [ 15.496494220189019, 38.279716426596686, 0.0 ], [ 15.49566231678982, 38.279372975953322, 0.0 ], [ 15.494716620105367, 38.278799130588595, 0.0 ], [ 15.492313984450876, 38.276944816491813, 0.0 ], [ 15.490830453936807, 38.276002467218625, 0.0 ], [ 15.490301025152835, 38.276253269733978, 0.0 ] ] ] ] } },
{ "type": "Feature", "properties": { "Name": "Calamona", "GlobalID": "{6D46CA94-4B28-4AB6-A278-1F2754AF6BB2}", "KM_Distretto": 3.3, "Shape_Length": 2922.549004663837, "Shape_Area": 255912.37093821651, "SORGENTE_DATI": "RILEVATA" }, "geometry": { "type": "MultiPolygon", "coordinates": [ [ [ [ 15.519978079729716, 38.282353759310112, 0.0 ], [ 15.518645971770447, 38.282747312216522, 0.0 ], [ 15.519769352238839, 38.284251624666382, 0.0 ], [ 15.518939022290967, 38.284435090865067, 0.0 ], [ 15.518129938562712, 38.284281757701685, 0.0 ], [ 15.5173717158758, 38.283964962500157, 0.0 ], [ 15.517470821772683, 38.28370913267959, 0.0 ], [ 15.516857376634222, 38.283170551520037, 0.0 ], [ 15.516117195318481, 38.282823073400024, 0.0 ], [ 15.515146682448686, 38.283021166150888, 0.0 ], [ 15.513163090478956, 38.284026690198196, 0.0 ], [ 15.512148308138181, 38.284594149265331, 0.0 ], [ 15.511787271591512, 38.28522036269792, 0.0 ], [ 15.511389871195753, 38.286118062772367, 0.0 ], [ 15.510733561676638, 38.287213665868769, 0.0 ], [ 15.511037596926384, 38.287392372197317, 0.0 ], [ 15.511925193487675, 38.287450861868052, 0.0 ], [ 15.513120437743343, 38.287752288150337, 0.0 ], [ 15.514304383149929, 38.288288847569156, 0.0 ], [ 15.514444150505804, 38.287879371411101, 0.0 ], [ 15.514209348911022, 38.287686191360834, 0.0 ], [ 15.514772593843713, 38.286641120458249, 0.0 ], [ 15.516149103048614, 38.286900833113563, 0.0 ], [ 15.516258648886174, 38.285888414768486, 0.0 ], [ 15.517190607822348, 38.285638992384712, 0.0 ], [ 15.518810879216566, 38.285529622923761, 0.0 ], [ 15.519612051340959, 38.28512743568259, 0.0 ], [ 15.521107193240557, 38.28384310728557, 0.0 ], [ 15.519978079729716, 38.282353759310112, 0.0 ] ] ] ] } },
{ "type": "Feature", "properties": { "Name": "Sparta'", "GlobalID": "{21245B5B-03C3-4DDA-91B6-C15275CF1649}", "KM_Distretto": 18.1, "Shape_Length": 7253.7808758841247, "Shape_Area": 1734854.9989564731, "SORGENTE_DATI": "RILEVATA" }, "geometry": { "type": "MultiPolygon", "coordinates": [ [ [ [ 15.552663337040865, 38.289244537075206, 0.0 ], [ 15.549766666682292, 38.289408501921891, 0.0 ], [ 15.548271978060237, 38.290054343961359, 0.0 ], [ 15.546823298989656, 38.291238388527745, 0.0 ], [ 15.544567194403729, 38.290534763404452, 0.0 ], [ 15.542397782053417, 38.290385101795337, 0.0 ], [ 15.542272752756951, 38.289922515724236, 0.0 ], [ 15.540449620937558, 38.290010784357406, 0.0 ], [ 15.53995332483751, 38.291402562671308, 0.0 ], [ 15.539115469429646, 38.293195188533481, 0.0 ], [ 15.535095585763749, 38.292191437426951, 0.0 ], [ 15.532766900469548, 38.291682421017541, 0.0 ], [ 15.53211149079905, 38.291486306242859, 0.0 ], [ 15.531428335764028, 38.290651950784152, 0.0 ], [ 15.530463146510225, 38.290329228785438, 0.0 ], [ 15.528394303725914, 38.290044183373354, 0.0 ], [ 15.527749745044568, 38.290439592941929, 0.0 ], [ 15.527798420776264, 38.292484341096539, 0.0 ], [ 15.527444121489198, 38.293098907512181, 0.0 ], [ 15.526538639450587, 38.294409942826555, 0.0 ], [ 15.525918886627318, 38.295697156761101, 0.0 ], [ 15.526382447546229, 38.296496900627417, 0.0 ], [ 15.530349415057053, 38.297297575139154, 0.0 ], [ 15.53276146905757, 38.297235538465287, 0.0 ], [ 15.538940944516927, 38.297984149352644, 0.0 ], [ 15.541553566507169, 38.298728512009028, 0.0 ], [ 15.544372774297944, 38.299338977941211, 0.0 ], [ 15.546022080745255, 38.299607294104199, 0.0 ], [ 15.546812201658906, 38.299460512167741, 0.0 ], [ 15.547838919388481, 38.298004262186815, 0.0 ], [ 15.547036382169129, 38.296495218243109, 0.0 ], [ 15.546599870896445, 38.295025883321742, 0.0 ], [ 15.548076171772223, 38.295350860793178, 0.0 ], [ 15.54882126221792, 38.295502248316851, 0.0 ], [ 15.549929881276073, 38.295463869563399, 0.0 ], [ 15.553085350761274, 38.294340719072999, 0.0 ], [ 15.554022210236226, 38.294250341339456, 0.0 ], [ 15.555092600172978, 38.294429356861436, 0.0 ], [ 15.5557187176029, 38.294072402872864, 0.0 ], [ 15.555749951349529, 38.293456312245183, 0.0 ], [ 15.554612653288773, 38.291594187486396, 0.0 ], [ 15.554523560562126, 38.290112482920911, 0.0 ], [ 15.552663337040865, 38.289244537075206, 0.0 ] ] ] ] } },
{ "type": "Feature", "properties": { "Name": "Piano Torre", "GlobalID": "{428B087B-0A66-420D-9DC4-CF57BB0FDABA}", "KM_Distretto": 4.9, "Shape_Length": 3590.3380542268364, "Shape_Area": 437575.14392991568, "SORGENTE_DATI": "RILEVATA" }, "geometry": { "type": "MultiPolygon", "coordinates": [ [ [ [ 15.524537775516295, 38.286554560946399, 0.0 ], [ 15.522566271456329, 38.28672109610676, 0.0 ], [ 15.522401455158523, 38.287975045238582, 0.0 ], [ 15.521153989527344, 38.288791777720441, 0.0 ], [ 15.520749913618564, 38.289159913058661, 0.0 ], [ 15.520298275898599, 38.289842264132865, 0.0 ], [ 15.519417216686641, 38.290833981320553, 0.0 ], [ 15.519072247036753, 38.291345768462818, 0.0 ], [ 15.517624764583907, 38.290894237548272, 0.0 ], [ 15.516838063220987, 38.291152836159974, 0.0 ], [ 15.515246824751529, 38.291351183410988, 0.0 ], [ 15.51491259216799, 38.29177173580306, 0.0 ], [ 15.515796660206721, 38.2920744988458, 0.0 ], [ 15.517197256038118, 38.292058110741735, 0.0 ], [ 15.518572129208966, 38.292072485092099, 0.0 ], [ 15.51886407366441, 38.293001356668384, 0.0 ], [ 15.519686825813842, 38.293794997088199, 0.0 ], [ 15.521817327352766, 38.294276174592383, 0.0 ], [ 15.521678688546148, 38.29483897675258, 0.0 ], [ 15.523158912991997, 38.295067481404615, 0.0 ], [ 15.523373623559973, 38.29606823639881, 0.0 ], [ 15.524100375683227, 38.296126320915498, 0.0 ], [ 15.525047967743582, 38.295872269250587, 0.0 ], [ 15.52536575044841, 38.295046579993802, 0.0 ], [ 15.525435456031452, 38.294352837165562, 0.0 ], [ 15.525537606244042, 38.293554280236727, 0.0 ], [ 15.524898285903234, 38.293530975092409, 0.0 ], [ 15.52483617791075, 38.292975200247525, 0.0 ], [ 15.525196537007362, 38.292299781969348, 0.0 ], [ 15.525198188601793, 38.29137738001819, 0.0 ], [ 15.525377302851526, 38.29089248524091, 0.0 ], [ 15.524898589387076, 38.290116153546535, 0.0 ], [ 15.52488364565022, 38.28919382549671, 0.0 ], [ 15.525433089982709, 38.288268971863189, 0.0 ], [ 15.525645440544034, 38.287790468765351, 0.0 ], [ 15.525799751336306, 38.287112260739924, 0.0 ], [ 15.524537775516295, 38.286554560946399, 0.0 ] ] ] ] } },
{ "type": "Feature", "properties": { "Name": "Massa S. Giovanni-Massa S. Lucia", "GlobalID": "{2E2F7E21-DE2F-48E9-911B-FEBBB7E69A3F}", "KM_Distretto": 8.0, "Shape_Length": 5532.147599793263, "Shape_Area": 1011763.5182452926, "SORGENTE_DATI": "RILEVATA" }, "geometry": { "type": "MultiPolygon", "coordinates": [ [ [ [ 15.544915856908824, 38.27283411665271, 0.0 ], [ 15.547515112768197, 38.271087054052821, 0.0 ], [ 15.548903272164615, 38.272613370431785, 0.0 ], [ 15.551834750820372, 38.272172837740307, 0.0 ], [ 15.552524924124878, 38.271597674740654, 0.0 ], [ 15.552469196689673, 38.27086601617885, 0.0 ], [ 15.552489342229713, 38.27021312721336, 0.0 ], [ 15.551040467069868, 38.269408893178799, 0.0 ], [ 15.54994928763665, 38.267793573204379, 0.0 ], [ 15.550873119583001, 38.265573453959206, 0.0 ], [ 15.547260177233266, 38.262490566483969, 0.0 ], [ 15.545453149453824, 38.260859233085107, 0.0 ], [ 15.545027303552013, 38.257244782148199, 0.0 ], [ 15.543833862551068, 38.256321559566118, 0.0 ], [ 15.542722264085571, 38.256191974727635, 0.0 ], [ 15.542334939233903, 38.257720710926584, 0.0 ], [ 15.541062949380157, 38.259006522088939, 0.0 ], [ 15.540616288305984, 38.260221154887446, 0.0 ], [ 15.541632790616548, 38.263312964057086, 0.0 ], [ 15.54152011928786, 38.263978024182137, 0.0 ], [ 15.54186209141403, 38.267793688315408, 0.0 ], [ 15.545426288185784, 38.267328996862226, 0.0 ], [ 15.544558644584905, 38.268321491469145, 0.0 ], [ 15.542177341269628, 38.270330464850467, 0.0 ], [ 15.54212218547487, 38.271349474693409, 0.0 ], [ 15.542948541233461, 38.272663538684533, 0.0 ], [ 15.544915856908824, 38.27283411665271, 0.0 ] ] ] ] } },
{ "type": "Feature", "properties": { "Name": "Gesso Locanda", "GlobalID": "{05BC07B8-CCCF-4495-A8F1-45B2596FEDD6}", "KM_Distretto": 2.7, "Shape_Length": 4461.4888771132473, "Shape_Area": 431688.81533649086, "SORGENTE_DATI": "RILEVATA" }, "geometry": { "type": "MultiPolygon", "coordinates": [ [ [ [ 15.480746525469424, 38.23028093109658, 0.0 ], [ 15.480593991661577, 38.230542085540911, 0.0 ], [ 15.480247058710106, 38.231252999628367, 0.0 ], [ 15.480107816098647, 38.231483555766829, 0.0 ], [ 15.483397165347405, 38.231367613893809, 0.0 ], [ 15.485014941627693, 38.231716544139907, 0.0 ], [ 15.48637695051959, 38.231266402460371, 0.0 ], [ 15.487576759745819, 38.23390909759955, 0.0 ], [ 15.490054415722323, 38.234063147426163, 0.0 ], [ 15.491740173392564, 38.233632927597938, 0.0 ], [ 15.493046673911456, 38.233758296800907, 0.0 ], [ 15.494929352154349, 38.234950839153669, 0.0 ], [ 15.49566815155063, 38.234891741490678, 0.0 ], [ 15.496120474829929, 38.234391292721511, 0.0 ], [ 15.496223983026574, 38.233805358882314, 0.0 ], [ 15.495227596207586, 38.230889199234987, 0.0 ], [ 15.497608666187032, 38.229966410441882, 0.0 ], [ 15.498386991969964, 38.228926323969347, 0.0 ], [ 15.498256003982858, 38.228522280658822, 0.0 ], [ 15.497136651003466, 38.228912660447314, 0.0 ], [ 15.496982174147274, 38.229766765510057, 0.0 ], [ 15.496068203629072, 38.229720056517756, 0.0 ], [ 15.495035049284036, 38.229825568006319, 0.0 ], [ 15.493861865890619, 38.230557524108733, 0.0 ], [ 15.493218112151011, 38.230174597412791, 0.0 ], [ 15.491511954413681, 38.230314513386332, 0.0 ], [ 15.490495185694455, 38.229281982230376, 0.0 ], [ 15.488977400567681, 38.22962419525134, 0.0 ], [ 15.488450815540682, 38.230377867240115, 0.0 ], [ 15.486073455897209, 38.230823944337445, 0.0 ], [ 15.483444940687638, 38.230190093932947, 0.0 ], [ 15.481214998859407, 38.23029186228348, 0.0 ], [ 15.480746525469424, 38.23028093109658, 0.0 ] ] ] ] } },
{ "type": "Feature", "properties": { "Name": "Salice", "GlobalID": "{8B90540A-88DE-4599-8500-4EB4331EE126}", "KM_Distretto": 11.1, "Shape_Length": 13477.370509421533, "Shape_Area": 1381971.5525031311, "SORGENTE_DATI": "RILEVATA" }, "geometry": { "type": "MultiPolygon", "coordinates": [ [ [ [ 15.47859979524282, 38.260700888563761, 0.0 ], [ 15.481211007613442, 38.259743454418306, 0.0 ], [ 15.482336627001812, 38.259986020549185, 0.0 ], [ 15.486133450533922, 38.257336895069763, 0.0 ], [ 15.484404431296847, 38.257384670283081, 0.0 ], [ 15.486511340187109, 38.256226682242868, 0.0 ], [ 15.488519331887332, 38.254579214576793, 0.0 ], [ 15.48906058930484, 38.253342904966182, 0.0 ], [ 15.48947478360216, 38.252757121070658, 0.0 ], [ 15.49374175136521, 38.251307366227088, 0.0 ], [ 15.495142148908334, 38.251706537135668, 0.0 ], [ 15.495938324447085, 38.251086147967214, 0.0 ], [ 15.498142308429657, 38.250407372479977, 0.0 ], [ 15.499629383239361, 38.253577437368897, 0.0 ], [ 15.500626285161829, 38.253388969391118, 0.0 ], [ 15.500584381620738, 38.252092338742315, 0.0 ], [ 15.498846340642656, 38.250089404588984, 0.0 ], [ 15.49890059496755, 38.24928845061369, 0.0 ], [ 15.497639561290908, 38.248020937543927, 0.0 ], [ 15.496816466380949, 38.247276832198068, 0.0 ], [ 15.496344982113422, 38.245889147528359, 0.0 ], [ 15.498008195810227, 38.244553842457911, 0.0 ], [ 15.499928439872901, 38.244131186312707, 0.0 ], [ 15.501531272860099, 38.244454058101113, 0.0 ], [ 15.50345831529765, 38.245020444209807, 0.0 ], [ 15.504764235776422, 38.243966828455839, 0.0 ], [ 15.505471504506986, 38.243684120244126, 0.0 ], [ 15.510596060527055, 38.242543279762806, 0.0 ], [ 15.51111429362861, 38.241922818215912, 0.0 ], [ 15.51233301863221, 38.240062886685934, 0.0 ], [ 15.514623297177744, 38.23881379328752, 0.0 ], [ 15.516590737643025, 38.238141962930634, 0.0 ], [ 15.516576738818994, 38.237243706092585, 0.0 ], [ 15.515416758613348, 38.237514080904653, 0.0 ], [ 15.513893267686447, 38.237183137839864, 0.0 ], [ 15.510901509882233, 38.237853358845875, 0.0 ], [ 15.506684579412903, 38.23822734896018, 0.0 ], [ 15.506506773561609, 38.239042028965279, 0.0 ], [ 15.509341019827719, 38.24070883452562, 0.0 ], [ 15.507620083807724, 38.242289477562053, 0.0 ], [ 15.505125240245127, 38.24251690803392, 0.0 ], [ 15.502978386731716, 38.242978301552149, 0.0 ], [ 15.503044275891888, 38.243872945799602, 0.0 ], [ 15.503251423834778, 38.244465535179657, 0.0 ], [ 15.50145449316812, 38.243710183688073, 0.0 ], [ 15.497498240022335, 38.243340789760573, 0.0 ], [ 15.496070031327507, 38.244100457675891, 0.0 ], [ 15.493772792661124, 38.243535508024273, 0.0 ], [ 15.491769613521496, 38.244062034388087, 0.0 ], [ 15.49029620938323, 38.245217473260716, 0.0 ], [ 15.488179949850732, 38.243134991932742, 0.0 ], [ 15.487228987792786, 38.24382662412652, 0.0 ], [ 15.485979203992633, 38.244491226002083, 0.0 ], [ 15.486138436759344, 38.245084044282599, 0.0 ], [ 15.487481278493727, 38.245832096755422, 0.0 ], [ 15.486894529631359, 38.247407719442606, 0.0 ], [ 15.485586021889315, 38.248232704393587, 0.0 ], [ 15.484502006612061, 38.248689358667185, 0.0 ], [ 15.482615144974543, 38.248772495254784, 0.0 ], [ 15.482594285593681, 38.250021356583815, 0.0 ], [ 15.485376137258742, 38.250127637043136, 0.0 ], [ 15.487070421134169, 38.249487692763303, 0.0 ], [ 15.488917836617055, 38.249421134410603, 0.0 ], [ 15.48981769448425, 38.250006149379686, 0.0 ], [ 15.490796286168443, 38.251194313452132, 0.0 ], [ 15.488677523562961, 38.252557319620848, 0.0 ], [ 15.488168182078306, 38.253794900810469, 0.0 ], [ 15.48729294105657, 38.254859267391673, 0.0 ], [ 15.486292744656819, 38.255652704310485, 0.0 ], [ 15.484373009174059, 38.256475744211201, 0.0 ], [ 15.480519018069, 38.258007662148671, 0.0 ], [ 15.479811125630782, 38.258231346950453, 0.0 ], [ 15.477874408208518, 38.259920814618972, 0.0 ], [ 15.47859979524282, 38.260700888563761, 0.0 ] ] ] ] } },
{ "type": "Feature", "properties": { "Name": "Gesso", "GlobalID": "{4395D310-79B5-41A8-9D86-631426AF95F1}", "KM_Distretto": 9.9, "Shape_Length": 4542.5551186275698, "Shape_Area": 308860.91004079505, "SORGENTE_DATI": "RILEVATA" }, "geometry": { "type": "MultiPolygon", "coordinates": [ [ [ [ 15.480107816098647, 38.231483555766829, 0.0 ], [ 15.480247058710106, 38.231252999628367, 0.0 ], [ 15.480593991661577, 38.230542085540911, 0.0 ], [ 15.480746525469424, 38.23028093109658, 0.0 ], [ 15.478964471192482, 38.230239331008576, 0.0 ], [ 15.478282986656389, 38.230751438888376, 0.0 ], [ 15.477624491771644, 38.231788213824288, 0.0 ], [ 15.475212853886301, 38.23238657359849, 0.0 ], [ 15.473597667313326, 38.232429302271477, 0.0 ], [ 15.470325273549754, 38.23354809053555, 0.0 ], [ 15.469795068615198, 38.233258902064321, 0.0 ], [ 15.469168606730848, 38.233156212494585, 0.0 ], [ 15.468431712775249, 38.233430237291749, 0.0 ], [ 15.468193120984045, 38.233819604167763, 0.0 ], [ 15.468532536104295, 38.234077125735318, 0.0 ], [ 15.468418825724633, 38.234619809350036, 0.0 ], [ 15.467839347848477, 38.234646396532575, 0.0 ], [ 15.466841924146937, 38.235088627174129, 0.0 ], [ 15.466344893092387, 38.235178323196877, 0.0 ], [ 15.465635136734607, 38.235220130816153, 0.0 ], [ 15.464877281391836, 38.23541737073198, 0.0 ], [ 15.463878485237903, 38.235329706202776, 0.0 ], [ 15.463223031768745, 38.235510318157985, 0.0 ], [ 15.462347446962832, 38.23566568918605, 0.0 ], [ 15.461594492296095, 38.235734192372455, 0.0 ], [ 15.460958693617235, 38.235933309818222, 0.0 ], [ 15.461099974964824, 38.236376026794659, 0.0 ], [ 15.462252154074475, 38.236104860860358, 0.0 ], [ 15.463014622378164, 38.236047557172078, 0.0 ], [ 15.464166227538783, 38.235946884300894, 0.0 ], [ 15.465356668748418, 38.236093019300533, 0.0 ], [ 15.466023123045042, 38.236515125344134, 0.0 ], [ 15.466538353221715, 38.236789659324309, 0.0 ], [ 15.46715219828643, 38.236816851612566, 0.0 ], [ 15.467417911497709, 38.237240543077625, 0.0 ], [ 15.468144662931575, 38.23729691434837, 0.0 ], [ 15.467750423680227, 38.23831590946093, 0.0 ], [ 15.468290215618293, 38.238511315561595, 0.0 ], [ 15.470351675342778, 38.235786649188796, 0.0 ], [ 15.470211755356676, 38.235451361176708, 0.0 ], [ 15.472147760200976, 38.234653357244845, 0.0 ], [ 15.473359691581038, 38.234213847789775, 0.0 ], [ 15.474797151456048, 38.233793169962119, 0.0 ], [ 15.475915047867051, 38.234302293637363, 0.0 ], [ 15.477819708969317, 38.232556044083921, 0.0 ], [ 15.479591072107795, 38.23150176187049, 0.0 ], [ 15.480107816098647, 38.231483555766829, 0.0 ] ] ] ] } },
{ "type": "Feature", "properties": { "Name": "Marotta", "GlobalID": "{2D24355F-0DE2-492D-BA9D-DF0A8422C67E}", "KM_Distretto": 9.071, "Shape_Length": 4238.7552473579735, "Shape_Area": 1095083.0879464643, "SORGENTE_DATI": "RILEVATA" }, "geometry": { "type": "MultiPolygon", "coordinates": [ [ [ [ 15.562873414833154, 38.255719391829977, 0.0 ], [ 15.563361594475094, 38.25675262215649, 0.0 ], [ 15.564197755716647, 38.257520277473297, 0.0 ], [ 15.56541408526097, 38.258426847590655, 0.0 ], [ 15.567801557589856, 38.258869316656067, 0.0 ], [ 15.568222120249379, 38.257571745068162, 0.0 ], [ 15.570890735815899, 38.25686341054859, 0.0 ], [ 15.572583295957202, 38.258578424785284, 0.0 ], [ 15.573756072147374, 38.258379789776804, 0.0 ], [ 15.576208925066149, 38.255049780393364, 0.0 ], [ 15.576241744426563, 38.251792921695007, 0.0 ], [ 15.570881114417286, 38.248192072528951, 0.0 ], [ 15.564097553618947, 38.247855331490108, 0.0 ], [ 15.563158769898106, 38.251677786755167, 0.0 ], [ 15.563690178481174, 38.254567567677128, 0.0 ], [ 15.562873414833154, 38.255719391829977, 0.0 ] ] ] ] } },
{ "type": "Feature", "properties": { "Name": "Faro Superiore", "GlobalID": "{D0979F66-E0BB-4181-8D00-39F91495893B}", "KM_Distretto": 21.97, "Shape_Length": 7211.8127888593472, "Shape_Area": 2466049.5239934963, "SORGENTE_DATI": "RILEVATA" }, "geometry": { "type": "MultiPolygon", "coordinates": [ [ [ [ 15.588687733213719, 38.267603997929449, 0.0 ], [ 15.589097276868801, 38.26440545636023, 0.0 ], [ 15.59341824039339, 38.263740096451571, 0.0 ], [ 15.596457758329871, 38.258537019105717, 0.0 ], [ 15.593484894683208, 38.255177372470797, 0.0 ], [ 15.592928585838001, 38.25454864197895, 0.0 ], [ 15.583256309856623, 38.25704409267432, 0.0 ], [ 15.581352405960637, 38.261148051992507, 0.0 ], [ 15.581187902351868, 38.262357097374178, 0.0 ], [ 15.57975891396609, 38.262725298031881, 0.0 ], [ 15.578324416019617, 38.263554673201639, 0.0 ], [ 15.577950400473201, 38.264062654263725, 0.0 ], [ 15.576658752199473, 38.266567057194791, 0.0 ], [ 15.572675319324137, 38.267149491084652, 0.0 ], [ 15.574497183794428, 38.274548311217565, 0.0 ], [ 15.575509890012006, 38.276381925750599, 0.0 ], [ 15.586872449604337, 38.27266178755189, 0.0 ], [ 15.587029584588478, 38.271031033152049, 0.0 ], [ 15.588793670915914, 38.270079578456688, 0.0 ], [ 15.588687733213719, 38.267603997929449, 0.0 ] ] ] ] } },
{ "type": "Feature", "properties": { "Name": "Sperone", "GlobalID": "{9331AB67-8A7E-4EA2-8EA9-B597BFB80D21}", "KM_Distretto": 13.34, "Shape_Length": 6338.0934694856396, "Shape_Area": 1673700.2221364302, "SORGENTE_DATI": "RILEVATA" }, "geometry": { "type": "MultiPolygon", "coordinates": [ [ [ [ 15.596701356974028, 38.259282688535123, 0.0 ], [ 15.593825473181067, 38.2641084937976, 0.0 ], [ 15.589480974279295, 38.264746776774437, 0.0 ], [ 15.589381256265439, 38.270871672890593, 0.0 ], [ 15.597684814181488, 38.271611159371794, 0.0 ], [ 15.603519641208731, 38.267501481976467, 0.0 ], [ 15.610037674302728, 38.269958875284459, 0.0 ], [ 15.616421462981883, 38.267013382648848, 0.0 ], [ 15.610780908066463, 38.264992530343704, 0.0 ], [ 15.605728759054909, 38.263176135210777, 0.0 ], [ 15.597055088575454, 38.258831738097271, 0.0 ], [ 15.596701356974028, 38.259282688535123, 0.0 ] ] ] ] } },
{ "type": "Feature", "properties": { "Name": "Pezzolo", "GlobalID": "{B191CF75-60AD-4D7C-8A64-4E6F68B60643}", "KM_Distretto": 16.61, "Shape_Length": 6895.4105427995992, "Shape_Area": 1388511.4576663177, "SORGENTE_DATI": "RILEVATA" }, "geometry": { "type": "MultiPolygon", "coordinates": [ [ [ [ 15.454328265736006, 38.085968983113702, 0.0 ], [ 15.45708877416989, 38.08892429295782, 0.0 ], [ 15.47598478513558, 38.084830648289973, 0.0 ], [ 15.487947586854691, 38.081343044314046, 0.0 ], [ 15.487306345504578, 38.078363293041626, 0.0 ], [ 15.476970683720712, 38.079423222861706, 0.0 ], [ 15.467144197314834, 38.08381350688061, 0.0 ], [ 15.460478530206975, 38.082717023158395, 0.0 ], [ 15.455196965577123, 38.082877947427484, 0.0 ], [ 15.454328265736006, 38.085968983113702, 0.0 ] ] ] ] } },
{ "type": "Feature", "properties": { "Name": "Briga Superiore", "GlobalID": "{11096F72-371F-4CC8-9257-AF7B146858A9}", "KM_Distretto": 7.71, "Shape_Length": 4256.5879709875207, "Shape_Area": 579206.77490383538, "SORGENTE_DATI": "RILEVATA" }, "geometry": { "type": "MultiPolygon", "coordinates": [ [ [ [ 15.470724494958741, 38.081378737606904, 0.0 ], [ 15.475330896295883, 38.079606504598971, 0.0 ], [ 15.481485728247758, 38.077975720073582, 0.0 ], [ 15.484619086335897, 38.076308775121447, 0.0 ], [ 15.486045991274061, 38.071967888362892, 0.0 ], [ 15.485377183041939, 38.070646069268051, 0.0 ], [ 15.483157469371852, 38.070253826590104, 0.0 ], [ 15.480406314075214, 38.07312046655457, 0.0 ], [ 15.480313925272332, 38.076111487162379, 0.0 ], [ 15.476953216161435, 38.076718108830249, 0.0 ], [ 15.473355971195607, 38.076828103073616, 0.0 ], [ 15.469327998236013, 38.07952925699972, 0.0 ], [ 15.470724494958741, 38.081378737606904, 0.0 ] ] ] ] } },
{ "type": "Feature", "properties": { "Name": "Zafferia ", "GlobalID": "{BEBE8CBE-CD79-419B-9C7E-2A20CB4C8234}", "KM_Distretto": 7.21, "Shape_Length": 4039.3244785726597, "Shape_Area": 958993.58797706885, "SORGENTE_DATI": "RILEVATA" }, "geometry": { "type": "MultiPolygon", "coordinates": [ [ [ [ 15.511031401831019, 38.155128196429914, 0.0 ], [ 15.511061953578498, 38.152761974357112, 0.0 ], [ 15.5113488013933, 38.150989461742405, 0.0 ], [ 15.511390000306614, 38.15058500045712, 134.100000000005821 ], [ 15.511403141931394, 38.150059240168979, 0.0 ], [ 15.511234608131742, 38.149903649688468, 0.0 ], [ 15.511000969717646, 38.148467017597824, 0.0 ], [ 15.510699109681561, 38.148258255197923, 0.0 ], [ 15.501092248901674, 38.148905932267517, 0.0 ], [ 15.493984779114431, 38.150969602067264, 0.0 ], [ 15.497649503598295, 38.153921376580385, 0.0 ], [ 15.507687754222628, 38.156871770737801, 0.0 ], [ 15.511031401831019, 38.155128196429914, 0.0 ] ] ] ] } },
{ "type": "Feature", "properties": { "Name": "Tremestieri alto", "GlobalID": "{8D8F0869-7ACC-42A4-A62A-613B52C79602}", "KM_Distretto": 5.283, "Shape_Length": 2782.8460350935752, "Shape_Area": 314915.43897546653, "SORGENTE_DATI": "RILEVATA" }, "geometry": { "type": "MultiPolygon", "coordinates": [ [ [ [ 15.511337326923373, 38.151443152788602, 0.0 ], [ 15.52405473118966, 38.148009389111252, 0.0 ], [ 15.523527056873235, 38.14699830970784, 0.0 ], [ 15.521553265151868, 38.145136582468524, 0.0 ], [ 15.520371995549882, 38.145930211305348, 0.0 ], [ 15.513428499919119, 38.148301267096365, 0.0 ], [ 15.512543956564095, 38.149138721433033, 0.0 ], [ 15.512360147498429, 38.149292475051965, 0.0 ], [ 15.511699166957321, 38.149825475800959, 0.0 ], [ 15.511450203805257, 38.150035888231542, 0.0 ], [ 15.511430790926918, 38.150468473109783, 115.086200000005192 ], [ 15.511385774826218, 38.150997687877009, 0.0 ], [ 15.511337326923373, 38.151443152788602, 0.0 ] ] ] ] } },
{ "type": "Feature", "properties": { "Name": "Mili San Pietro", "GlobalID": "{DF378DA2-1E2E-4217-97DF-FF6BE6E624A4}", "KM_Distretto": 10.38, "Shape_Length": 5274.5895924264014, "Shape_Area": 1099198.4015441588, "SORGENTE_DATI": "RILEVATA" }, "geometry": { "type": "MultiPolygon", "coordinates": [ [ [ [ 15.493304171564461, 38.12790621880692, 0.0 ], [ 15.494177136118601, 38.123153780647698, 0.0 ], [ 15.489450722965161, 38.123570766190298, 0.0 ], [ 15.485550161122896, 38.126457383693761, 0.0 ], [ 15.482676328693637, 38.126838973102707, 0.0 ], [ 15.480947395570784, 38.128067421968517, 0.0 ], [ 15.482659045753513, 38.128375972827733, 0.0 ], [ 15.485571788174525, 38.129090483493563, 0.0 ], [ 15.483280055286089, 38.129960695228959, 0.0 ], [ 15.481245923940131, 38.131900229141756, 0.0 ], [ 15.4888823918889, 38.13856580151478, 0.0 ], [ 15.491054264498013, 38.13827059111339, 0.0 ], [ 15.492427846624384, 38.135999480136981, 0.0 ], [ 15.490310002763156, 38.132414088497562, 0.0 ], [ 15.493304171564461, 38.12790621880692, 0.0 ] ] ] ] } },
{ "type": "Feature", "properties": { "Name": "Mili San Marco", "GlobalID": "{9FD4984F-EEAA-4532-8074-197571E6A701}", "KM_Distretto": 7.8, "Shape_Length": 2535.8698008594715, "Shape_Area": 349028.34302418708, "SORGENTE_DATI": "RILEVATA" }, "geometry": { "type": "MultiPolygon", "coordinates": [ [ [ [ 15.502569744742109, 38.12282448252467, 0.0 ], [ 15.50795742318099, 38.122897032539697, 0.0 ], [ 15.509303080705291, 38.122182974584774, 0.0 ], [ 15.513490218582938, 38.119892884698004, 0.0 ], [ 15.513478367257417, 38.118200536704876, 0.0 ], [ 15.50949911140998, 38.118558180554899, 0.0 ], [ 15.507842100893514, 38.117833003552242, 0.0 ], [ 15.503836537735205, 38.119731407022684, 0.0 ], [ 15.502569744742109, 38.12282448252467, 0.0 ] ] ] ] } },
{ "type": "Feature", "properties": { "Name": "Mili Marina", "GlobalID": "{BE9DD21B-6AAC-40F3-B2A0-446BFC671531}", "KM_Distretto": 23.08, "Shape_Length": 13824.647815194299, "Shape_Area": 2788791.2937224014, "SORGENTE_DATI": "RILEVATA" }, "geometry": { "type": "MultiPolygon", "coordinates": [ [ [ [ 15.518540866274522, 38.11921129680475, 0.0 ], [ 15.515557270874684, 38.114652519111885, 0.0 ], [ 15.511424243623917, 38.107316547951442, 0.0 ], [ 15.50879281729333, 38.104645555629567, 0.0 ], [ 15.507848010791147, 38.103157736746226, 0.0 ], [ 15.507610301294411, 38.101877833676596, 0.0 ], [ 15.505508144957098, 38.095708288043788, 0.0 ], [ 15.504383891670434, 38.09522900716069, 0.0 ], [ 15.503526420761334, 38.092861831897757, 0.0 ], [ 15.503299093780347, 38.090748260939442, 0.0 ], [ 15.501991157247559, 38.087702181095963, 0.0 ], [ 15.49852314456334, 38.08440895870082, 0.0 ], [ 15.495887870591917, 38.081336391465975, 0.0 ], [ 15.495382225753993, 38.080040640035882, 0.0 ], [ 15.493039843426789, 38.08084582364436, 0.0 ], [ 15.494679933747745, 38.086584083656049, 0.0 ], [ 15.497840402891967, 38.090878903797027, 0.0 ], [ 15.500688613351164, 38.094686096803123, 0.0 ], [ 15.501048820574685, 38.095147159342709, 0.0 ], [ 15.501073629347839, 38.095811853348529, 0.0 ], [ 15.501079645092576, 38.096692887295099, 0.0 ], [ 15.501962831989799, 38.09689736816896, 0.0 ], [ 15.503360824399863, 38.096802530275198, 0.0 ], [ 15.502169605501104, 38.103860281418442, 0.0 ], [ 15.504184985854481, 38.105735371455424, 0.0 ], [ 15.507776691335902, 38.108283571010226, 0.0 ], [ 15.507992208039354, 38.109439995847538, 0.0 ], [ 15.507536614053087, 38.116405780429382, 0.0 ], [ 15.507842100893514, 38.117833003552242, 0.0 ], [ 15.50949911140998, 38.118558180554899, 0.0 ], [ 15.511682825966352, 38.118361932214597, 0.0 ], [ 15.513478367257417, 38.118200536704876, 0.0 ], [ 15.513490218582938, 38.119892884698004, 0.0 ], [ 15.514147881584586, 38.122145944610956, 0.0 ], [ 15.513805759216583, 38.123860248197552, 0.0 ], [ 15.513765433182181, 38.126249953337627, 0.0 ], [ 15.515182897237407, 38.128971412372735, 0.0 ], [ 15.516163178687494, 38.130387299727623, 0.0 ], [ 15.518745919348559, 38.132122363220532, 0.0 ], [ 15.52272288104616, 38.131678078079716, 0.0 ], [ 15.523212597500613, 38.130423742004169, 0.0 ], [ 15.521622783121677, 38.127590432383464, 0.0 ], [ 15.518540866274522, 38.11921129680475, 0.0 ] ] ] ] } },
{ "type": "Feature", "properties": { "Name": "Galati S. Lucia", "GlobalID": "{1394EF42-26C0-4316-BED2-6FB007F1D3A5}", "KM_Distretto": 5.97, "Shape_Length": 4494.9166243121517, "Shape_Area": 616638.20373062475, "SORGENTE_DATI": "RILEVATA" }, "geometry": { "type": "MultiPolygon", "coordinates": [ [ [ [ 15.492381764664765, 38.10727409792004, 0.0 ], [ 15.493583601917194, 38.110582930060744, 0.0 ], [ 15.495886885364742, 38.113757815021309, 0.0 ], [ 15.498177084220062, 38.113373338489133, 0.0 ], [ 15.500087735933644, 38.115634850718472, 0.0 ], [ 15.500130722961275, 38.118065465408719, 0.0 ], [ 15.501342950597486, 38.11767429209609, 0.0 ], [ 15.501608980261564, 38.116024805583073, 0.0 ], [ 15.500317497297726, 38.113013963367067, 0.0 ], [ 15.507998025499743, 38.109446587780567, 0.0 ], [ 15.507782508684151, 38.108290162956003, 0.0 ], [ 15.503592745039086, 38.108601324390435, 0.0 ], [ 15.500320242636136, 38.108612713804455, 0.0 ], [ 15.492381764664765, 38.10727409792004, 0.0 ] ] ] ] } },
{ "type": "Feature", "properties": { "Name": "S. Margherita", "GlobalID": "{4B11B94C-8688-47DB-A24A-CB659B84BC22}", "KM_Distretto": 16.4, "Shape_Length": 5613.7542321255787, "Shape_Area": 989894.96126532229, "SORGENTE_DATI": "RILEVATA" }, "geometry": { "type": "MultiPolygon", "coordinates": [ [ [ [ 15.490503678598905, 38.10461593784278, 0.0 ], [ 15.490206452423195, 38.103165691898354, 0.0 ], [ 15.492428431532938, 38.103504104009481, 0.0 ], [ 15.493060504737608, 38.105016484143498, 0.0 ], [ 15.496379458307031, 38.105046215975378, 0.0 ], [ 15.498962575810635, 38.102609591166697, 0.0 ], [ 15.497481030886908, 38.100277600057453, 0.0 ], [ 15.498394901962568, 38.099555392829608, 0.0 ], [ 15.501559784835177, 38.098138018164043, 0.0 ], [ 15.500491530948981, 38.095387954548592, 0.0 ], [ 15.496831348003575, 38.096232219165707, 0.0 ], [ 15.493076111399192, 38.096718852181596, 0.0 ], [ 15.49123485368796, 38.098675872847785, 0.0 ], [ 15.490576742394007, 38.098911433903631, 0.0 ], [ 15.49128186271324, 38.100283361322624, 0.0 ], [ 15.489737084665151, 38.10088847349634, 0.0 ], [ 15.487609408796594, 38.100694397378902, 0.0 ], [ 15.486086166077271, 38.097923323843808, 0.0 ], [ 15.483905817133596, 38.099794687758141, 0.0 ], [ 15.482664336965854, 38.101437305561888, 0.0 ], [ 15.483287707467534, 38.102391655926844, 0.0 ], [ 15.48475128414875, 38.102700930668455, 0.0 ], [ 15.484940781588492, 38.10317388591681, 0.0 ], [ 15.485296633315878, 38.104480515493442, 0.0 ], [ 15.486047717036914, 38.105749397484573, 0.0 ], [ 15.49012772234529, 38.105314716987131, 0.0 ], [ 15.490503678598905, 38.10461593784278, 0.0 ] ] ] ] } },
{ "type": "Feature", "properties": { "Name": "Giampilieri", "GlobalID": "{99534EC6-55FE-4B5E-A862-CDB9DE7FB438}", "KM_Distretto": 19.25, "Shape_Length": 9972.2057702673719, "Shape_Area": 1573161.7638279868, "SORGENTE_DATI": "RILEVATA" }, "geometry": { "type": "MultiPolygon", "coordinates": [ [ [ [ 15.484852115040962, 38.066282178142778, 0.0 ], [ 15.480061105436702, 38.061165295879988, 0.0 ], [ 15.478817007595001, 38.059993935000747, 0.0 ], [ 15.477958608971965, 38.056898927123477, 0.0 ], [ 15.474065312532394, 38.057594043537136, 0.0 ], [ 15.475801880407175, 38.06122000413486, 0.0 ], [ 15.473412211803964, 38.06356170397207, 0.0 ], [ 15.468913106932678, 38.064714941349045, 0.0 ], [ 15.469361953575858, 38.065841240398555, 0.0 ], [ 15.469198950676454, 38.066916262984826, 0.0 ], [ 15.467375499875004, 38.068669382518522, 0.0 ], [ 15.466257251275445, 38.069130431788274, 0.0 ], [ 15.465065768064836, 38.068759121705142, 0.0 ], [ 15.463891768454914, 38.071154238487459, 0.0 ], [ 15.467479337228461, 38.073169592228538, 0.0 ], [ 15.470453295278901, 38.071799639323856, 0.0 ], [ 15.471530512472393, 38.070237484324778, 0.0 ], [ 15.472231897989712, 38.068354518647702, 0.0 ], [ 15.473419254637786, 38.06808114953639, 0.0 ], [ 15.474742441166715, 38.064348320417821, 0.0 ], [ 15.483840436764707, 38.069727456755508, 0.0 ], [ 15.485764425714592, 38.070294951005486, 0.0 ], [ 15.48682479154135, 38.071298937588544, 0.0 ], [ 15.493039843426789, 38.08084582364436, 0.0 ], [ 15.495382225753993, 38.080040640035882, 0.0 ], [ 15.493633395462146, 38.075590813073312, 0.0 ], [ 15.490835820091689, 38.070996216249881, 0.0 ], [ 15.488562304258849, 38.069514435415343, 0.0 ], [ 15.484852115040962, 38.066282178142778, 0.0 ] ] ] ] } },
{ "type": "Feature", "properties": { "Name": "Massa San Giorgio", "GlobalID": "{611437E4-AA5B-43FD-92A7-AF7517822350}", "KM_Distretto": 2.49, "Shape_Length": 2735.352582799952, "Shape_Area": 500589.27398846194, "SORGENTE_DATI": "RILEVATA" }, "geometry": { "type": "MultiPolygon", "coordinates": [ [ [ [ 15.533550175474121, 38.275670006563111, 0.0 ], [ 15.534807457904023, 38.277346717665473, 0.0 ], [ 15.538586843831421, 38.278535174349351, 0.0 ], [ 15.54109345650625, 38.27597194916806, 0.0 ], [ 15.541293762196341, 38.274204468526527, 0.0 ], [ 15.538289819032014, 38.27203112171054, 0.0 ], [ 15.535928731976536, 38.270191249813237, 0.0 ], [ 15.533186579905934, 38.269727052572705, 0.0 ], [ 15.532202081068954, 38.270838000561078, 0.0 ], [ 15.5319615803479, 38.272452551552917, 0.0 ], [ 15.532686257738648, 38.274271902152577, 0.0 ], [ 15.533550175474121, 38.275670006563111, 0.0 ] ] ] ] } },
{ "type": "Feature", "properties": { "Name": "Altolia-Dist. Molino", "GlobalID": "{DF628F61-AAE3-4D36-9811-700935C95C16}", "KM_Distretto": 6.02, "Shape_Length": 5323.8658653583434, "Shape_Area": 682293.7004154711, "SORGENTE_DATI": "RILEVATA" }, "geometry": { "type": "MultiPolygon", "coordinates": [ [ [ [ 15.450178502842338, 38.076345866022983, 0.0 ], [ 15.453071181230857, 38.0757949869664, 0.0 ], [ 15.455017917613205, 38.075933893991902, 0.0 ], [ 15.457353399829501, 38.076769932960545, 0.0 ], [ 15.460089863935167, 38.075989789267268, 0.0 ], [ 15.462967631216696, 38.074072321119019, 0.0 ], [ 15.463094246735569, 38.072906941378434, 0.0 ], [ 15.461602619796276, 38.073079220882441, 0.0 ], [ 15.459578464549365, 38.073783055812889, 0.0 ], [ 15.457231668096831, 38.074926833403225, 0.0 ], [ 15.455617663343929, 38.073167108966743, 0.0 ], [ 15.453487916471872, 38.073198731062647, 0.0 ], [ 15.449431680519503, 38.075102528721636, 0.0 ], [ 15.447435291770143, 38.073516681816031, 0.0 ], [ 15.444099346910049, 38.074759501216775, 0.0 ], [ 15.439779067263332, 38.076261836686434, 0.0 ], [ 15.438139085898994, 38.077778118486144, 0.0 ], [ 15.438381615119393, 38.07967706293875, 0.0 ], [ 15.441154001755491, 38.079484200417525, 0.0 ], [ 15.444108485117001, 38.078848849849187, 0.0 ], [ 15.446177381221094, 38.078506222918328, 0.0 ], [ 15.447386199597949, 38.077853563862796, 0.0 ], [ 15.450178502842338, 38.076345866022983, 0.0 ] ] ] ] } },
{ "type": "Feature", "properties": { "Name": "Curcuraci", "GlobalID": "{69CD4A53-D589-47EE-B7FD-E2C1F7EBBA4C}", "KM_Distretto": 6.937, "Shape_Length": 8260.6000538634362, "Shape_Area": 852816.55390564341, "SORGENTE_DATI": "RILEVATA" }, "geometry": { "type": "MultiPolygon", "coordinates": [ [ [ [ 15.567983084997852, 38.258910010557905, 0.0 ], [ 15.566765123273786, 38.26088613002419, 0.0 ], [ 15.565356334117002, 38.259949587534351, 0.0 ], [ 15.561243520919538, 38.260764430199508, 0.0 ], [ 15.559440179371014, 38.259554166750576, 0.0 ], [ 15.558209718344468, 38.259646894225689, 0.0 ], [ 15.557361348543632, 38.260459503060147, 0.0 ], [ 15.556851582498625, 38.263089795823021, 0.0 ], [ 15.558710805925003, 38.264819395653802, 0.0 ], [ 15.561339554637756, 38.26213854960514, 0.0 ], [ 15.564428737007992, 38.261557728538584, 0.0 ], [ 15.565573515096737, 38.262742440116149, 0.0 ], [ 15.565790714867564, 38.263948866064055, 0.0 ], [ 15.56586371847605, 38.264951493891566, 0.0 ], [ 15.565746388822664, 38.265285924485447, 0.0 ], [ 15.563653625856068, 38.266270598228765, 0.0 ], [ 15.564537237755912, 38.267361700561047, 0.0 ], [ 15.566266214213, 38.266016525243607, 0.0 ], [ 15.567225162971818, 38.266943372380148, 0.0 ], [ 15.569293796279197, 38.268477193613094, 0.0 ], [ 15.57104546696889, 38.268641177073086, 0.0 ], [ 15.571740930789174, 38.268042679417967, 0.0 ], [ 15.570959910965595, 38.267494495575477, 0.0 ], [ 15.570239328905954, 38.2676791206109, 0.0 ], [ 15.569973144857791, 38.267214674637067, 0.0 ], [ 15.568950944380019, 38.266598649732735, 0.0 ], [ 15.567276242916531, 38.265071542878019, 0.0 ], [ 15.567860368580202, 38.264223487034457, 0.0 ], [ 15.569330349709574, 38.264751101526329, 0.0 ], [ 15.569772960530166, 38.265395813691882, 0.0 ], [ 15.571053300184072, 38.265449963739911, 0.0 ], [ 15.573880811532177, 38.264711685194342, 0.0 ], [ 15.577950400473201, 38.264062654263725, 0.0 ], [ 15.578324416019617, 38.263554673201639, 0.0 ], [ 15.580688768180751, 38.262187669777624, 0.0 ], [ 15.580831250764668, 38.261270292043505, 0.0 ], [ 15.576440798662965, 38.261679980950227, 0.0 ], [ 15.572670469067246, 38.261989465287471, 0.0 ], [ 15.57011956072926, 38.26075398475426, 0.0 ], [ 15.569342265207942, 38.260671510932241, 0.0 ], [ 15.569262667942825, 38.26028378012564, 0.0 ], [ 15.569003418784389, 38.259301809448438, 0.0 ], [ 15.56927243079692, 38.258731266421663, 0.0 ], [ 15.570723141423047, 38.258206731575605, 0.0 ], [ 15.571428102679153, 38.258832912323108, 0.0 ], [ 15.572345477827298, 38.258647320316776, 0.0 ], [ 15.570823682086196, 38.257076391512015, 0.0 ], [ 15.568411402488982, 38.25772633732835, 0.0 ], [ 15.567983084997852, 38.258910010557905, 0.0 ] ] ] ] } },
{ "type": "Feature", "properties": { "Name": "Santo Stefano Briga", "GlobalID": "{9FB62CBF-290C-4BB9-966A-B10BAFBC3091}", "KM_Distretto": 5.53, "Shape_Length": 2262.9994278669174, "Shape_Area": 258100.43879958426, "SORGENTE_DATI": "RILEVATA" }, "geometry": { "type": "MultiPolygon", "coordinates": [ [ [ [ 15.480572158262898, 38.097904418758539, 0.0 ], [ 15.480108246442517, 38.097791716279147, 0.0 ], [ 15.478350781696246, 38.097513039604834, 0.0 ], [ 15.476269718970364, 38.097667901030498, 0.0 ], [ 15.476877550886398, 38.098885502219872, 0.0 ], [ 15.477315237467545, 38.099713369529049, 0.0 ], [ 15.477167207534267, 38.100013758330256, 0.0 ], [ 15.476437127077117, 38.101710869331036, 0.0 ], [ 15.478035515012367, 38.101934446575562, 0.0 ], [ 15.479392375913363, 38.101650046861181, 0.0 ], [ 15.480110243728404, 38.102142113199506, 0.0 ], [ 15.481566482326173, 38.102212844617661, 0.0 ], [ 15.48287723559517, 38.102967390773848, 0.0 ], [ 15.483184882872763, 38.10279183105925, 0.0 ], [ 15.482845031886795, 38.102096048839414, 0.0 ], [ 15.482531563717233, 38.101386212799753, 0.0 ], [ 15.483676884671031, 38.099798904624265, 0.0 ], [ 15.483006626345359, 38.098497934704419, 0.0 ], [ 15.481107065194996, 38.098080447400989, 0.0 ], [ 15.480572158262898, 38.097904418758539, 0.0 ] ] ] ] } },
{ "type": "Feature", "properties": { "Name": "Larderia", "GlobalID": "{37C50EA1-0C2D-4714-B24D-8826D4638AE4}", "KM_Distretto": 17.495, "Shape_Length": 5928.6590534425468, "Shape_Area": 1902710.7381770613, "SORGENTE_DATI": "RILEVATA" }, "geometry": { "type": "MultiPolygon", "coordinates": [ [ [ [ 15.491324219111078, 38.142207125330664, 0.0 ], [ 15.496512376587555, 38.144154328171851, 0.0 ], [ 15.502490763593485, 38.145418859667636, 0.0 ], [ 15.509877000662277, 38.145563603765538, 0.0 ], [ 15.514840734136792, 38.142484529294954, 0.0 ], [ 15.512884945169191, 38.138451539136831, 0.0 ], [ 15.510887229079509, 38.136090542890202, 0.0 ], [ 15.502142102661574, 38.137554505245227, 0.0 ], [ 15.495766628530683, 38.132211862670282, 0.0 ], [ 15.494531524749055, 38.133160833718605, 0.0 ], [ 15.492757190457036, 38.13588269979158, 0.0 ], [ 15.491258082230404, 38.138484127213736, 0.0 ], [ 15.490897215609268, 38.139705831075517, 0.0 ], [ 15.490101021169034, 38.141482549799115, 0.0 ], [ 15.491324219111078, 38.142207125330664, 0.0 ] ] ] ] } },
{ "type": "Feature", "properties": { "Name": "Castanea", "GlobalID": "{A94D0316-AFF0-43FE-AD49-3D3A59CD782B}", "KM_Distretto": 25.735, "Shape_Length": 12071.584679807394, "Shape_Area": 3599763.18072038, "SORGENTE_DATI": "RILEVATA" }, "geometry": { "type": "MultiPolygon", "coordinates": [ [ [ [ 15.514858581462853, 38.252041034843252, 0.0 ], [ 15.517979203569224, 38.254026029301116, 0.0 ], [ 15.517285960084301, 38.254682590491036, 0.0 ], [ 15.517034977860126, 38.256197072142172, 0.0 ], [ 15.516696502771374, 38.25767754317598, 0.0 ], [ 15.516529816439682, 38.258778913858798, 0.0 ], [ 15.515839190211889, 38.259813797580939, 0.0 ], [ 15.513882312975635, 38.260682256031934, 0.0 ], [ 15.513099790873856, 38.261064024067714, 0.0 ], [ 15.511272266165527, 38.261725502574443, 0.0 ], [ 15.509530752929155, 38.26221460613062, 0.0 ], [ 15.507701012110216, 38.262566485729678, 0.0 ], [ 15.506090560429051, 38.263089365220296, 0.0 ], [ 15.504924411266124, 38.264779737808048, 0.0 ], [ 15.505063856660284, 38.266017352623535, 0.0 ], [ 15.505901072444848, 38.26721756575575, 0.0 ], [ 15.508521223698846, 38.267584583440623, 0.0 ], [ 15.511182375884189, 38.267573020494787, 0.0 ], [ 15.515762069292858, 38.267415400272057, 0.0 ], [ 15.517070096768386, 38.267306459707378, 0.0 ], [ 15.518907983434449, 38.26808942713388, 0.0 ], [ 15.520544266914928, 38.269593395796328, 0.0 ], [ 15.521068003588637, 38.271209783203922, 0.0 ], [ 15.521737918979809, 38.273373678589302, 0.0 ], [ 15.523101515827822, 38.274915372631085, 0.0 ], [ 15.525507099658908, 38.275730098406591, 0.0 ], [ 15.527471702300341, 38.275893256312514, 0.0 ], [ 15.528905014256766, 38.274992540079396, 0.0 ], [ 15.527790620594912, 38.271730053231686, 0.0 ], [ 15.526421773060601, 38.26946614619154, 0.0 ], [ 15.527160936312823, 38.269118879511076, 0.0 ], [ 15.529822635200251, 38.269175681002608, 0.0 ], [ 15.529991391969721, 38.268383837807143, 0.0 ], [ 15.52972189246174, 38.267318815146488, 0.0 ], [ 15.528058907308198, 38.266604020153231, 0.0 ], [ 15.527133840190153, 38.265369965724027, 0.0 ], [ 15.527126880530201, 38.264406941534183, 0.0 ], [ 15.527622995262602, 38.260621278435671, 0.0 ], [ 15.526915120459787, 38.259248664182529, 0.0 ], [ 15.525943820266196, 38.257636462262752, 0.0 ], [ 15.525580989732545, 38.255711974159304, 0.0 ], [ 15.526056822936413, 38.255159524028173, 0.0 ], [ 15.527495219367694, 38.255015488190537, 0.0 ], [ 15.528944080580445, 38.256315971570544, 0.0 ], [ 15.529217017767637, 38.257862511376622, 0.0 ], [ 15.530236014384077, 38.260024787983582, 0.0 ], [ 15.531980091894319, 38.259913709472357, 0.0 ], [ 15.53446369943304, 38.25952408040844, 0.0 ], [ 15.535854754195348, 38.258864234176002, 0.0 ], [ 15.53750699430838, 38.25813438637956, 0.0 ], [ 15.538547770873114, 38.257304137297048, 0.0 ], [ 15.537883596183422, 38.255965783340805, 0.0 ], [ 15.535519624028844, 38.254807169269235, 0.0 ], [ 15.533680389105781, 38.253818096038003, 0.0 ], [ 15.53214501392671, 38.252621247113574, 0.0 ], [ 15.529818864530149, 38.250636867899907, 0.0 ], [ 15.528152915358033, 38.25041445405413, 0.0 ], [ 15.527063573811901, 38.250475703490565, 0.0 ], [ 15.525511065565018, 38.250722164655642, 0.0 ], [ 15.523439757971582, 38.250872302875329, 0.0 ], [ 15.521883601647039, 38.250611558986385, 0.0 ], [ 15.517853560520503, 38.247931037664934, 0.0 ], [ 15.514858581462853, 38.252041034843252, 0.0 ] ] ] ] } },
{ "type": "Feature", "properties": { "Name": "Tremetrieri Basso", "GlobalID": "{6BFD30AD-4D95-42F2-9DB8-8D3BC4506321}", "KM_Distretto": 11.001, "Shape_Length": 4618.4000867009072, "Shape_Area": 1370750.3416234925, "SORGENTE_DATI": "RILEVATA" }, "geometry": { "type": "MultiPolygon", "coordinates": [ [ [ [ 15.518978821336784, 38.132149969375305, 0.0 ], [ 15.518219663703414, 38.1322592468848, 0.0 ], [ 15.51707327988413, 38.133462996951081, 0.0 ], [ 15.51644682522392, 38.135790783217729, 0.0 ], [ 15.517142001248471, 38.13840672279246, 0.0 ], [ 15.519679598358733, 38.143152475750668, 0.0 ], [ 15.522361847602713, 38.145322141917198, 0.0 ], [ 15.523825335383316, 38.147046437307573, 0.0 ], [ 15.524560949358326, 38.147673244795364, 0.0 ], [ 15.528126280745653, 38.146027764146339, 0.0 ], [ 15.529405418196022, 38.145086650983394, 0.0 ], [ 15.530313652951495, 38.144334270525889, 0.0 ], [ 15.530611812856039, 38.143451018097302, 0.0 ], [ 15.530502170767678, 38.142329086546184, 0.0 ], [ 15.529267412071748, 38.140036354984559, 0.0 ], [ 15.527795496651279, 38.137691226852702, 0.0 ], [ 15.526357703276368, 38.135372649451199, 0.0 ], [ 15.525125299829519, 38.133373829923642, 0.0 ], [ 15.523794902760947, 38.131856473389526, 0.0 ], [ 15.52272288104616, 38.131678078079716, 0.0 ], [ 15.518978821336784, 38.132149969375305, 0.0 ] ] ] ] } },
{ "type": "Feature", "properties": { "Name": "Acqualadroni", "GlobalID": "{B4866CAB-1E81-46B9-AAFB-BA6654693AFF}", "KM_Distretto": 2.17, "Shape_Length": 1737.2739758042371, "Shape_Area": 119532.11064282429, "SORGENTE_DATI": "RILEVATA" }, "geometry": { "type": "MultiPolygon", "coordinates": [ [ [ [ 15.554538653988196, 38.295212129635409, 0.0 ], [ 15.553524015032217, 38.295497729980994, 0.0 ], [ 15.549315884277094, 38.299804665517108, 0.0 ], [ 15.550117719018326, 38.300201506614798, 0.0 ], [ 15.553101134192051, 38.298177681572298, 0.0 ], [ 15.554080059995576, 38.297762122562744, 0.0 ], [ 15.555493243391128, 38.29731025477345, 0.0 ], [ 15.556197924823984, 38.296265868422807, 0.0 ], [ 15.556120664819664, 38.295252583749551, 0.0 ], [ 15.554538653988196, 38.295212129635409, 0.0 ] ] ] ] } }
]
}
