{
"type": "FeatureCollection",
"name": "FONTANA",
"crs": { "type": "name", "properties": { "name": "urn:ogc:def:crs:OGC:1.3:CRS84" } },
"features": [
{ "type": "Feature", "properties": { "COD_ID": null, "TIPO": null, "MATERIALE": null, "PORTATA": null, "MARCA_MODELLO": null, "RUBINETTO": null, "SCARICO_FOGNA": null, "NOTE": null, "COMUNE": null, "N_CIV": null, "UTENTE_CREAZIONE": null, "DATA_INS": null, "OPERATORE_": null, "DATA_AGG": null, "D_STATO": "Attivo/In esercizio", "IDGIS": null, "PORTING_CLASSE": null, "PORTING_ID": null, "POINT_X": 542083.88680000044, "POINT_Y": 4236107.2918999996, "ANGLE": null, "LINK": null, "VIA_DENOMINAZIONE": null, "GlobalID": "{1E5DE65B-A595-4E17-969D-818A8A63E779}", "STATO_RILIEVO": "DA RILEVARE", "SORGENTE_DATI": null }, "geometry": { "type": "Point", "coordinates": [ 15.481111224175622, 38.272028523314283, 65.100000000005821 ] } },
{ "type": "Feature", "properties": { "COD_ID": null, "TIPO": null, "MATERIALE": null, "PORTATA": null, "MARCA_MODELLO": null, "RUBINETTO": null, "SCARICO_FOGNA": null, "NOTE": null, "COMUNE": null, "N_CIV": null, "UTENTE_CREAZIONE": null, "DATA_INS": null, "OPERATORE_": null, "DATA_AGG": null, "D_STATO": "Attivo/In esercizio", "IDGIS": null, "PORTING_CLASSE": null, "PORTING_ID": null, "POINT_X": 543476.40180000011, "POINT_Y": 4236334.9288999997, "ANGLE": null, "LINK": null, "VIA_DENOMINAZIONE": null, "GlobalID": "{E92F40E7-34E8-4289-BBB7-72FDFABAA539}", "STATO_RILIEVO": "RILEVATO", "SORGENTE_DATI": null }, "geometry": { "type": "Point", "coordinates": [ 15.497044166861052, 38.274013667568255, 172.80000000000291 ] } },
{ "type": "Feature", "properties": { "COD_ID": null, "TIPO": null, "MATERIALE": null, "PORTATA": null, "MARCA_MODELLO": null, "RUBINETTO": null, "SCARICO_FOGNA": null, "NOTE": null, "COMUNE": null, "N_CIV": null, "UTENTE_CREAZIONE": null, "DATA_INS": null, "OPERATORE_": null, "DATA_AGG": null, "D_STATO": "Attivo/In esercizio", "IDGIS": null, "PORTING_CLASSE": null, "PORTING_ID": null, "POINT_X": 540831.4139, "POINT_Y": 4234760.7983999997, "ANGLE": null, "LINK": null, "VIA_DENOMINAZIONE": null, "GlobalID": "{962840DC-D265-4817-A71B-343A8E2F9CCF}", "STATO_RILIEVO": "DA RILEVARE", "SORGENTE_DATI": null }, "geometry": { "type": "Point", "coordinates": [ 15.466715499672063, 38.259951501240501, 59.399999999994179 ] } },
{ "type": "Feature", "properties": { "COD_ID": null, "TIPO": null, "MATERIALE": null, "PORTATA": null, "MARCA_MODELLO": null, "RUBINETTO": null, "SCARICO_FOGNA": null, "NOTE": null, "COMUNE": null, "N_CIV": null, "UTENTE_CREAZIONE": null, "DATA_INS": null, "OPERATORE_": null, "DATA_AGG": null, "D_STATO": "Attivo/In esercizio", "IDGIS": null, "PORTING_CLASSE": null, "PORTING_ID": null, "POINT_X": 541100.20949999988, "POINT_Y": 4231947.4333999995, "ANGLE": null, "LINK": null, "VIA_DENOMINAZIONE": null, "GlobalID": "{E5769236-B698-410B-AA3D-1AFA9A91D732}", "STATO_RILIEVO": "DA RILEVARE", "SORGENTE_DATI": null }, "geometry": { "type": "Point", "coordinates": [ 15.4696246507918, 38.234584588189833, 0.0 ] } },
{ "type": "Feature", "properties": { "COD_ID": null, "TIPO": null, "MATERIALE": null, "PORTATA": null, "MARCA_MODELLO": null, "RUBINETTO": null, "SCARICO_FOGNA": null, "NOTE": null, "COMUNE": null, "N_CIV": null, "UTENTE_CREAZIONE": null, "DATA_INS": null, "OPERATORE_": null, "DATA_AGG": null, "D_STATO": "Attivo/In esercizio", "IDGIS": null, "PORTING_CLASSE": null, "PORTING_ID": null, "POINT_X": 540957.46119999979, "POINT_Y": 4232156.7923000008, "ANGLE": null, "LINK": null, "VIA_DENOMINAZIONE": null, "GlobalID": "{0683953C-C07B-4BD0-AE2B-EF8C51E650C1}", "STATO_RILIEVO": "DA RILEVARE", "SORGENTE_DATI": null }, "geometry": { "type": "Point", "coordinates": [ 15.468005704813336, 38.236477894807791, 0.0 ] } },
{ "type": "Feature", "properties": { "COD_ID": null, "TIPO": null, "MATERIALE": null, "PORTATA": null, "MARCA_MODELLO": null, "RUBINETTO": null, "SCARICO_FOGNA": null, "NOTE": null, "COMUNE": null, "N_CIV": null, "UTENTE_CREAZIONE": null, "DATA_INS": null, "OPERATORE_": null, "DATA_AGG": null, "D_STATO": "Attivo/In esercizio", "IDGIS": null, "PORTING_CLASSE": null, "PORTING_ID": null, "POINT_X": 541239.517, "POINT_Y": 4231839.5358000007, "ANGLE": null, "LINK": null, "VIA_DENOMINAZIONE": null, "GlobalID": "{901B753C-0AEA-441D-B9AC-4FE6D56CD1F2}", "STATO_RILIEVO": "DA RILEVARE", "SORGENTE_DATI": null }, "geometry": { "type": "Point", "coordinates": [ 15.47121009998237, 38.233605810185097, 0.0 ] } },
{ "type": "Feature", "properties": { "COD_ID": null, "TIPO": null, "MATERIALE": null, "PORTATA": null, "MARCA_MODELLO": null, "RUBINETTO": null, "SCARICO_FOGNA": null, "NOTE": null, "COMUNE": null, "N_CIV": null, "UTENTE_CREAZIONE": null, "DATA_INS": null, "OPERATORE_": null, "DATA_AGG": null, "D_STATO": "Attivo/In esercizio", "IDGIS": null, "PORTING_CLASSE": null, "PORTING_ID": null, "POINT_X": 541761.9424000001, "POINT_Y": 4231666.108, "ANGLE": null, "LINK": null, "VIA_DENOMINAZIONE": null, "GlobalID": "{CBF7958F-A4C9-48D5-A93F-8E096DFDC6C0}", "STATO_RILIEVO": "DA RILEVARE", "SORGENTE_DATI": null }, "geometry": { "type": "Point", "coordinates": [ 15.47716902297188, 38.232018723510883, 0.0 ] } },
{ "type": "Feature", "properties": { "COD_ID": null, "TIPO": null, "MATERIALE": null, "PORTATA": null, "MARCA_MODELLO": null, "RUBINETTO": null, "SCARICO_FOGNA": null, "NOTE": null, "COMUNE": null, "N_CIV": null, "UTENTE_CREAZIONE": null, "DATA_INS": null, "OPERATORE_": null, "DATA_AGG": null, "D_STATO": "Attivo/In esercizio", "IDGIS": null, "PORTING_CLASSE": null, "PORTING_ID": null, "POINT_X": 543090.98020000011, "POINT_Y": 4231508.042, "ANGLE": null, "LINK": null, "VIA_DENOMINAZIONE": null, "GlobalID": "{C72B10B6-0AD5-4B50-8B96-0D35A8FE6038}", "STATO_RILIEVO": "DA RILEVARE", "SORGENTE_DATI": null }, "geometry": { "type": "Point", "coordinates": [ 15.492344401790987, 38.230531484828951, 0.0 ] } },
{ "type": "Feature", "properties": { "COD_ID": null, "TIPO": null, "MATERIALE": null, "PORTATA": null, "MARCA_MODELLO": null, "RUBINETTO": null, "SCARICO_FOGNA": null, "NOTE": null, "COMUNE": null, "N_CIV": null, "UTENTE_CREAZIONE": null, "DATA_INS": null, "OPERATORE_": null, "DATA_AGG": null, "D_STATO": "Attivo/In esercizio", "IDGIS": null, "PORTING_CLASSE": null, "PORTING_ID": null, "POINT_X": 543504.93649999984, "POINT_Y": 4233604.3005999997, "ANGLE": null, "LINK": null, "VIA_DENOMINAZIONE": null, "GlobalID": "{0CB218C6-A52F-4FB6-8964-C222A107EB5A}", "STATO_RILIEVO": "DA RILEVARE", "SORGENTE_DATI": null }, "geometry": { "type": "Point", "coordinates": [ 15.497202621956196, 38.249403433631493, 0.0 ] } },
{ "type": "Feature", "properties": { "COD_ID": null, "TIPO": null, "MATERIALE": null, "PORTATA": null, "MARCA_MODELLO": null, "RUBINETTO": null, "SCARICO_FOGNA": null, "NOTE": "dismessa", "COMUNE": null, "N_CIV": null, "UTENTE_CREAZIONE": null, "DATA_INS": null, "OPERATORE_": null, "DATA_AGG": null, "D_STATO": "Attivo/In esercizio", "IDGIS": null, "PORTING_CLASSE": null, "PORTING_ID": null, "POINT_X": 540193.36980000045, "POINT_Y": 4234403.1586000007, "ANGLE": null, "LINK": null, "VIA_DENOMINAZIONE": null, "GlobalID": "{C1450DC3-B7EF-402B-AA5F-1390B0214C5C}", "STATO_RILIEVO": "DA RILEVARE", "SORGENTE_DATI": null }, "geometry": { "type": "Point", "coordinates": [ 15.459402383709646, 38.256757153867348, 0.0 ] } },
{ "type": "Feature", "properties": { "COD_ID": null, "TIPO": null, "MATERIALE": null, "PORTATA": null, "MARCA_MODELLO": null, "RUBINETTO": null, "SCARICO_FOGNA": null, "NOTE": null, "COMUNE": null, "N_CIV": null, "UTENTE_CREAZIONE": null, "DATA_INS": null, "OPERATORE_": null, "DATA_AGG": null, "D_STATO": "Attivo/In esercizio", "IDGIS": null, "PORTING_CLASSE": null, "PORTING_ID": null, "POINT_X": 540038.57610000018, "POINT_Y": 4234275.4869, "ANGLE": null, "LINK": null, "VIA_DENOMINAZIONE": null, "GlobalID": "{5ABE2ACD-9D7B-4793-91FF-4F504FEC0A1A}", "STATO_RILIEVO": "DA RILEVARE", "SORGENTE_DATI": null }, "geometry": { "type": "Point", "coordinates": [ 15.457625957506735, 38.255613461418911, 0.0 ] } },
{ "type": "Feature", "properties": { "COD_ID": null, "TIPO": null, "MATERIALE": null, "PORTATA": null, "MARCA_MODELLO": null, "RUBINETTO": null, "SCARICO_FOGNA": null, "NOTE": null, "COMUNE": null, "N_CIV": null, "UTENTE_CREAZIONE": null, "DATA_INS": null, "OPERATORE_": null, "DATA_AGG": null, "D_STATO": "Attivo/In esercizio", "IDGIS": null, "PORTING_CLASSE": null, "PORTING_ID": null, "POINT_X": 542665.58559999987, "POINT_Y": 4235975.7213000003, "ANGLE": null, "LINK": null, "VIA_DENOMINAZIONE": null, "GlobalID": "{FB909E32-DB05-4565-9E1E-D25C1B25D2BC}", "STATO_RILIEVO": "DA RILEVARE", "SORGENTE_DATI": null }, "geometry": { "type": "Point", "coordinates": [ 15.487753166515036, 38.270815333768113, 86.399999999994179 ] } },
{ "type": "Feature", "properties": { "COD_ID": null, "TIPO": null, "MATERIALE": null, "PORTATA": null, "MARCA_MODELLO": null, "RUBINETTO": null, "SCARICO_FOGNA": null, "NOTE": null, "COMUNE": null, "N_CIV": null, "UTENTE_CREAZIONE": null, "DATA_INS": null, "OPERATORE_": null, "DATA_AGG": null, "D_STATO": "Attivo/In esercizio", "IDGIS": null, "PORTING_CLASSE": null, "PORTING_ID": null, "POINT_X": 547030.234, "POINT_Y": 4236403.2598000001, "ANGLE": null, "LINK": null, "VIA_DENOMINAZIONE": null, "GlobalID": "{99381F36-33EF-46B8-B706-8C700CA68F5F}", "STATO_RILIEVO": "DA RILEVARE", "SORGENTE_DATI": null }, "geometry": { "type": "Point", "coordinates": [ 15.53767632016247, 38.274450332065179, 0.0 ] } },
{ "type": "Feature", "properties": { "COD_ID": null, "TIPO": null, "MATERIALE": null, "PORTATA": null, "MARCA_MODELLO": null, "RUBINETTO": null, "SCARICO_FOGNA": null, "NOTE": null, "COMUNE": null, "N_CIV": null, "UTENTE_CREAZIONE": null, "DATA_INS": null, "OPERATORE_": null, "DATA_AGG": null, "D_STATO": "Attivo/In esercizio", "IDGIS": null, "PORTING_CLASSE": null, "PORTING_ID": null, "POINT_X": 547037.4551, "POINT_Y": 4236543.5414000005, "ANGLE": null, "LINK": null, "VIA_DENOMINAZIONE": null, "GlobalID": "{E3F8E3C8-2C97-4A8F-AD0C-C5FD670119DD}", "STATO_RILIEVO": "DA RILEVARE", "SORGENTE_DATI": null }, "geometry": { "type": "Point", "coordinates": [ 15.537768196675414, 38.275714182600339, 0.0 ] } },
{ "type": "Feature", "properties": { "COD_ID": null, "TIPO": "a colonna", "MATERIALE": null, "PORTATA": null, "MARCA_MODELLO": null, "RUBINETTO": "SI", "SCARICO_FOGNA": "?", "NOTE": null, "COMUNE": null, "N_CIV": null, "UTENTE_CREAZIONE": null, "DATA_INS": null, "OPERATORE_": null, "DATA_AGG": null, "D_STATO": "Attivo/In esercizio", "IDGIS": null, "PORTING_CLASSE": null, "PORTING_ID": null, "POINT_X": 545690.39109999966, "POINT_Y": 4234772.7480999995, "ANGLE": null, "LINK": null, "VIA_DENOMINAZIONE": null, "GlobalID": "{89C7629D-910A-4B9C-A515-173C4952F494}", "STATO_RILIEVO": "RILEVATO", "SORGENTE_DATI": null }, "geometry": { "type": "Point", "coordinates": [ 15.522253841704895, 38.259825166519647, 0.0 ] } },
{ "type": "Feature", "properties": { "COD_ID": null, "TIPO": null, "MATERIALE": null, "PORTATA": null, "MARCA_MODELLO": null, "RUBINETTO": null, "SCARICO_FOGNA": null, "NOTE": null, "COMUNE": null, "N_CIV": null, "UTENTE_CREAZIONE": null, "DATA_INS": null, "OPERATORE_": null, "DATA_AGG": null, "D_STATO": "Attivo/In esercizio", "IDGIS": null, "PORTING_CLASSE": null, "PORTING_ID": null, "POINT_X": 547690.66249999963, "POINT_Y": 4235477.9852000009, "ANGLE": null, "LINK": null, "VIA_DENOMINAZIONE": null, "GlobalID": "{8FB4D2A4-B952-4C0F-B7C4-55F3320AB283}", "STATO_RILIEVO": "DA RILEVARE", "SORGENTE_DATI": null }, "geometry": { "type": "Point", "coordinates": [ 15.545164060021714, 38.266076846547101, 353.600000000005821 ] } },
{ "type": "Feature", "properties": { "COD_ID": null, "TIPO": null, "MATERIALE": null, "PORTATA": null, "MARCA_MODELLO": null, "RUBINETTO": null, "SCARICO_FOGNA": null, "NOTE": null, "COMUNE": null, "N_CIV": null, "UTENTE_CREAZIONE": null, "DATA_INS": null, "OPERATORE_": null, "DATA_AGG": null, "D_STATO": "Attivo/In esercizio", "IDGIS": null, "PORTING_CLASSE": null, "PORTING_ID": null, "POINT_X": 548132.73670000024, "POINT_Y": 4235892.3023000006, "ANGLE": null, "LINK": null, "VIA_DENOMINAZIONE": null, "GlobalID": "{AFEF096E-27D8-4F92-9687-C0DD89465CE2}", "STATO_RILIEVO": "DA RILEVARE", "SORGENTE_DATI": null }, "geometry": { "type": "Point", "coordinates": [ 15.550245477828312, 38.269787115658218, 0.0 ] } },
{ "type": "Feature", "properties": { "COD_ID": null, "TIPO": null, "MATERIALE": null, "PORTATA": null, "MARCA_MODELLO": null, "RUBINETTO": null, "SCARICO_FOGNA": null, "NOTE": null, "COMUNE": null, "N_CIV": null, "UTENTE_CREAZIONE": null, "DATA_INS": null, "OPERATORE_": null, "DATA_AGG": null, "D_STATO": "Attivo/In esercizio", "IDGIS": null, "PORTING_CLASSE": null, "PORTING_ID": null, "POINT_X": 543653.14879999962, "POINT_Y": 4237394.2089000009, "ANGLE": null, "LINK": null, "VIA_DENOMINAZIONE": null, "GlobalID": "{C91A57FE-DD47-45C0-BBC6-139C0B95DC4C}", "STATO_RILIEVO": "DA RILEVARE", "SORGENTE_DATI": null }, "geometry": { "type": "Point", "coordinates": [ 15.499130111071599, 38.283551458070683, 0.0 ] } },
{ "type": "Feature", "properties": { "COD_ID": null, "TIPO": "a colonna", "MATERIALE": null, "PORTATA": null, "MARCA_MODELLO": null, "RUBINETTO": "SI", "SCARICO_FOGNA": "NO", "NOTE": null, "COMUNE": null, "N_CIV": null, "UTENTE_CREAZIONE": null, "DATA_INS": null, "OPERATORE_": null, "DATA_AGG": null, "D_STATO": "Attivo/In esercizio", "IDGIS": null, "PORTING_CLASSE": null, "PORTING_ID": null, "POINT_X": 545596.64389999956, "POINT_Y": 4235128.3013000004, "ANGLE": null, "LINK": null, "VIA_DENOMINAZIONE": null, "GlobalID": "{F3A070B3-A93D-4857-877E-E1256BE52C5D}", "STATO_RILIEVO": "RILEVATO", "SORGENTE_DATI": null }, "geometry": { "type": "Point", "coordinates": [ 15.521205219569906, 38.263034219993926, 413.69999999999709 ] } },
{ "type": "Feature", "properties": { "COD_ID": null, "TIPO": "a colonna", "MATERIALE": null, "PORTATA": null, "MARCA_MODELLO": null, "RUBINETTO": "SI", "SCARICO_FOGNA": "?", "NOTE": null, "COMUNE": null, "N_CIV": null, "UTENTE_CREAZIONE": null, "DATA_INS": null, "OPERATORE_": null, "DATA_AGG": null, "D_STATO": "Attivo/In esercizio", "IDGIS": null, "PORTING_CLASSE": null, "PORTING_ID": null, "POINT_X": 545572.8109, "POINT_Y": 4235020.0475999992, "ANGLE": null, "LINK": null, "VIA_DENOMINAZIONE": null, "GlobalID": "{CF8D860D-BF15-4581-98B5-6B709475E811}", "STATO_RILIEVO": "RILEVATO", "SORGENTE_DATI": null }, "geometry": { "type": "Point", "coordinates": [ 15.520925833210384, 38.262059834039292, 419.0 ] } },
{ "type": "Feature", "properties": { "COD_ID": null, "TIPO": "a colonna", "MATERIALE": null, "PORTATA": null, "MARCA_MODELLO": null, "RUBINETTO": "SI", "SCARICO_FOGNA": "?", "NOTE": null, "COMUNE": null, "N_CIV": null, "UTENTE_CREAZIONE": null, "DATA_INS": null, "OPERATORE_": null, "DATA_AGG": null, "D_STATO": "Attivo/In esercizio", "IDGIS": null, "PORTING_CLASSE": null, "PORTING_ID": null, "POINT_X": 545746.6585, "POINT_Y": 4234963.5945999995, "ANGLE": null, "LINK": null, "VIA_DENOMINAZIONE": null, "GlobalID": "{ED11F791-AB9E-4E10-98B9-D382DBAFDDE9}", "STATO_RILIEVO": "RILEVATO", "SORGENTE_DATI": null }, "geometry": { "type": "Point", "coordinates": [ 15.52290929715001, 38.261542234620435, 0.0 ] } },
{ "type": "Feature", "properties": { "COD_ID": null, "TIPO": "a colonna", "MATERIALE": null, "PORTATA": null, "MARCA_MODELLO": null, "RUBINETTO": "SI", "SCARICO_FOGNA": "SI", "NOTE": null, "COMUNE": null, "N_CIV": null, "UTENTE_CREAZIONE": null, "DATA_INS": null, "OPERATORE_": null, "DATA_AGG": null, "D_STATO": "Attivo/In esercizio", "IDGIS": null, "PORTING_CLASSE": null, "PORTING_ID": null, "POINT_X": 545699.10259999987, "POINT_Y": 4235120.1812999994, "ANGLE": null, "LINK": null, "VIA_DENOMINAZIONE": null, "GlobalID": "{A6D19754-FD42-4916-9FCB-853513E99C33}", "STATO_RILIEVO": "RILEVATO", "SORGENTE_DATI": null }, "geometry": { "type": "Point", "coordinates": [ 15.522375833487025, 38.262955833907952, 417.0 ] } },
{ "type": "Feature", "properties": { "COD_ID": null, "TIPO": "a muro", "MATERIALE": null, "PORTATA": null, "MARCA_MODELLO": null, "RUBINETTO": "SI", "SCARICO_FOGNA": null, "NOTE": null, "COMUNE": null, "N_CIV": null, "UTENTE_CREAZIONE": null, "DATA_INS": null, "OPERATORE_": null, "DATA_AGG": null, "D_STATO": "Attivo/In esercizio", "IDGIS": null, "PORTING_CLASSE": null, "PORTING_ID": null, "POINT_X": 545569.24519999977, "POINT_Y": 4235344.813, "ANGLE": null, "LINK": null, "VIA_DENOMINAZIONE": null, "GlobalID": "{DC9EEECF-8022-450E-8BBD-178F0843D7B8}", "STATO_RILIEVO": "RILEVATO", "SORGENTE_DATI": null }, "geometry": { "type": "Point", "coordinates": [ 15.520905977168924, 38.264986840160738, 0.0 ] } },
{ "type": "Feature", "properties": { "COD_ID": null, "TIPO": "a colonna", "MATERIALE": null, "PORTATA": null, "MARCA_MODELLO": null, "RUBINETTO": "SI", "SCARICO_FOGNA": "SI", "NOTE": null, "COMUNE": null, "N_CIV": null, "UTENTE_CREAZIONE": null, "DATA_INS": null, "OPERATORE_": null, "DATA_AGG": null, "D_STATO": "Attivo/In esercizio", "IDGIS": null, "PORTING_CLASSE": null, "PORTING_ID": null, "POINT_X": 545410.868, "POINT_Y": 4235202.5755000003, "ANGLE": null, "LINK": null, "VIA_DENOMINAZIONE": null, "GlobalID": "{D977A281-C0F1-4801-92F9-B81A5BCB8764}", "STATO_RILIEVO": "RILEVATO", "SORGENTE_DATI": null }, "geometry": { "type": "Point", "coordinates": [ 15.519086500103908, 38.263713000936512, 421.30000000000291 ] } },
{ "type": "Feature", "properties": { "COD_ID": null, "TIPO": null, "MATERIALE": null, "PORTATA": null, "MARCA_MODELLO": null, "RUBINETTO": null, "SCARICO_FOGNA": null, "NOTE": null, "COMUNE": null, "N_CIV": null, "UTENTE_CREAZIONE": null, "DATA_INS": null, "OPERATORE_": null, "DATA_AGG": null, "D_STATO": "Attivo/In esercizio", "IDGIS": null, "PORTING_CLASSE": null, "PORTING_ID": null, "POINT_X": 545386.65139999986, "POINT_Y": 4238335.7448999994, "ANGLE": null, "LINK": null, "VIA_DENOMINAZIONE": null, "GlobalID": "{F16CFB1A-C357-482A-9434-EEA3E4252F5C}", "STATO_RILIEVO": null, "SORGENTE_DATI": null }, "geometry": { "type": "Point", "coordinates": [ 15.519010666045228, 38.291950667845406, 129.69999999999709 ] } },
{ "type": "Feature", "properties": { "COD_ID": null, "TIPO": null, "MATERIALE": null, "PORTATA": null, "MARCA_MODELLO": null, "RUBINETTO": null, "SCARICO_FOGNA": null, "NOTE": null, "COMUNE": null, "N_CIV": null, "UTENTE_CREAZIONE": null, "DATA_INS": null, "OPERATORE_": null, "DATA_AGG": null, "D_STATO": "Attivo/In esercizio", "IDGIS": null, "PORTING_CLASSE": null, "PORTING_ID": null, "POINT_X": 545158.76, "POINT_Y": 4237440.9651999995, "ANGLE": null, "LINK": null, "VIA_DENOMINAZIONE": null, "GlobalID": "{C5390BF6-EBD6-4990-B342-F757E2882FC2}", "STATO_RILIEVO": null, "SORGENTE_DATI": null }, "geometry": { "type": "Point", "coordinates": [ 15.516347619370823, 38.283898332161058, 0.0 ] } },
{ "type": "Feature", "properties": { "COD_ID": null, "TIPO": null, "MATERIALE": null, "PORTATA": null, "MARCA_MODELLO": null, "RUBINETTO": null, "SCARICO_FOGNA": null, "NOTE": null, "COMUNE": null, "N_CIV": null, "UTENTE_CREAZIONE": null, "DATA_INS": null, "OPERATORE_": null, "DATA_AGG": null, "D_STATO": "Attivo/In esercizio", "IDGIS": null, "PORTING_CLASSE": null, "PORTING_ID": null, "POINT_X": 541198.8185000001, "POINT_Y": 4231924.1236000005, "ANGLE": null, "LINK": null, "VIA_DENOMINAZIONE": null, "GlobalID": "{071F3378-C75B-497A-9ECF-E572E239C2E7}", "STATO_RILIEVO": null, "SORGENTE_DATI": null }, "geometry": { "type": "Point", "coordinates": [ 15.470750000599384, 38.234370001278279, 342.69999999999709 ] } },
{ "type": "Feature", "properties": { "COD_ID": null, "TIPO": null, "MATERIALE": null, "PORTATA": null, "MARCA_MODELLO": null, "RUBINETTO": null, "SCARICO_FOGNA": null, "NOTE": null, "COMUNE": null, "N_CIV": null, "UTENTE_CREAZIONE": null, "DATA_INS": null, "OPERATORE_": null, "DATA_AGG": null, "D_STATO": "Attivo/In esercizio", "IDGIS": null, "PORTING_CLASSE": null, "PORTING_ID": null, "POINT_X": 543207.97670000046, "POINT_Y": 4233759.1545000002, "ANGLE": null, "LINK": null, "VIA_DENOMINAZIONE": null, "GlobalID": "{FEB06B86-26C4-4C82-BFCD-1FABC3B77D13}", "STATO_RILIEVO": null, "SORGENTE_DATI": null }, "geometry": { "type": "Point", "coordinates": [ 15.493818332789173, 38.250813333806562, 288.5 ] } },
{ "type": "Feature", "properties": { "COD_ID": null, "TIPO": null, "MATERIALE": null, "PORTATA": null, "MARCA_MODELLO": null, "RUBINETTO": null, "SCARICO_FOGNA": null, "NOTE": null, "COMUNE": null, "N_CIV": null, "UTENTE_CREAZIONE": null, "DATA_INS": null, "OPERATORE_": null, "DATA_AGG": null, "D_STATO": "Attivo/In esercizio", "IDGIS": null, "PORTING_CLASSE": null, "PORTING_ID": null, "POINT_X": 543211.33210000023, "POINT_Y": 4233757.6318999995, "ANGLE": null, "LINK": null, "VIA_DENOMINAZIONE": null, "GlobalID": "{82E2073D-F7A9-4A29-AE7D-46237D9AEF99}", "STATO_RILIEVO": null, "SORGENTE_DATI": null }, "geometry": { "type": "Point", "coordinates": [ 15.493856587042492, 38.250799450497752, 0.0 ] } },
{ "type": "Feature", "properties": { "COD_ID": null, "TIPO": null, "MATERIALE": null, "PORTATA": null, "MARCA_MODELLO": null, "RUBINETTO": null, "SCARICO_FOGNA": null, "NOTE": null, "COMUNE": null, "N_CIV": null, "UTENTE_CREAZIONE": null, "DATA_INS": null, "OPERATORE_": null, "DATA_AGG": null, "D_STATO": "Attivo/In esercizio", "IDGIS": null, "PORTING_CLASSE": null, "PORTING_ID": null, "POINT_X": 545871.62789999973, "POINT_Y": 4233918.056, "ANGLE": null, "LINK": null, "VIA_DENOMINAZIONE": null, "GlobalID": "{2EF5EF13-C8EC-4058-AF11-6115A728B875}", "STATO_RILIEVO": "RILEVATO", "SORGENTE_DATI": null }, "geometry": { "type": "Point", "coordinates": [ 15.524269999816173, 38.252113334286364, 476.80000000000291 ] } },
{ "type": "Feature", "properties": { "COD_ID": null, "TIPO": "a colonna", "MATERIALE": null, "PORTATA": null, "MARCA_MODELLO": null, "RUBINETTO": "SI", "SCARICO_FOGNA": "SI", "NOTE": null, "COMUNE": null, "N_CIV": null, "UTENTE_CREAZIONE": null, "DATA_INS": null, "OPERATORE_": null, "DATA_AGG": null, "D_STATO": "Attivo/In esercizio", "IDGIS": null, "PORTING_CLASSE": null, "PORTING_ID": null, "POINT_X": 550997.79980000015, "POINT_Y": 4235379.1431000009, "ANGLE": null, "LINK": null, "VIA_DENOMINAZIONE": null, "GlobalID": "{1CA2F175-2990-4D23-B18A-8C31CE51E435}", "STATO_RILIEVO": "RILEVATO", "SORGENTE_DATI": null }, "geometry": { "type": "Point", "coordinates": [ 15.582959916215557, 38.265004357252614, 0.0 ] } },
{ "type": "Feature", "properties": { "COD_ID": null, "TIPO": "a colonna", "MATERIALE": null, "PORTATA": null, "MARCA_MODELLO": null, "RUBINETTO": "SI", "SCARICO_FOGNA": "SI", "NOTE": null, "COMUNE": null, "N_CIV": null, "UTENTE_CREAZIONE": null, "DATA_INS": null, "OPERATORE_": null, "DATA_AGG": null, "D_STATO": "Attivo/In esercizio", "IDGIS": null, "PORTING_CLASSE": null, "PORTING_ID": null, "POINT_X": 551041.1297000004, "POINT_Y": 4235285.5973000005, "ANGLE": null, "LINK": null, "VIA_DENOMINAZIONE": null, "GlobalID": "{B0FA609C-C7B8-4F64-868E-D5B517FF8606}", "STATO_RILIEVO": "RILEVATO", "SORGENTE_DATI": null }, "geometry": { "type": "Point", "coordinates": [ 15.583448456582387, 38.264158858545123, 0.0 ] } },
{ "type": "Feature", "properties": { "COD_ID": null, "TIPO": null, "MATERIALE": null, "PORTATA": null, "MARCA_MODELLO": null, "RUBINETTO": null, "SCARICO_FOGNA": null, "NOTE": null, "COMUNE": null, "N_CIV": null, "UTENTE_CREAZIONE": null, "DATA_INS": null, "OPERATORE_": null, "DATA_AGG": null, "D_STATO": "Attivo/In esercizio", "IDGIS": null, "PORTING_CLASSE": null, "PORTING_ID": null, "POINT_X": 544339.62079999968, "POINT_Y": 4222805.6547999997, "ANGLE": null, "LINK": null, "VIA_DENOMINAZIONE": "Via San Pietro", "GlobalID": "{6A53A985-3D28-46B6-814B-E41BD0C6DB4A}", "STATO_RILIEVO": "RILEVATO", "SORGENTE_DATI": null }, "geometry": { "type": "Point", "coordinates": [ 15.506067488940893, 38.15204266064822, 0.0 ] } },
{ "type": "Feature", "properties": { "COD_ID": null, "TIPO": null, "MATERIALE": null, "PORTATA": null, "MARCA_MODELLO": null, "RUBINETTO": null, "SCARICO_FOGNA": null, "NOTE": null, "COMUNE": null, "N_CIV": null, "UTENTE_CREAZIONE": null, "DATA_INS": null, "OPERATORE_": null, "DATA_AGG": null, "D_STATO": "Attivo/In esercizio", "IDGIS": null, "PORTING_CLASSE": null, "PORTING_ID": null, "POINT_X": 544569.48220000044, "POINT_Y": 4222836.4124999996, "ANGLE": null, "LINK": null, "VIA_DENOMINAZIONE": null, "GlobalID": "{C750FFCA-EC85-46E2-987D-A64BA5D2A980}", "STATO_RILIEVO": "BLOCCATO", "SORGENTE_DATI": null }, "geometry": { "type": "Point", "coordinates": [ 15.508692827849746, 38.152308525790112, 0.0 ] } },
{ "type": "Feature", "properties": { "COD_ID": null, "TIPO": null, "MATERIALE": null, "PORTATA": null, "MARCA_MODELLO": null, "RUBINETTO": null, "SCARICO_FOGNA": null, "NOTE": null, "COMUNE": null, "N_CIV": null, "UTENTE_CREAZIONE": null, "DATA_INS": null, "OPERATORE_": null, "DATA_AGG": null, "D_STATO": "Attivo/In esercizio", "IDGIS": null, "PORTING_CLASSE": null, "PORTING_ID": null, "POINT_X": 543768.61809999961, "POINT_Y": 4221644.4966000002, "ANGLE": null, "LINK": null, "VIA_DENOMINAZIONE": null, "GlobalID": "{72B49C90-15CB-4D0D-AC58-0CA4A94E87A6}", "STATO_RILIEVO": "RILEVATO", "SORGENTE_DATI": null }, "geometry": { "type": "Point", "coordinates": [ 15.499479254306367, 38.141605817044969, 0.0 ] } },
{ "type": "Feature", "properties": { "COD_ID": null, "TIPO": null, "MATERIALE": null, "PORTATA": null, "MARCA_MODELLO": null, "RUBINETTO": null, "SCARICO_FOGNA": null, "NOTE": null, "COMUNE": null, "N_CIV": null, "UTENTE_CREAZIONE": null, "DATA_INS": null, "OPERATORE_": null, "DATA_AGG": null, "D_STATO": "Attivo/In esercizio", "IDGIS": null, "PORTING_CLASSE": null, "PORTING_ID": null, "POINT_X": 543387.28419999965, "POINT_Y": 4221382.9364999998, "ANGLE": null, "LINK": null, "VIA_DENOMINAZIONE": "SP39 ", "GlobalID": "{09F5006C-0C21-4457-BA4D-D12BFDE73AC0}", "STATO_RILIEVO": "RILEVATO", "SORGENTE_DATI": null }, "geometry": { "type": "Point", "coordinates": [ 15.49511176443405, 38.139266969918012, 0.0 ] } },
{ "type": "Feature", "properties": { "COD_ID": null, "TIPO": null, "MATERIALE": null, "PORTATA": null, "MARCA_MODELLO": null, "RUBINETTO": null, "SCARICO_FOGNA": null, "NOTE": null, "COMUNE": null, "N_CIV": null, "UTENTE_CREAZIONE": null, "DATA_INS": null, "OPERATORE_": null, "DATA_AGG": null, "D_STATO": "Attivo/In esercizio", "IDGIS": null, "PORTING_CLASSE": null, "PORTING_ID": null, "POINT_X": 543383.37530000042, "POINT_Y": 4221428.3003000002, "ANGLE": null, "LINK": null, "VIA_DENOMINAZIONE": null, "GlobalID": "{FA572B9D-E450-4C91-A0E3-EE1C25A31BEA}", "STATO_RILIEVO": "RILEVATO", "SORGENTE_DATI": null }, "geometry": { "type": "Point", "coordinates": [ 15.495069922128419, 38.139675992286776, 0.0 ] } },
{ "type": "Feature", "properties": { "COD_ID": null, "TIPO": null, "MATERIALE": null, "PORTATA": null, "MARCA_MODELLO": null, "RUBINETTO": null, "SCARICO_FOGNA": null, "NOTE": "Dismessa ", "COMUNE": null, "N_CIV": null, "UTENTE_CREAZIONE": null, "DATA_INS": null, "OPERATORE_": null, "DATA_AGG": null, "D_STATO": "Attivo/In esercizio", "IDGIS": null, "PORTING_CLASSE": null, "PORTING_ID": null, "POINT_X": 543429.9916000003, "POINT_Y": 4221466.463, "ANGLE": null, "LINK": null, "VIA_DENOMINAZIONE": null, "GlobalID": "{27CB0CA9-BFD4-466F-8210-1FB8A610899E}", "STATO_RILIEVO": "RILEVATO", "SORGENTE_DATI": null }, "geometry": { "type": "Point", "coordinates": [ 15.495604192666779, 38.140017684639545, 0.0 ] } },
{ "type": "Feature", "properties": { "COD_ID": null, "TIPO": null, "MATERIALE": null, "PORTATA": null, "MARCA_MODELLO": null, "RUBINETTO": null, "SCARICO_FOGNA": null, "NOTE": null, "COMUNE": null, "N_CIV": null, "UTENTE_CREAZIONE": null, "DATA_INS": null, "OPERATORE_": null, "DATA_AGG": null, "D_STATO": "Attivo/In esercizio", "IDGIS": null, "PORTING_CLASSE": null, "PORTING_ID": null, "POINT_X": 543316.658, "POINT_Y": 4221441.0884000007, "ANGLE": null, "LINK": null, "VIA_DENOMINAZIONE": null, "GlobalID": "{2B185969-AFD1-43FD-8B68-D47E35345EB1}", "STATO_RILIEVO": "RILEVATO", "SORGENTE_DATI": null }, "geometry": { "type": "Point", "coordinates": [ 15.494309380526616, 38.139794449309328, 0.0 ] } },
{ "type": "Feature", "properties": { "COD_ID": null, "TIPO": null, "MATERIALE": null, "PORTATA": null, "MARCA_MODELLO": null, "RUBINETTO": null, "SCARICO_FOGNA": null, "NOTE": null, "COMUNE": null, "N_CIV": null, "UTENTE_CREAZIONE": null, "DATA_INS": null, "OPERATORE_": null, "DATA_AGG": null, "D_STATO": "Attivo/In esercizio", "IDGIS": null, "PORTING_CLASSE": null, "PORTING_ID": null, "POINT_X": 543391.71590000018, "POINT_Y": 4221455.9713000003, "ANGLE": null, "LINK": null, "VIA_DENOMINAZIONE": null, "GlobalID": "{B49EE5F1-FBF2-4BE1-9587-F5256A13FA81}", "STATO_RILIEVO": "RILEVATO", "SORGENTE_DATI": null }, "geometry": { "type": "Point", "coordinates": [ 15.495166783049832, 38.139924971794414, 0.0 ] } },
{ "type": "Feature", "properties": { "COD_ID": null, "TIPO": null, "MATERIALE": null, "PORTATA": null, "MARCA_MODELLO": null, "RUBINETTO": null, "SCARICO_FOGNA": null, "NOTE": null, "COMUNE": null, "N_CIV": null, "UTENTE_CREAZIONE": null, "DATA_INS": null, "OPERATORE_": null, "DATA_AGG": null, "D_STATO": "Attivo/In esercizio", "IDGIS": null, "PORTING_CLASSE": null, "PORTING_ID": null, "POINT_X": 542458.63260000013, "POINT_Y": 4220520.9318000004, "ANGLE": null, "LINK": null, "VIA_DENOMINAZIONE": "Via Giardino", "GlobalID": "{2C727C47-B044-4F74-BDBD-AD2F8480E2E0}", "STATO_RILIEVO": "RILEVATO", "SORGENTE_DATI": null }, "geometry": { "type": "Point", "coordinates": [ 15.484463496309152, 38.131542453110349, 0.0 ] } },
{ "type": "Feature", "properties": { "COD_ID": null, "TIPO": null, "MATERIALE": null, "PORTATA": null, "MARCA_MODELLO": null, "RUBINETTO": null, "SCARICO_FOGNA": null, "NOTE": null, "COMUNE": null, "N_CIV": null, "UTENTE_CREAZIONE": null, "DATA_INS": null, "OPERATORE_": null, "DATA_AGG": null, "D_STATO": "Attivo/In esercizio", "IDGIS": null, "PORTING_CLASSE": null, "PORTING_ID": null, "POINT_X": 544581.3619, "POINT_Y": 4219328.4376999997, "ANGLE": null, "LINK": null, "VIA_DENOMINAZIONE": null, "GlobalID": "{B8D0258E-554A-422D-9050-A60E568B7AB1}", "STATO_RILIEVO": "RILEVATO", "SORGENTE_DATI": null }, "geometry": { "type": "Point", "coordinates": [ 15.508608931809796, 38.120692897534433, 0.0 ] } },
{ "type": "Feature", "properties": { "COD_ID": null, "TIPO": null, "MATERIALE": null, "PORTATA": null, "MARCA_MODELLO": null, "RUBINETTO": null, "SCARICO_FOGNA": null, "NOTE": null, "COMUNE": null, "N_CIV": null, "UTENTE_CREAZIONE": null, "DATA_INS": null, "OPERATORE_": null, "DATA_AGG": null, "D_STATO": "Attivo/In esercizio", "IDGIS": null, "PORTING_CLASSE": null, "PORTING_ID": null, "POINT_X": 544482.535, "POINT_Y": 4219389.0891999993, "ANGLE": null, "LINK": null, "VIA_DENOMINAZIONE": "Località Mili S. Marco", "GlobalID": "{771B3493-8BD9-4159-97E6-8098837B6614}", "STATO_RILIEVO": "RILEVATO", "SORGENTE_DATI": null }, "geometry": { "type": "Point", "coordinates": [ 15.507485283894828, 38.121244386126854, 0.0 ] } },
{ "type": "Feature", "properties": { "COD_ID": null, "TIPO": null, "MATERIALE": null, "PORTATA": null, "MARCA_MODELLO": null, "RUBINETTO": null, "SCARICO_FOGNA": null, "NOTE": null, "COMUNE": null, "N_CIV": null, "UTENTE_CREAZIONE": null, "DATA_INS": null, "OPERATORE_": null, "DATA_AGG": null, "D_STATO": "Attivo/In esercizio", "IDGIS": null, "PORTING_CLASSE": null, "PORTING_ID": null, "POINT_X": 544328.56649999972, "POINT_Y": 4219377.8926, "ANGLE": null, "LINK": null, "VIA_DENOMINAZIONE": null, "GlobalID": "{0BEB6FED-36CE-450E-ACC5-2C265EAA53D9}", "STATO_RILIEVO": "RILEVATO", "SORGENTE_DATI": null }, "geometry": { "type": "Point", "coordinates": [ 15.505728079717432, 38.121151052680347, 0.0 ] } },
{ "type": "Feature", "properties": { "COD_ID": null, "TIPO": null, "MATERIALE": null, "PORTATA": null, "MARCA_MODELLO": null, "RUBINETTO": null, "SCARICO_FOGNA": null, "NOTE": null, "COMUNE": null, "N_CIV": null, "UTENTE_CREAZIONE": null, "DATA_INS": null, "OPERATORE_": null, "DATA_AGG": null, "D_STATO": "Attivo/In esercizio", "IDGIS": null, "PORTING_CLASSE": null, "PORTING_ID": null, "POINT_X": 544688.41930000018, "POINT_Y": 4219192.6698000003, "ANGLE": null, "LINK": null, "VIA_DENOMINAZIONE": null, "GlobalID": "{6280D33E-11B8-486C-BE83-4F2807C239B6}", "STATO_RILIEVO": "RILEVATO", "SORGENTE_DATI": null }, "geometry": { "type": "Point", "coordinates": [ 15.509821749603681, 38.119464014936881, 40.382100000002538 ] } },
{ "type": "Feature", "properties": { "COD_ID": null, "TIPO": null, "MATERIALE": null, "PORTATA": null, "MARCA_MODELLO": null, "RUBINETTO": null, "SCARICO_FOGNA": null, "NOTE": null, "COMUNE": null, "N_CIV": null, "UTENTE_CREAZIONE": null, "DATA_INS": null, "OPERATORE_": null, "DATA_AGG": null, "D_STATO": "Attivo/In esercizio", "IDGIS": null, "PORTING_CLASSE": null, "PORTING_ID": null, "POINT_X": 543504.77020000014, "POINT_Y": 4218347.5219000001, "ANGLE": null, "LINK": null, "VIA_DENOMINAZIONE": null, "GlobalID": "{60C7B554-B1EA-425D-93F2-08BD4D748557}", "STATO_RILIEVO": "RILEVATO", "SORGENTE_DATI": null }, "geometry": { "type": "Point", "coordinates": [ 15.496267176127427, 38.111905038118259, 0.0 ] } },
{ "type": "Feature", "properties": { "COD_ID": null, "TIPO": null, "MATERIALE": null, "PORTATA": null, "MARCA_MODELLO": null, "RUBINETTO": null, "SCARICO_FOGNA": null, "NOTE": null, "COMUNE": null, "N_CIV": null, "UTENTE_CREAZIONE": null, "DATA_INS": null, "OPERATORE_": null, "DATA_AGG": null, "D_STATO": "Attivo/In esercizio", "IDGIS": null, "PORTING_CLASSE": null, "PORTING_ID": null, "POINT_X": 544165.87040000036, "POINT_Y": 4218125.5812, "ANGLE": null, "LINK": null, "VIA_DENOMINAZIONE": null, "GlobalID": "{B6AEF76B-93BC-4A26-AF92-55F748E98A27}", "STATO_RILIEVO": "RILEVATO", "SORGENTE_DATI": null }, "geometry": { "type": "Point", "coordinates": [ 15.503794465702095, 38.109872730131777, 0.0 ] } },
{ "type": "Feature", "properties": { "COD_ID": null, "TIPO": null, "MATERIALE": null, "PORTATA": null, "MARCA_MODELLO": null, "RUBINETTO": null, "SCARICO_FOGNA": null, "NOTE": null, "COMUNE": null, "N_CIV": null, "UTENTE_CREAZIONE": null, "DATA_INS": null, "OPERATORE_": null, "DATA_AGG": null, "D_STATO": "Attivo/In esercizio", "IDGIS": null, "PORTING_CLASSE": null, "PORTING_ID": null, "POINT_X": 544055.0148, "POINT_Y": 4218179.6787, "ANGLE": null, "LINK": null, "VIA_DENOMINAZIONE": null, "GlobalID": "{4BC6CC71-0F46-4C3D-8BD3-598DC85C2877}", "STATO_RILIEVO": "RILEVATO", "SORGENTE_DATI": null }, "geometry": { "type": "Point", "coordinates": [ 15.502533335225781, 38.110365692553621, 0.0 ] } },
{ "type": "Feature", "properties": { "COD_ID": null, "TIPO": null, "MATERIALE": null, "PORTATA": null, "MARCA_MODELLO": null, "RUBINETTO": null, "SCARICO_FOGNA": null, "NOTE": null, "COMUNE": null, "N_CIV": null, "UTENTE_CREAZIONE": null, "DATA_INS": null, "OPERATORE_": null, "DATA_AGG": null, "D_STATO": "Attivo/In esercizio", "IDGIS": null, "PORTING_CLASSE": null, "PORTING_ID": null, "POINT_X": 543433.7802, "POINT_Y": 4216999.5665000007, "ANGLE": null, "LINK": null, "VIA_DENOMINAZIONE": null, "GlobalID": "{0D354E7A-141E-4A48-89D0-5CFF52535666}", "STATO_RILIEVO": "RILEVATO", "SORGENTE_DATI": null }, "geometry": { "type": "Point", "coordinates": [ 15.495375367080802, 38.099760142854286, 0.0 ] } },
{ "type": "Feature", "properties": { "COD_ID": null, "TIPO": null, "MATERIALE": null, "PORTATA": null, "MARCA_MODELLO": null, "RUBINETTO": null, "SCARICO_FOGNA": null, "NOTE": null, "COMUNE": null, "N_CIV": null, "UTENTE_CREAZIONE": null, "DATA_INS": null, "OPERATORE_": null, "DATA_AGG": null, "D_STATO": "Attivo/In esercizio", "IDGIS": null, "PORTING_CLASSE": null, "PORTING_ID": null, "POINT_X": 543237.84169999976, "POINT_Y": 4217164.5631000008, "ANGLE": null, "LINK": null, "VIA_DENOMINAZIONE": null, "GlobalID": "{11BA9F09-16E3-44FF-89CB-78DDA5A7F8F5}", "STATO_RILIEVO": "RILEVATO", "SORGENTE_DATI": null }, "geometry": { "type": "Point", "coordinates": [ 15.493150700131679, 38.101256559648327, 0.0 ] } },
{ "type": "Feature", "properties": { "COD_ID": null, "TIPO": null, "MATERIALE": null, "PORTATA": null, "MARCA_MODELLO": null, "RUBINETTO": null, "SCARICO_FOGNA": null, "NOTE": null, "COMUNE": null, "N_CIV": null, "UTENTE_CREAZIONE": null, "DATA_INS": null, "OPERATORE_": null, "DATA_AGG": null, "D_STATO": "Attivo/In esercizio", "IDGIS": null, "PORTING_CLASSE": null, "PORTING_ID": null, "POINT_X": 542689.33530000038, "POINT_Y": 4217223.7855999991, "ANGLE": null, "LINK": null, "VIA_DENOMINAZIONE": " Località Santo Stefano Medio", "GlobalID": "{A27BD26E-795E-44B2-8347-F0DC7287918F}", "STATO_RILIEVO": "RILEVATO", "SORGENTE_DATI": null }, "geometry": { "type": "Point", "coordinates": [ 15.486898442986835, 38.101816386104034, 0.0 ] } },
{ "type": "Feature", "properties": { "COD_ID": null, "TIPO": null, "MATERIALE": null, "PORTATA": null, "MARCA_MODELLO": null, "RUBINETTO": null, "SCARICO_FOGNA": null, "NOTE": null, "COMUNE": null, "N_CIV": null, "UTENTE_CREAZIONE": null, "DATA_INS": null, "OPERATORE_": null, "DATA_AGG": null, "D_STATO": "Attivo/In esercizio", "IDGIS": null, "PORTING_CLASSE": null, "PORTING_ID": null, "POINT_X": 542642.85730000027, "POINT_Y": 4217284.4244, "ANGLE": null, "LINK": null, "VIA_DENOMINAZIONE": null, "GlobalID": "{1D6BCECA-5669-46E5-8C88-241562EACD6A}", "STATO_RILIEVO": "RILEVATO", "SORGENTE_DATI": null }, "geometry": { "type": "Point", "coordinates": [ 15.486371972870545, 38.102365083658817, 0.0 ] } },
{ "type": "Feature", "properties": { "COD_ID": null, "TIPO": null, "MATERIALE": null, "PORTATA": null, "MARCA_MODELLO": null, "RUBINETTO": null, "SCARICO_FOGNA": null, "NOTE": null, "COMUNE": null, "N_CIV": null, "UTENTE_CREAZIONE": null, "DATA_INS": null, "OPERATORE_": null, "DATA_AGG": null, "D_STATO": "Attivo/In esercizio", "IDGIS": null, "PORTING_CLASSE": null, "PORTING_ID": null, "POINT_X": 542654.4020999996, "POINT_Y": 4217321.1806000005, "ANGLE": null, "LINK": null, "VIA_DENOMINAZIONE": null, "GlobalID": "{742328DC-D8B7-4475-886C-EDCB53CC99C4}", "STATO_RILIEVO": "RILEVATO", "SORGENTE_DATI": null }, "geometry": { "type": "Point", "coordinates": [ 15.486505841700687, 38.102695800752713, 0.0 ] } },
{ "type": "Feature", "properties": { "COD_ID": null, "TIPO": null, "MATERIALE": null, "PORTATA": null, "MARCA_MODELLO": null, "RUBINETTO": null, "SCARICO_FOGNA": null, "NOTE": null, "COMUNE": null, "N_CIV": null, "UTENTE_CREAZIONE": null, "DATA_INS": null, "OPERATORE_": null, "DATA_AGG": null, "D_STATO": "Attivo/In esercizio", "IDGIS": null, "PORTING_CLASSE": null, "PORTING_ID": null, "POINT_X": 542632.48919999972, "POINT_Y": 4217393.2988000009, "ANGLE": null, "LINK": null, "VIA_DENOMINAZIONE": null, "GlobalID": "{5558851A-A1E0-4AC9-8D54-3F53CEC9DC6C}", "STATO_RILIEVO": "RILEVATO", "SORGENTE_DATI": null }, "geometry": { "type": "Point", "coordinates": [ 15.486260224495764, 38.103346794525628, 0.0 ] } },
{ "type": "Feature", "properties": { "COD_ID": null, "TIPO": null, "MATERIALE": null, "PORTATA": null, "MARCA_MODELLO": null, "RUBINETTO": null, "SCARICO_FOGNA": null, "NOTE": null, "COMUNE": null, "N_CIV": null, "UTENTE_CREAZIONE": null, "DATA_INS": null, "OPERATORE_": null, "DATA_AGG": null, "D_STATO": "Attivo/In esercizio", "IDGIS": null, "PORTING_CLASSE": null, "PORTING_ID": null, "POINT_X": 542599.82139999978, "POINT_Y": 4217511.2035000008, "ANGLE": null, "LINK": null, "VIA_DENOMINAZIONE": null, "GlobalID": "{598E0A88-5CDE-4673-9865-AC63931F47D8}", "STATO_RILIEVO": "RILEVATO", "SORGENTE_DATI": null }, "geometry": { "type": "Point", "coordinates": [ 15.485894670056789, 38.104410941999753, 0.0 ] } },
{ "type": "Feature", "properties": { "COD_ID": null, "TIPO": null, "MATERIALE": null, "PORTATA": null, "MARCA_MODELLO": null, "RUBINETTO": null, "SCARICO_FOGNA": null, "NOTE": null, "COMUNE": null, "N_CIV": null, "UTENTE_CREAZIONE": null, "DATA_INS": null, "OPERATORE_": null, "DATA_AGG": null, "D_STATO": "Attivo/In esercizio", "IDGIS": null, "PORTING_CLASSE": null, "PORTING_ID": null, "POINT_X": 542607.35479999986, "POINT_Y": 4217204.6846999992, "ANGLE": null, "LINK": null, "VIA_DENOMINAZIONE": null, "GlobalID": "{B39F87C9-D6DF-48CB-84BB-EBE92BC5DFFC}", "STATO_RILIEVO": "RILEVATO", "SORGENTE_DATI": null }, "geometry": { "type": "Point", "coordinates": [ 15.48596229521192, 38.101648111490036, 0.0 ] } },
{ "type": "Feature", "properties": { "COD_ID": null, "TIPO": null, "MATERIALE": null, "PORTATA": null, "MARCA_MODELLO": null, "RUBINETTO": null, "SCARICO_FOGNA": null, "NOTE": null, "COMUNE": null, "N_CIV": null, "UTENTE_CREAZIONE": null, "DATA_INS": null, "OPERATORE_": null, "DATA_AGG": null, "D_STATO": "Attivo/In esercizio", "IDGIS": null, "PORTING_CLASSE": null, "PORTING_ID": null, "POINT_X": 542401.50889999978, "POINT_Y": 4217240.6574000008, "ANGLE": null, "LINK": null, "VIA_DENOMINAZIONE": null, "GlobalID": "{50E1D3F0-BF85-4DB4-9B29-6A0A1AC9E5EA}", "STATO_RILIEVO": "RILEVATO", "SORGENTE_DATI": null }, "geometry": { "type": "Point", "coordinates": [ 15.48361671420785, 38.101981998759619, 0.0 ] } },
{ "type": "Feature", "properties": { "COD_ID": null, "TIPO": null, "MATERIALE": null, "PORTATA": null, "MARCA_MODELLO": null, "RUBINETTO": null, "SCARICO_FOGNA": null, "NOTE": null, "COMUNE": null, "N_CIV": null, "UTENTE_CREAZIONE": null, "DATA_INS": null, "OPERATORE_": null, "DATA_AGG": null, "D_STATO": "Attivo/In esercizio", "IDGIS": null, "PORTING_CLASSE": null, "PORTING_ID": null, "POINT_X": 542510.00760000013, "POINT_Y": 4217287.2748000007, "ANGLE": null, "LINK": null, "VIA_DENOMINAZIONE": "Località Santo Stefano Medio", "GlobalID": "{AA685910-4575-4F99-A8BC-3CFBD59200BC}", "STATO_RILIEVO": "RILEVATO", "SORGENTE_DATI": null }, "geometry": { "type": "Point", "coordinates": [ 15.484856947881248, 38.102397034680806, 0.0 ] } },
{ "type": "Feature", "properties": { "COD_ID": null, "TIPO": null, "MATERIALE": null, "PORTATA": null, "MARCA_MODELLO": null, "RUBINETTO": null, "SCARICO_FOGNA": null, "NOTE": null, "COMUNE": null, "N_CIV": null, "UTENTE_CREAZIONE": null, "DATA_INS": null, "OPERATORE_": null, "DATA_AGG": null, "D_STATO": "Attivo/In esercizio", "IDGIS": null, "PORTING_CLASSE": null, "PORTING_ID": null, "POINT_X": 542561.9757000003, "POINT_Y": 4217257.9755000006, "ANGLE": null, "LINK": null, "VIA_DENOMINAZIONE": null, "GlobalID": "{60F01328-3A4D-4B6D-A0FF-5BBDD8C7B7A2}", "STATO_RILIEVO": "RILEVATO", "SORGENTE_DATI": null }, "geometry": { "type": "Point", "coordinates": [ 15.485447914366739, 38.102130529872717, 0.0 ] } },
{ "type": "Feature", "properties": { "COD_ID": null, "TIPO": null, "MATERIALE": null, "PORTATA": null, "MARCA_MODELLO": null, "RUBINETTO": null, "SCARICO_FOGNA": null, "NOTE": null, "COMUNE": null, "N_CIV": null, "UTENTE_CREAZIONE": null, "DATA_INS": null, "OPERATORE_": null, "DATA_AGG": null, "D_STATO": "Attivo/In esercizio", "IDGIS": null, "PORTING_CLASSE": null, "PORTING_ID": null, "POINT_X": 542092.61589999963, "POINT_Y": 4217171.8524999991, "ANGLE": null, "LINK": null, "VIA_DENOMINAZIONE": "Località Santo Stefano Briga", "GlobalID": "{140CAA22-F039-4DAC-AFDA-807791EAA67B}", "STATO_RILIEVO": "RILEVATO", "SORGENTE_DATI": null }, "geometry": { "type": "Point", "coordinates": [ 15.480089646117429, 38.101376346843487, 0.0 ] } },
{ "type": "Feature", "properties": { "COD_ID": null, "TIPO": null, "MATERIALE": null, "PORTATA": null, "MARCA_MODELLO": null, "RUBINETTO": null, "SCARICO_FOGNA": null, "NOTE": null, "COMUNE": null, "N_CIV": null, "UTENTE_CREAZIONE": null, "DATA_INS": null, "OPERATORE_": null, "DATA_AGG": null, "D_STATO": "Attivo/In esercizio", "IDGIS": null, "PORTING_CLASSE": null, "PORTING_ID": null, "POINT_X": 541876.3432, "POINT_Y": 4217143.07, "ANGLE": null, "LINK": null, "VIA_DENOMINAZIONE": "Località Santo Stefano Briga", "GlobalID": "{5362BF47-B40B-4C98-A323-99B92AB2A615}", "STATO_RILIEVO": "RILEVATO", "SORGENTE_DATI": null }, "geometry": { "type": "Point", "coordinates": [ 15.477621326592955, 38.101126998738238, 172.816800000000512 ] } },
{ "type": "Feature", "properties": { "COD_ID": null, "TIPO": null, "MATERIALE": null, "PORTATA": null, "MARCA_MODELLO": null, "RUBINETTO": null, "SCARICO_FOGNA": null, "NOTE": null, "COMUNE": null, "N_CIV": null, "UTENTE_CREAZIONE": null, "DATA_INS": null, "OPERATORE_": null, "DATA_AGG": null, "D_STATO": "Attivo/In esercizio", "IDGIS": null, "PORTING_CLASSE": null, "PORTING_ID": null, "POINT_X": 542113.0251000002, "POINT_Y": 4217031.4529, "ANGLE": null, "LINK": null, "VIA_DENOMINAZIONE": "Località Santo Stefano Briga", "GlobalID": "{FE64335A-7253-42A4-BD14-885A2911B1B4}", "STATO_RILIEVO": "RILEVATO", "SORGENTE_DATI": null }, "geometry": { "type": "Point", "coordinates": [ 15.480314133616742, 38.100110054313717, 0.0 ] } },
{ "type": "Feature", "properties": { "COD_ID": null, "TIPO": null, "MATERIALE": null, "PORTATA": null, "MARCA_MODELLO": null, "RUBINETTO": null, "SCARICO_FOGNA": null, "NOTE": null, "COMUNE": null, "N_CIV": null, "UTENTE_CREAZIONE": null, "DATA_INS": null, "OPERATORE_": null, "DATA_AGG": null, "D_STATO": "Attivo/In esercizio", "IDGIS": null, "PORTING_CLASSE": null, "PORTING_ID": null, "POINT_X": 542130.29750000034, "POINT_Y": 4217094.8328000009, "ANGLE": null, "LINK": null, "VIA_DENOMINAZIONE": "Località Santo Stefano Briga", "GlobalID": "{7EFE1647-DABD-4EE6-99AE-A85D462E26AE}", "STATO_RILIEVO": "RILEVATO", "SORGENTE_DATI": null }, "geometry": { "type": "Point", "coordinates": [ 15.480514865856025, 38.10068045570857, 0.0 ] } },
{ "type": "Feature", "properties": { "COD_ID": null, "TIPO": null, "MATERIALE": null, "PORTATA": null, "MARCA_MODELLO": null, "RUBINETTO": null, "SCARICO_FOGNA": null, "NOTE": null, "COMUNE": null, "N_CIV": null, "UTENTE_CREAZIONE": null, "DATA_INS": null, "OPERATORE_": null, "DATA_AGG": null, "D_STATO": "Attivo/In esercizio", "IDGIS": null, "PORTING_CLASSE": null, "PORTING_ID": null, "POINT_X": 542078.3755000001, "POINT_Y": 4216957.6067999993, "ANGLE": null, "LINK": null, "VIA_DENOMINAZIONE": "Località Santo Stefano Briga", "GlobalID": "{A52FBEF2-3535-4CA5-90D7-D6EEE1C9EC7D}", "STATO_RILIEVO": "RILEVATO", "SORGENTE_DATI": null }, "geometry": { "type": "Point", "coordinates": [ 15.479914602373382, 38.099446136200719, 0.0 ] } },
{ "type": "Feature", "properties": { "COD_ID": null, "TIPO": null, "MATERIALE": null, "PORTATA": null, "MARCA_MODELLO": null, "RUBINETTO": null, "SCARICO_FOGNA": null, "NOTE": null, "COMUNE": null, "N_CIV": null, "UTENTE_CREAZIONE": null, "DATA_INS": null, "OPERATORE_": null, "DATA_AGG": null, "D_STATO": "Attivo/In esercizio", "IDGIS": null, "PORTING_CLASSE": null, "PORTING_ID": null, "POINT_X": 541484.31570000015, "POINT_Y": 4214615.0124999993, "ANGLE": null, "LINK": null, "VIA_DENOMINAZIONE": null, "GlobalID": "{43E2BCCB-7D43-442E-9D4E-896EEE5D1FF7}", "STATO_RILIEVO": "RILEVATO", "SORGENTE_DATI": null }, "geometry": { "type": "Point", "coordinates": [ 15.473003349383173, 38.078361085347339, 0.0 ] } },
{ "type": "Feature", "properties": { "COD_ID": null, "TIPO": null, "MATERIALE": null, "PORTATA": null, "MARCA_MODELLO": null, "RUBINETTO": null, "SCARICO_FOGNA": null, "NOTE": null, "COMUNE": null, "N_CIV": null, "UTENTE_CREAZIONE": null, "DATA_INS": null, "OPERATORE_": null, "DATA_AGG": null, "D_STATO": "Attivo/In esercizio", "IDGIS": null, "PORTING_CLASSE": null, "PORTING_ID": null, "POINT_X": 541531.159, "POINT_Y": 4214597.0625, "ANGLE": null, "LINK": null, "VIA_DENOMINAZIONE": null, "GlobalID": "{6B6008A1-69A2-4D7D-B54F-1E0E1220F6E0}", "STATO_RILIEVO": "RILEVATO", "SORGENTE_DATI": null }, "geometry": { "type": "Point", "coordinates": [ 15.473536395746363, 38.078197160742782, 0.0 ] } },
{ "type": "Feature", "properties": { "COD_ID": null, "TIPO": null, "MATERIALE": null, "PORTATA": null, "MARCA_MODELLO": null, "RUBINETTO": null, "SCARICO_FOGNA": null, "NOTE": null, "COMUNE": null, "N_CIV": null, "UTENTE_CREAZIONE": null, "DATA_INS": null, "OPERATORE_": null, "DATA_AGG": null, "D_STATO": "Attivo/In esercizio", "IDGIS": null, "PORTING_CLASSE": null, "PORTING_ID": null, "POINT_X": 541416.00530000031, "POINT_Y": 4214650.5225000009, "ANGLE": null, "LINK": null, "VIA_DENOMINAZIONE": null, "GlobalID": "{2CC86BA2-B0A4-4834-9B77-2B0BA1883119}", "STATO_RILIEVO": "RILEVATO", "SORGENTE_DATI": null }, "geometry": { "type": "Point", "coordinates": [ 15.47222655801834, 38.078684250276027, 0.0 ] } },
{ "type": "Feature", "properties": { "COD_ID": null, "TIPO": "a muro", "MATERIALE": null, "PORTATA": null, "MARCA_MODELLO": null, "RUBINETTO": "SI", "SCARICO_FOGNA": null, "NOTE": null, "COMUNE": null, "N_CIV": null, "UTENTE_CREAZIONE": null, "DATA_INS": null, "OPERATORE_": null, "DATA_AGG": null, "D_STATO": "Attivo/In esercizio", "IDGIS": null, "PORTING_CLASSE": null, "PORTING_ID": null, "POINT_X": 540083.1628, "POINT_Y": 4215221.6673000008, "ANGLE": null, "LINK": null, "VIA_DENOMINAZIONE": null, "GlobalID": "{284261B9-FC96-4F89-BA43-AC6C72894EA9}", "STATO_RILIEVO": "RILEVATO", "SORGENTE_DATI": null }, "geometry": { "type": "Point", "coordinates": [ 15.457061941379562, 38.08389176441522, 0.0 ] } },
{ "type": "Feature", "properties": { "COD_ID": null, "TIPO": "a muro", "MATERIALE": null, "PORTATA": null, "MARCA_MODELLO": null, "RUBINETTO": "SI", "SCARICO_FOGNA": null, "NOTE": null, "COMUNE": null, "N_CIV": null, "UTENTE_CREAZIONE": null, "DATA_INS": null, "OPERATORE_": null, "DATA_AGG": null, "D_STATO": "Attivo/In esercizio", "IDGIS": null, "PORTING_CLASSE": null, "PORTING_ID": null, "POINT_X": 540228.97609999962, "POINT_Y": 4215337.6072000004, "ANGLE": null, "LINK": null, "VIA_DENOMINAZIONE": null, "GlobalID": "{A6EA64A2-68A7-4E97-8E80-BD299CA78721}", "STATO_RILIEVO": "RILEVATO", "SORGENTE_DATI": null }, "geometry": { "type": "Point", "coordinates": [ 15.458731107108111, 38.084930192444098, 0.0 ] } },
{ "type": "Feature", "properties": { "COD_ID": null, "TIPO": "a muro", "MATERIALE": null, "PORTATA": null, "MARCA_MODELLO": null, "RUBINETTO": "SI", "SCARICO_FOGNA": null, "NOTE": null, "COMUNE": null, "N_CIV": null, "UTENTE_CREAZIONE": null, "DATA_INS": null, "OPERATORE_": null, "DATA_AGG": null, "D_STATO": "Attivo/In esercizio", "IDGIS": null, "PORTING_CLASSE": null, "PORTING_ID": null, "POINT_X": 540226.8376000002, "POINT_Y": 4215398.0146999992, "ANGLE": null, "LINK": null, "VIA_DENOMINAZIONE": null, "GlobalID": "{61FF83D0-C3C7-4AED-B70F-2727E30E8B29}", "STATO_RILIEVO": "RILEVATO", "SORGENTE_DATI": null }, "geometry": { "type": "Point", "coordinates": [ 15.4587101241582, 38.085474708986226, 0.0 ] } },
{ "type": "Feature", "properties": { "COD_ID": null, "TIPO": "a colonna", "MATERIALE": null, "PORTATA": null, "MARCA_MODELLO": null, "RUBINETTO": "SI", "SCARICO_FOGNA": "SI", "NOTE": null, "COMUNE": null, "N_CIV": null, "UTENTE_CREAZIONE": null, "DATA_INS": null, "OPERATORE_": null, "DATA_AGG": null, "D_STATO": "Attivo/In esercizio", "IDGIS": null, "PORTING_CLASSE": null, "PORTING_ID": null, "POINT_X": 540056.46, "POINT_Y": 4215254.7865999993, "ANGLE": null, "LINK": null, "VIA_DENOMINAZIONE": null, "GlobalID": "{69C0962F-2D10-4594-BB7A-D505B16509E6}", "STATO_RILIEVO": "RILEVATO", "SORGENTE_DATI": null }, "geometry": { "type": "Point", "coordinates": [ 15.456759319513731, 38.084191435356374, 0.0 ] } },
{ "type": "Feature", "properties": { "COD_ID": null, "TIPO": "a colonna", "MATERIALE": null, "PORTATA": null, "MARCA_MODELLO": null, "RUBINETTO": "SI", "SCARICO_FOGNA": null, "NOTE": null, "COMUNE": null, "N_CIV": null, "UTENTE_CREAZIONE": null, "DATA_INS": null, "OPERATORE_": null, "DATA_AGG": null, "D_STATO": "Attivo/In esercizio", "IDGIS": null, "PORTING_CLASSE": null, "PORTING_ID": null, "POINT_X": 540179.69089999981, "POINT_Y": 4215330.4826999996, "ANGLE": null, "LINK": null, "VIA_DENOMINAZIONE": null, "GlobalID": "{7217A5FE-19C4-4CEC-B667-6273D1F62DF2}", "STATO_RILIEVO": "RILEVATO", "SORGENTE_DATI": null }, "geometry": { "type": "Point", "coordinates": [ 15.458168723720291, 38.084868175347154, 0.0 ] } },
{ "type": "Feature", "properties": { "COD_ID": null, "TIPO": "a colonna", "MATERIALE": null, "PORTATA": null, "MARCA_MODELLO": null, "RUBINETTO": "SI", "SCARICO_FOGNA": "SI", "NOTE": null, "COMUNE": null, "N_CIV": null, "UTENTE_CREAZIONE": null, "DATA_INS": null, "OPERATORE_": null, "DATA_AGG": null, "D_STATO": "Attivo/In esercizio", "IDGIS": null, "PORTING_CLASSE": null, "PORTING_ID": null, "POINT_X": 540228.4199000001, "POINT_Y": 4215294.5373, "ANGLE": null, "LINK": null, "VIA_DENOMINAZIONE": null, "GlobalID": "{D5E63AD1-FC82-46BD-9C7A-CE59200EAA29}", "STATO_RILIEVO": "RILEVATO", "SORGENTE_DATI": null }, "geometry": { "type": "Point", "coordinates": [ 15.458722339566341, 38.084542050575415, 0.0 ] } },
{ "type": "Feature", "properties": { "COD_ID": null, "TIPO": "a muro", "MATERIALE": null, "PORTATA": null, "MARCA_MODELLO": null, "RUBINETTO": "SI", "SCARICO_FOGNA": "SI", "NOTE": null, "COMUNE": null, "N_CIV": null, "UTENTE_CREAZIONE": null, "DATA_INS": null, "OPERATORE_": null, "DATA_AGG": null, "D_STATO": "Attivo/In esercizio", "IDGIS": null, "PORTING_CLASSE": null, "PORTING_ID": null, "POINT_X": 540246.48819999956, "POINT_Y": 4215271.3040999994, "ANGLE": null, "LINK": null, "VIA_DENOMINAZIONE": null, "GlobalID": "{41C30F01-6790-461F-B707-BBB18BEF3B68}", "STATO_RILIEVO": "RILEVATO", "SORGENTE_DATI": null }, "geometry": { "type": "Point", "coordinates": [ 15.458927056360242, 38.084331857442123, 0.0 ] } },
{ "type": "Feature", "properties": { "COD_ID": null, "TIPO": "a muro", "MATERIALE": null, "PORTATA": null, "MARCA_MODELLO": null, "RUBINETTO": "SI", "SCARICO_FOGNA": "SI", "NOTE": null, "COMUNE": null, "N_CIV": null, "UTENTE_CREAZIONE": null, "DATA_INS": null, "OPERATORE_": null, "DATA_AGG": null, "D_STATO": "Attivo/In esercizio", "IDGIS": null, "PORTING_CLASSE": null, "PORTING_ID": null, "POINT_X": 540310.01460000034, "POINT_Y": 4215345.4033000004, "ANGLE": null, "LINK": null, "VIA_DENOMINAZIONE": null, "GlobalID": "{7DBE746B-26DD-43F6-9639-9DE0078AC1C3}", "STATO_RILIEVO": "RILEVATO", "SORGENTE_DATI": null }, "geometry": { "type": "Point", "coordinates": [ 15.459655601833095, 38.084996844003975, 0.0 ] } },
{ "type": "Feature", "properties": { "COD_ID": null, "TIPO": "a colonna", "MATERIALE": null, "PORTATA": null, "MARCA_MODELLO": null, "RUBINETTO": "SI", "SCARICO_FOGNA": null, "NOTE": null, "COMUNE": null, "N_CIV": null, "UTENTE_CREAZIONE": null, "DATA_INS": null, "OPERATORE_": null, "DATA_AGG": null, "D_STATO": "Attivo/In esercizio", "IDGIS": null, "PORTING_CLASSE": null, "PORTING_ID": null, "POINT_X": 541393.63839999959, "POINT_Y": 4213379.9734000005, "ANGLE": null, "LINK": null, "VIA_DENOMINAZIONE": null, "GlobalID": "{C70D8129-02A8-42BF-9DC9-4CF39F63D30C}", "STATO_RILIEVO": "RILEVATO", "SORGENTE_DATI": null }, "geometry": { "type": "Point", "coordinates": [ 15.471897960537698, 38.067234474463334, 0.0 ] } },
{ "type": "Feature", "properties": { "COD_ID": null, "TIPO": "a colonna", "MATERIALE": null, "PORTATA": null, "MARCA_MODELLO": null, "RUBINETTO": "SI", "SCARICO_FOGNA": "NO", "NOTE": null, "COMUNE": null, "N_CIV": null, "UTENTE_CREAZIONE": null, "DATA_INS": null, "OPERATORE_": null, "DATA_AGG": null, "D_STATO": "Attivo/In esercizio", "IDGIS": null, "PORTING_CLASSE": null, "PORTING_ID": null, "POINT_X": 541238.30960000027, "POINT_Y": 4213491.3997000009, "ANGLE": null, "LINK": null, "VIA_DENOMINAZIONE": null, "GlobalID": "{A50F2995-058D-4E72-8584-77E28728EF98}", "STATO_RILIEVO": "RILEVATO", "SORGENTE_DATI": null }, "geometry": { "type": "Point", "coordinates": [ 15.470133654750233, 38.068245799024936, 0.0 ] } },
{ "type": "Feature", "properties": { "COD_ID": null, "TIPO": "a muro", "MATERIALE": null, "PORTATA": null, "MARCA_MODELLO": null, "RUBINETTO": "SI", "SCARICO_FOGNA": null, "NOTE": null, "COMUNE": null, "N_CIV": null, "UTENTE_CREAZIONE": null, "DATA_INS": null, "OPERATORE_": null, "DATA_AGG": null, "D_STATO": "Attivo/In esercizio", "IDGIS": null, "PORTING_CLASSE": null, "PORTING_ID": null, "POINT_X": 541180.89279999956, "POINT_Y": 4213609.4466999993, "ANGLE": null, "LINK": null, "VIA_DENOMINAZIONE": null, "GlobalID": "{51E2592E-BABB-4DD4-9A3D-9E6995962EBF}", "STATO_RILIEVO": "RILEVATO", "SORGENTE_DATI": null }, "geometry": { "type": "Point", "coordinates": [ 15.469485899486328, 38.069312312893182, 0.0 ] } },
{ "type": "Feature", "properties": { "COD_ID": null, "TIPO": "a muro", "MATERIALE": null, "PORTATA": null, "MARCA_MODELLO": null, "RUBINETTO": "SI", "SCARICO_FOGNA": null, "NOTE": null, "COMUNE": null, "N_CIV": null, "UTENTE_CREAZIONE": null, "DATA_INS": null, "OPERATORE_": null, "DATA_AGG": null, "D_STATO": "Attivo/In esercizio", "IDGIS": null, "PORTING_CLASSE": null, "PORTING_ID": null, "POINT_X": 541123.77089999989, "POINT_Y": 4213670.7608000003, "ANGLE": null, "LINK": null, "VIA_DENOMINAZIONE": null, "GlobalID": "{00AA09C0-80DE-4664-9911-D1E4CFF287BA}", "STATO_RILIEVO": "RILEVATO", "SORGENTE_DATI": null }, "geometry": { "type": "Point", "coordinates": [ 15.468838223991975, 38.06986750502525, 0.0 ] } },
{ "type": "Feature", "properties": { "COD_ID": null, "TIPO": "a colonna", "MATERIALE": null, "PORTATA": null, "MARCA_MODELLO": null, "RUBINETTO": "SI", "SCARICO_FOGNA": null, "NOTE": null, "COMUNE": null, "N_CIV": null, "UTENTE_CREAZIONE": null, "DATA_INS": null, "OPERATORE_": null, "DATA_AGG": null, "D_STATO": "Attivo/In esercizio", "IDGIS": null, "PORTING_CLASSE": null, "PORTING_ID": null, "POINT_X": 541210.82390000019, "POINT_Y": 4213698.3999000005, "ANGLE": null, "LINK": null, "VIA_DENOMINAZIONE": null, "GlobalID": "{C3AD58A5-FFA2-4DA8-8E01-D1703818D0A2}", "STATO_RILIEVO": "RILEVATO", "SORGENTE_DATI": null }, "geometry": { "type": "Point", "coordinates": [ 15.469832248392636, 38.070112639167654, 0.0 ] } },
{ "type": "Feature", "properties": { "COD_ID": null, "TIPO": "a muro", "MATERIALE": null, "PORTATA": null, "MARCA_MODELLO": null, "RUBINETTO": "SI", "SCARICO_FOGNA": null, "NOTE": null, "COMUNE": null, "N_CIV": null, "UTENTE_CREAZIONE": null, "DATA_INS": null, "OPERATORE_": null, "DATA_AGG": null, "D_STATO": "Attivo/In esercizio", "IDGIS": null, "PORTING_CLASSE": null, "PORTING_ID": null, "POINT_X": 541212.14070000034, "POINT_Y": 4213712.3855000008, "ANGLE": null, "LINK": null, "VIA_DENOMINAZIONE": null, "GlobalID": "{17A58B50-EF6C-4153-B6D0-41B391BED029}", "STATO_RILIEVO": "RILEVATO", "SORGENTE_DATI": null }, "geometry": { "type": "Point", "coordinates": [ 15.469848066611933, 38.070238624216344, 0.0 ] } },
{ "type": "Feature", "properties": { "COD_ID": null, "TIPO": "a colonna", "MATERIALE": null, "PORTATA": null, "MARCA_MODELLO": null, "RUBINETTO": "SI", "SCARICO_FOGNA": null, "NOTE": null, "COMUNE": null, "N_CIV": null, "UTENTE_CREAZIONE": null, "DATA_INS": null, "OPERATORE_": null, "DATA_AGG": null, "D_STATO": "Attivo/In esercizio", "IDGIS": null, "PORTING_CLASSE": null, "PORTING_ID": null, "POINT_X": 541186.6, "POINT_Y": 4213748.9664999992, "ANGLE": null, "LINK": null, "VIA_DENOMINAZIONE": null, "GlobalID": "{D0A2AABD-0839-4073-B102-B10C342AC793}", "STATO_RILIEVO": "RILEVATO", "SORGENTE_DATI": null }, "geometry": { "type": "Point", "coordinates": [ 15.469559000806541, 38.07056947367461, 0.0 ] } },
{ "type": "Feature", "properties": { "COD_ID": null, "TIPO": "abbeveratoio", "MATERIALE": null, "PORTATA": null, "MARCA_MODELLO": null, "RUBINETTO": "SI", "SCARICO_FOGNA": null, "NOTE": null, "COMUNE": null, "N_CIV": null, "UTENTE_CREAZIONE": null, "DATA_INS": null, "OPERATORE_": null, "DATA_AGG": null, "D_STATO": "Attivo/In esercizio", "IDGIS": null, "PORTING_CLASSE": null, "PORTING_ID": null, "POINT_X": 541238.5444, "POINT_Y": 4213551.0763000008, "ANGLE": null, "LINK": null, "VIA_DENOMINAZIONE": null, "GlobalID": "{29EC9B46-621E-4D64-BF1C-DF45C42B5FF1}", "STATO_RILIEVO": "RILEVATO", "SORGENTE_DATI": null }, "geometry": { "type": "Point", "coordinates": [ 15.470139773644215, 38.068783623116957, 87.136899999997695 ] } },
{ "type": "Feature", "properties": { "COD_ID": null, "TIPO": "a muro", "MATERIALE": null, "PORTATA": null, "MARCA_MODELLO": null, "RUBINETTO": "SI", "SCARICO_FOGNA": null, "NOTE": null, "COMUNE": null, "N_CIV": null, "UTENTE_CREAZIONE": null, "DATA_INS": null, "OPERATORE_": null, "DATA_AGG": null, "D_STATO": "Attivo/In esercizio", "IDGIS": null, "PORTING_CLASSE": null, "PORTING_ID": null, "POINT_X": 541258.52, "POINT_Y": 4213596.8250999991, "ANGLE": null, "LINK": null, "VIA_DENOMINAZIONE": null, "GlobalID": "{1C3B1A04-D3D5-4B8A-A5E1-63BAB45D285D}", "STATO_RILIEVO": "RILEVATO", "SORGENTE_DATI": null }, "geometry": { "type": "Point", "coordinates": [ 15.470370138419353, 38.069195022588083, 0.0 ] } },
{ "type": "Feature", "properties": { "COD_ID": null, "TIPO": "a muro", "MATERIALE": null, "PORTATA": null, "MARCA_MODELLO": null, "RUBINETTO": "SI", "SCARICO_FOGNA": null, "NOTE": null, "COMUNE": null, "N_CIV": null, "UTENTE_CREAZIONE": null, "DATA_INS": null, "OPERATORE_": null, "DATA_AGG": null, "D_STATO": "Attivo/In esercizio", "IDGIS": null, "PORTING_CLASSE": null, "PORTING_ID": null, "POINT_X": 541252.9287, "POINT_Y": 4213741.5365999993, "ANGLE": null, "LINK": null, "VIA_DENOMINAZIONE": null, "GlobalID": "{FDC9D929-F345-4524-A929-86BB64325021}", "STATO_RILIEVO": "RILEVATO", "SORGENTE_DATI": null }, "geometry": { "type": "Point", "coordinates": [ 15.470314746917424, 38.070499488372818, 0.0 ] } },
{ "type": "Feature", "properties": { "COD_ID": null, "TIPO": "a muro", "MATERIALE": null, "PORTATA": null, "MARCA_MODELLO": null, "RUBINETTO": "SI", "SCARICO_FOGNA": "SI", "NOTE": null, "COMUNE": null, "N_CIV": null, "UTENTE_CREAZIONE": null, "DATA_INS": null, "OPERATORE_": null, "DATA_AGG": null, "D_STATO": "Attivo/In esercizio", "IDGIS": null, "PORTING_CLASSE": null, "PORTING_ID": null, "POINT_X": 541193.591, "POINT_Y": 4213550.5405000001, "ANGLE": null, "LINK": null, "VIA_DENOMINAZIONE": null, "GlobalID": "{7F795357-A701-49B6-977C-3B6819A2BE69}", "STATO_RILIEVO": "RILEVATO", "SORGENTE_DATI": null }, "geometry": { "type": "Point", "coordinates": [ 15.469627267689084, 38.068780842994606, 86.586899999994785 ] } },
{ "type": "Feature", "properties": { "COD_ID": null, "TIPO": null, "MATERIALE": null, "PORTATA": null, "MARCA_MODELLO": null, "RUBINETTO": "SI", "SCARICO_FOGNA": null, "NOTE": null, "COMUNE": null, "N_CIV": null, "UTENTE_CREAZIONE": null, "DATA_INS": null, "OPERATORE_": null, "DATA_AGG": null, "D_STATO": "Attivo/In esercizio", "IDGIS": null, "PORTING_CLASSE": null, "PORTING_ID": null, "POINT_X": 541050.0318, "POINT_Y": 4213673.1786000002, "ANGLE": null, "LINK": null, "VIA_DENOMINAZIONE": null, "GlobalID": "{A7AC6999-5D02-4D54-8D2A-49691995550F}", "STATO_RILIEVO": "RILEVATO", "SORGENTE_DATI": null }, "geometry": { "type": "Point", "coordinates": [ 15.467997714122978, 38.069892645715555, 0.0 ] } },
{ "type": "Feature", "properties": { "COD_ID": null, "TIPO": "a muro", "MATERIALE": null, "PORTATA": null, "MARCA_MODELLO": null, "RUBINETTO": "SI", "SCARICO_FOGNA": "SI", "NOTE": null, "COMUNE": null, "N_CIV": null, "UTENTE_CREAZIONE": null, "DATA_INS": null, "OPERATORE_": null, "DATA_AGG": null, "D_STATO": "Attivo/In esercizio", "IDGIS": null, "PORTING_CLASSE": null, "PORTING_ID": null, "POINT_X": 541090.81989999954, "POINT_Y": 4213839.1075999998, "ANGLE": null, "LINK": null, "VIA_DENOMINAZIONE": null, "GlobalID": "{7CE69A52-4987-45A4-ADD4-B46A2A057FBF}", "STATO_RILIEVO": "RILEVATO", "SORGENTE_DATI": null }, "geometry": { "type": "Point", "coordinates": [ 15.468472248862316, 38.071386226651022, 0.0 ] } },
{ "type": "Feature", "properties": { "COD_ID": null, "TIPO": "a muro", "MATERIALE": null, "PORTATA": null, "MARCA_MODELLO": null, "RUBINETTO": "SI", "SCARICO_FOGNA": "?", "NOTE": null, "COMUNE": null, "N_CIV": null, "UTENTE_CREAZIONE": null, "DATA_INS": null, "OPERATORE_": null, "DATA_AGG": null, "D_STATO": "Attivo/In esercizio", "IDGIS": null, "PORTING_CLASSE": null, "PORTING_ID": null, "POINT_X": 539973.42509999964, "POINT_Y": 4214280.6607000008, "ANGLE": null, "LINK": null, "VIA_DENOMINAZIONE": null, "GlobalID": "{55AAC27A-056C-4ECD-BB5D-6E16665785E0}", "STATO_RILIEVO": "RILEVATO", "SORGENTE_DATI": null }, "geometry": { "type": "Point", "coordinates": [ 15.455758014935888, 38.075415809989565, 0.0 ] } },
{ "type": "Feature", "properties": { "COD_ID": null, "TIPO": "a muro", "MATERIALE": null, "PORTATA": null, "MARCA_MODELLO": null, "RUBINETTO": "SI", "SCARICO_FOGNA": "SI", "NOTE": null, "COMUNE": null, "N_CIV": null, "UTENTE_CREAZIONE": null, "DATA_INS": null, "OPERATORE_": null, "DATA_AGG": null, "D_STATO": "Attivo/In esercizio", "IDGIS": null, "PORTING_CLASSE": null, "PORTING_ID": null, "POINT_X": 539932.83189999964, "POINT_Y": 4214261.5139000006, "ANGLE": null, "LINK": null, "VIA_DENOMINAZIONE": null, "GlobalID": "{C626CDA7-38E3-4A3E-BCB0-89F23D4CC481}", "STATO_RILIEVO": "RILEVATO", "SORGENTE_DATI": null }, "geometry": { "type": "Point", "coordinates": [ 15.45529413423429, 38.07524504326215, 0.0 ] } },
{ "type": "Feature", "properties": { "COD_ID": null, "TIPO": "a colonna", "MATERIALE": null, "PORTATA": null, "MARCA_MODELLO": null, "RUBINETTO": "SI", "SCARICO_FOGNA": "?", "NOTE": null, "COMUNE": null, "N_CIV": null, "UTENTE_CREAZIONE": null, "DATA_INS": null, "OPERATORE_": null, "DATA_AGG": null, "D_STATO": "Attivo/In esercizio", "IDGIS": null, "PORTING_CLASSE": null, "PORTING_ID": null, "POINT_X": 539821.14269999973, "POINT_Y": 4214163.0147999991, "ANGLE": null, "LINK": null, "VIA_DENOMINAZIONE": null, "GlobalID": "{0ED78B55-5563-465F-AC2E-330D13DC5AA1}", "STATO_RILIEVO": "RILEVATO", "SORGENTE_DATI": null }, "geometry": { "type": "Point", "coordinates": [ 15.454015258977687, 38.07436224602354, 0.0 ] } },
{ "type": "Feature", "properties": { "COD_ID": null, "TIPO": "a colonna", "MATERIALE": null, "PORTATA": null, "MARCA_MODELLO": null, "RUBINETTO": "SI", "SCARICO_FOGNA": null, "NOTE": null, "COMUNE": null, "N_CIV": null, "UTENTE_CREAZIONE": null, "DATA_INS": null, "OPERATORE_": null, "DATA_AGG": null, "D_STATO": "Attivo/In esercizio", "IDGIS": null, "PORTING_CLASSE": null, "PORTING_ID": null, "POINT_X": 539091.14850000013, "POINT_Y": 4214306.255000001, "ANGLE": null, "LINK": null, "VIA_DENOMINAZIONE": null, "GlobalID": "{A93964C3-FAE1-4A0B-A0A9-A33788C01C42}", "STATO_RILIEVO": "RILEVATO", "SORGENTE_DATI": null }, "geometry": { "type": "Point", "coordinates": [ 15.445700399679888, 38.075685055540831, 0.0 ] } },
{ "type": "Feature", "properties": { "COD_ID": null, "TIPO": "a muro", "MATERIALE": null, "PORTATA": null, "MARCA_MODELLO": null, "RUBINETTO": "SI", "SCARICO_FOGNA": null, "NOTE": null, "COMUNE": null, "N_CIV": null, "UTENTE_CREAZIONE": null, "DATA_INS": null, "OPERATORE_": null, "DATA_AGG": null, "D_STATO": "Attivo/In esercizio", "IDGIS": null, "PORTING_CLASSE": null, "PORTING_ID": null, "POINT_X": 539144.982, "POINT_Y": 4214279.969000001, "ANGLE": null, "LINK": null, "VIA_DENOMINAZIONE": null, "GlobalID": "{74BE5E52-F714-4B8B-B03E-A74F739E7671}", "STATO_RILIEVO": "RILEVATO", "SORGENTE_DATI": null }, "geometry": { "type": "Point", "coordinates": [ 15.446312729135759, 38.075445823533741, 0.0 ] } },
{ "type": "Feature", "properties": { "COD_ID": null, "TIPO": "a muro", "MATERIALE": null, "PORTATA": null, "MARCA_MODELLO": null, "RUBINETTO": "SI", "SCARICO_FOGNA": null, "NOTE": null, "COMUNE": null, "N_CIV": null, "UTENTE_CREAZIONE": null, "DATA_INS": null, "OPERATORE_": null, "DATA_AGG": null, "D_STATO": "Attivo/In esercizio", "IDGIS": null, "PORTING_CLASSE": null, "PORTING_ID": null, "POINT_X": 539164.847, "POINT_Y": 4214287.2791000009, "ANGLE": null, "LINK": null, "VIA_DENOMINAZIONE": null, "GlobalID": "{DA6AA5FF-1CF9-4F13-BA3B-D6527712CBDB}", "STATO_RILIEVO": "RILEVATO", "SORGENTE_DATI": null }, "geometry": { "type": "Point", "coordinates": [ 15.446539614795018, 38.075510845594756, 0.0 ] } },
{ "type": "Feature", "properties": { "COD_ID": null, "TIPO": "a muro", "MATERIALE": null, "PORTATA": null, "MARCA_MODELLO": null, "RUBINETTO": "SI", "SCARICO_FOGNA": null, "NOTE": null, "COMUNE": null, "N_CIV": null, "UTENTE_CREAZIONE": null, "DATA_INS": null, "OPERATORE_": null, "DATA_AGG": null, "D_STATO": "Attivo/In esercizio", "IDGIS": null, "PORTING_CLASSE": null, "PORTING_ID": null, "POINT_X": 539214.947, "POINT_Y": 4214319.4024, "ANGLE": null, "LINK": null, "VIA_DENOMINAZIONE": null, "GlobalID": "{DC20E081-F6B0-434D-9508-FDDD1B37223D}", "STATO_RILIEVO": "RILEVATO", "SORGENTE_DATI": null }, "geometry": { "type": "Point", "coordinates": [ 15.4471125785655, 38.075798185510926, 0.0 ] } },
{ "type": "Feature", "properties": { "COD_ID": null, "TIPO": null, "MATERIALE": null, "PORTATA": null, "MARCA_MODELLO": null, "RUBINETTO": null, "SCARICO_FOGNA": null, "NOTE": null, "COMUNE": null, "N_CIV": null, "UTENTE_CREAZIONE": null, "DATA_INS": null, "OPERATORE_": null, "DATA_AGG": null, "D_STATO": "Attivo/In esercizio", "IDGIS": null, "PORTING_CLASSE": null, "PORTING_ID": null, "POINT_X": 544104.3348000003, "POINT_Y": 4221649.259, "ANGLE": null, "LINK": null, "VIA_DENOMINAZIONE": null, "GlobalID": "{A083CDB2-560B-480A-9E39-974C6F095F82}", "STATO_RILIEVO": null, "SORGENTE_DATI": null }, "geometry": { "type": "Point", "coordinates": [ 15.503310549254472, 38.141632384629297, 195.0 ] } },
{ "type": "Feature", "properties": { "COD_ID": null, "TIPO": "a colonna", "MATERIALE": null, "PORTATA": null, "MARCA_MODELLO": null, "RUBINETTO": "SI", "SCARICO_FOGNA": "SI", "NOTE": null, "COMUNE": null, "N_CIV": null, "UTENTE_CREAZIONE": null, "DATA_INS": null, "OPERATORE_": null, "DATA_AGG": null, "D_STATO": "Attivo/In esercizio", "IDGIS": null, "PORTING_CLASSE": null, "PORTING_ID": null, "POINT_X": 539187.73170000035, "POINT_Y": 4214218.815, "ANGLE": null, "LINK": null, "VIA_DENOMINAZIONE": null, "GlobalID": "{91698709-A93C-486E-82B2-580D30A218AB}", "STATO_RILIEVO": "RILEVATO", "SORGENTE_DATI": null }, "geometry": { "type": "Point", "coordinates": [ 15.446796774445405, 38.07489282061939, 0.0 ] } },
{ "type": "Feature", "properties": { "COD_ID": null, "TIPO": "a colonna", "MATERIALE": null, "PORTATA": null, "MARCA_MODELLO": null, "RUBINETTO": "SI", "SCARICO_FOGNA": null, "NOTE": null, "COMUNE": null, "N_CIV": null, "UTENTE_CREAZIONE": null, "DATA_INS": null, "OPERATORE_": null, "DATA_AGG": null, "D_STATO": "Attivo/In esercizio", "IDGIS": null, "PORTING_CLASSE": null, "PORTING_ID": null, "POINT_X": 539177.27130000014, "POINT_Y": 4214246.0582999997, "ANGLE": null, "LINK": null, "VIA_DENOMINAZIONE": null, "GlobalID": "{D7930F96-FE58-4371-A4DA-99716973DED6}", "STATO_RILIEVO": "RILEVATO", "SORGENTE_DATI": null }, "geometry": { "type": "Point", "coordinates": [ 15.44667900744774, 38.075138804454546, 0.0 ] } },
{ "type": "Feature", "properties": { "COD_ID": null, "TIPO": "a colonna", "MATERIALE": null, "PORTATA": null, "MARCA_MODELLO": null, "RUBINETTO": "SI", "SCARICO_FOGNA": null, "NOTE": null, "COMUNE": null, "N_CIV": null, "UTENTE_CREAZIONE": null, "DATA_INS": null, "OPERATORE_": null, "DATA_AGG": null, "D_STATO": "Attivo/In esercizio", "IDGIS": null, "PORTING_CLASSE": null, "PORTING_ID": null, "POINT_X": 542619.84819999989, "POINT_Y": 4213468.2657999992, "ANGLE": null, "LINK": null, "VIA_DENOMINAZIONE": null, "GlobalID": "{F7109B57-2845-44CA-80AB-445B0B7C74E6}", "STATO_RILIEVO": "RILEVATO", "SORGENTE_DATI": null }, "geometry": { "type": "Point", "coordinates": [ 15.485881869161757, 38.067973253321512, 11.807199999995646 ] } },
{ "type": "Feature", "properties": { "COD_ID": null, "TIPO": "a muro", "MATERIALE": null, "PORTATA": null, "MARCA_MODELLO": null, "RUBINETTO": "SI", "SCARICO_FOGNA": "SI", "NOTE": null, "COMUNE": null, "N_CIV": null, "UTENTE_CREAZIONE": null, "DATA_INS": null, "OPERATORE_": null, "DATA_AGG": null, "D_STATO": "Attivo/In esercizio", "IDGIS": null, "PORTING_CLASSE": null, "PORTING_ID": null, "POINT_X": 542289.8876, "POINT_Y": 4213165.5354999993, "ANGLE": null, "LINK": null, "VIA_DENOMINAZIONE": null, "GlobalID": "{5C1ACBFA-64DB-442E-98D7-6BDC51550795}", "STATO_RILIEVO": "RILEVATO", "SORGENTE_DATI": null }, "geometry": { "type": "Point", "coordinates": [ 15.482102415758204, 38.065260392823134, 0.0 ] } },
{ "type": "Feature", "properties": { "COD_ID": null, "TIPO": "a colonna", "MATERIALE": null, "PORTATA": null, "MARCA_MODELLO": null, "RUBINETTO": "SI", "SCARICO_FOGNA": "SI", "NOTE": null, "COMUNE": null, "N_CIV": null, "UTENTE_CREAZIONE": null, "DATA_INS": null, "OPERATORE_": null, "DATA_AGG": null, "D_STATO": "Attivo/In esercizio", "IDGIS": null, "PORTING_CLASSE": null, "PORTING_ID": null, "POINT_X": 542153.33839999977, "POINT_Y": 4212986.2716000006, "ANGLE": null, "LINK": null, "VIA_DENOMINAZIONE": null, "GlobalID": "{CF5DC04F-2AB7-4C2B-BAE5-15B37314CE3D}", "STATO_RILIEVO": "RILEVATO", "SORGENTE_DATI": null }, "geometry": { "type": "Point", "coordinates": [ 15.480535245637617, 38.063651154235579, 0.0 ] } },
{ "type": "Feature", "properties": { "COD_ID": null, "TIPO": "a colonna", "MATERIALE": null, "PORTATA": null, "MARCA_MODELLO": null, "RUBINETTO": "SI", "SCARICO_FOGNA": "SI", "NOTE": null, "COMUNE": null, "N_CIV": null, "UTENTE_CREAZIONE": null, "DATA_INS": null, "OPERATORE_": null, "DATA_AGG": null, "D_STATO": "Attivo/In esercizio", "IDGIS": null, "PORTING_CLASSE": null, "PORTING_ID": null, "POINT_X": 542075.8832, "POINT_Y": 4212804.3169, "ANGLE": null, "LINK": null, "VIA_DENOMINAZIONE": null, "GlobalID": "{DFFEAF27-FF1A-44AC-A3D9-BA49140184A2}", "STATO_RILIEVO": "RILEVATO", "SORGENTE_DATI": null }, "geometry": { "type": "Point", "coordinates": [ 15.479641603169934, 38.062014896226508, 0.0 ] } },
{ "type": "Feature", "properties": { "COD_ID": null, "TIPO": null, "MATERIALE": null, "PORTATA": null, "MARCA_MODELLO": null, "RUBINETTO": "SI", "SCARICO_FOGNA": "SI", "NOTE": null, "COMUNE": null, "N_CIV": null, "UTENTE_CREAZIONE": null, "DATA_INS": null, "OPERATORE_": null, "DATA_AGG": null, "D_STATO": "Attivo/In esercizio", "IDGIS": null, "PORTING_CLASSE": null, "PORTING_ID": null, "POINT_X": 542743.60479999986, "POINT_Y": 4213568.5421999991, "ANGLE": null, "LINK": null, "VIA_DENOMINAZIONE": null, "GlobalID": "{BADD6C90-B1AF-469E-A7B3-712A2D478DEC}", "STATO_RILIEVO": "RILEVATO", "SORGENTE_DATI": null }, "geometry": { "type": "Point", "coordinates": [ 15.487298687755374, 38.068871150531699, 0.0 ] } },
{ "type": "Feature", "properties": { "COD_ID": null, "TIPO": "a colonna", "MATERIALE": null, "PORTATA": null, "MARCA_MODELLO": null, "RUBINETTO": "SI", "SCARICO_FOGNA": "SI", "NOTE": null, "COMUNE": null, "N_CIV": null, "UTENTE_CREAZIONE": null, "DATA_INS": null, "OPERATORE_": null, "DATA_AGG": null, "D_STATO": "Attivo/In esercizio", "IDGIS": null, "PORTING_CLASSE": null, "PORTING_ID": null, "POINT_X": 543306.46079999954, "POINT_Y": 4214701.1697000004, "ANGLE": null, "LINK": null, "VIA_DENOMINAZIONE": null, "GlobalID": "{BF9ECFF4-DD5F-4EB6-8018-B6B609ED8B6E}", "STATO_RILIEVO": "RILEVATO", "SORGENTE_DATI": null }, "geometry": { "type": "Point", "coordinates": [ 15.493783936895674, 38.079052122015668, 15.579299999997602 ] } },
{ "type": "Feature", "properties": { "COD_ID": null, "TIPO": "a colonna", "MATERIALE": null, "PORTATA": null, "MARCA_MODELLO": null, "RUBINETTO": "SI", "SCARICO_FOGNA": null, "NOTE": null, "COMUNE": null, "N_CIV": null, "UTENTE_CREAZIONE": null, "DATA_INS": null, "OPERATORE_": null, "DATA_AGG": null, "D_STATO": "Attivo/In esercizio", "IDGIS": null, "PORTING_CLASSE": null, "PORTING_ID": null, "POINT_X": 543317.12909999955, "POINT_Y": 4214698.183, "ANGLE": null, "LINK": null, "VIA_DENOMINAZIONE": null, "GlobalID": "{AF63E2EE-2BA7-4788-B549-0288708DE291}", "STATO_RILIEVO": "RILEVATO", "SORGENTE_DATI": null }, "geometry": { "type": "Point", "coordinates": [ 15.4939053925393, 38.079024693430775, 0.0 ] } },
{ "type": "Feature", "properties": { "COD_ID": null, "TIPO": "a colonna", "MATERIALE": null, "PORTATA": null, "MARCA_MODELLO": null, "RUBINETTO": null, "SCARICO_FOGNA": null, "NOTE": null, "COMUNE": null, "N_CIV": null, "UTENTE_CREAZIONE": null, "DATA_INS": null, "OPERATORE_": null, "DATA_AGG": null, "D_STATO": "Attivo/In esercizio", "IDGIS": null, "PORTING_CLASSE": null, "PORTING_ID": null, "POINT_X": 543284.9896999998, "POINT_Y": 4214883.1908, "ANGLE": null, "LINK": null, "VIA_DENOMINAZIONE": null, "GlobalID": "{ABE88814-1E0C-4309-8F9C-51A2F2CD6644}", "STATO_RILIEVO": "RILEVATO", "SORGENTE_DATI": null }, "geometry": { "type": "Point", "coordinates": [ 15.493550156183503, 38.080693604951271, 0.0 ] } },
{ "type": "Feature", "properties": { "COD_ID": null, "TIPO": "a colonna", "MATERIALE": null, "PORTATA": null, "MARCA_MODELLO": null, "RUBINETTO": "SI", "SCARICO_FOGNA": "NO", "NOTE": null, "COMUNE": null, "N_CIV": null, "UTENTE_CREAZIONE": null, "DATA_INS": null, "OPERATORE_": null, "DATA_AGG": null, "D_STATO": "Attivo/In esercizio", "IDGIS": null, "PORTING_CLASSE": null, "PORTING_ID": null, "POINT_X": 543562.851, "POINT_Y": 4215332.0054000001, "ANGLE": null, "LINK": null, "VIA_DENOMINAZIONE": null, "GlobalID": "{28DE8F9A-FF6E-4D8B-807E-0A68D2FDAB99}", "STATO_RILIEVO": "RILEVATO", "SORGENTE_DATI": null }, "geometry": { "type": "Point", "coordinates": [ 15.496745681695112, 38.084725168994751, 0.0 ] } },
{ "type": "Feature", "properties": { "COD_ID": null, "TIPO": "a colonna", "MATERIALE": null, "PORTATA": null, "MARCA_MODELLO": null, "RUBINETTO": "SI", "SCARICO_FOGNA": "SI", "NOTE": null, "COMUNE": null, "N_CIV": null, "UTENTE_CREAZIONE": null, "DATA_INS": null, "OPERATORE_": null, "DATA_AGG": null, "D_STATO": "Attivo/In esercizio", "IDGIS": null, "PORTING_CLASSE": null, "PORTING_ID": null, "POINT_X": 544015.93960000016, "POINT_Y": 4216265.4312999994, "ANGLE": null, "LINK": null, "VIA_DENOMINAZIONE": null, "GlobalID": "{0B38A852-4460-4734-A117-ACD08CC9AD7E}", "STATO_RILIEVO": "RILEVATO", "SORGENTE_DATI": null }, "geometry": { "type": "Point", "coordinates": [ 15.501969577764227, 38.093115640774833, 0.0 ] } },
{ "type": "Feature", "properties": { "COD_ID": null, "TIPO": null, "MATERIALE": null, "PORTATA": null, "MARCA_MODELLO": null, "RUBINETTO": null, "SCARICO_FOGNA": null, "NOTE": null, "COMUNE": null, "N_CIV": null, "UTENTE_CREAZIONE": null, "DATA_INS": null, "OPERATORE_": null, "DATA_AGG": null, "D_STATO": "Attivo/In esercizio", "IDGIS": null, "PORTING_CLASSE": null, "PORTING_ID": null, "POINT_X": 545327.91920000035, "POINT_Y": 4235020.6136000007, "ANGLE": null, "LINK": null, "VIA_DENOMINAZIONE": null, "GlobalID": "{0952EB1A-5341-4417-8955-6EA9AC9480BD}", "STATO_RILIEVO": "RILEVATO", "SORGENTE_DATI": null }, "geometry": { "type": "Point", "coordinates": [ 15.518126709645376, 38.262077327739718, 0.0 ] } },
{ "type": "Feature", "properties": { "COD_ID": null, "TIPO": "a colonna", "MATERIALE": null, "PORTATA": null, "MARCA_MODELLO": null, "RUBINETTO": "SI", "SCARICO_FOGNA": "?", "NOTE": null, "COMUNE": null, "N_CIV": null, "UTENTE_CREAZIONE": null, "DATA_INS": null, "OPERATORE_": null, "DATA_AGG": null, "D_STATO": "Attivo/In esercizio", "IDGIS": null, "PORTING_CLASSE": null, "PORTING_ID": null, "POINT_X": 545522.4923, "POINT_Y": 4234919.3364000004, "ANGLE": null, "LINK": null, "VIA_DENOMINAZIONE": null, "GlobalID": "{18C3A0C7-57BF-4559-8520-1125C4ADC554}", "STATO_RILIEVO": "RILEVATO", "SORGENTE_DATI": null }, "geometry": { "type": "Point", "coordinates": [ 15.520344207856233, 38.261154763947879, 0.0 ] } },
{ "type": "Feature", "properties": { "COD_ID": null, "TIPO": "a muro", "MATERIALE": null, "PORTATA": null, "MARCA_MODELLO": null, "RUBINETTO": "SI", "SCARICO_FOGNA": "SI", "NOTE": null, "COMUNE": null, "N_CIV": null, "UTENTE_CREAZIONE": null, "DATA_INS": null, "OPERATORE_": null, "DATA_AGG": null, "D_STATO": "Attivo/In esercizio", "IDGIS": null, "PORTING_CLASSE": null, "PORTING_ID": null, "POINT_X": 545483.44249999989, "POINT_Y": 4234933.4615000002, "ANGLE": null, "LINK": null, "VIA_DENOMINAZIONE": null, "GlobalID": "{8022CBB3-E03E-40F2-ADB2-C132A657FE0F}", "STATO_RILIEVO": "RILEVATO", "SORGENTE_DATI": null }, "geometry": { "type": "Point", "coordinates": [ 15.519898773872812, 38.261284039486135, 0.0 ] } },
{ "type": "Feature", "properties": { "COD_ID": null, "TIPO": "a muro", "MATERIALE": null, "PORTATA": null, "MARCA_MODELLO": null, "RUBINETTO": "NO", "SCARICO_FOGNA": null, "NOTE": null, "COMUNE": null, "N_CIV": null, "UTENTE_CREAZIONE": null, "DATA_INS": null, "OPERATORE_": null, "DATA_AGG": null, "D_STATO": "Attivo/In esercizio", "IDGIS": null, "PORTING_CLASSE": null, "PORTING_ID": null, "POINT_X": 545595.5867999997, "POINT_Y": 4234813.0022, "ANGLE": null, "LINK": null, "VIA_DENOMINAZIONE": null, "GlobalID": "{EE5D8192-D026-4F02-80D6-9EB593587488}", "STATO_RILIEVO": "RILEVATO", "SORGENTE_DATI": null }, "geometry": { "type": "Point", "coordinates": [ 15.521172835367683, 38.260192759110524, 0.0 ] } },
{ "type": "Feature", "properties": { "COD_ID": null, "TIPO": "a colonna", "MATERIALE": null, "PORTATA": null, "MARCA_MODELLO": null, "RUBINETTO": "SI", "SCARICO_FOGNA": "SI", "NOTE": null, "COMUNE": null, "N_CIV": null, "UTENTE_CREAZIONE": null, "DATA_INS": null, "OPERATORE_": null, "DATA_AGG": null, "D_STATO": "Attivo/In esercizio", "IDGIS": null, "PORTING_CLASSE": null, "PORTING_ID": null, "POINT_X": 545589.1585, "POINT_Y": 4234923.8061999995, "ANGLE": null, "LINK": null, "VIA_DENOMINAZIONE": null, "GlobalID": "{CF85A991-084D-4B75-A1D9-4D56F502F9DC}", "STATO_RILIEVO": "RILEVATO", "SORGENTE_DATI": null }, "geometry": { "type": "Point", "coordinates": [ 15.521106493566807, 38.261191664957053, 0.0 ] } },
{ "type": "Feature", "properties": { "COD_ID": null, "TIPO": "a colonna", "MATERIALE": null, "PORTATA": null, "MARCA_MODELLO": null, "RUBINETTO": "SI", "SCARICO_FOGNA": null, "NOTE": null, "COMUNE": null, "N_CIV": null, "UTENTE_CREAZIONE": null, "DATA_INS": null, "OPERATORE_": null, "DATA_AGG": null, "D_STATO": "Attivo/In esercizio", "IDGIS": null, "PORTING_CLASSE": null, "PORTING_ID": null, "POINT_X": 545551.18719999958, "POINT_Y": 4235269.3999000005, "ANGLE": null, "LINK": null, "VIA_DENOMINAZIONE": null, "GlobalID": "{ECF6A2A2-D5DE-423E-9CED-E5A9EC0D7008}", "STATO_RILIEVO": "RILEVATO", "SORGENTE_DATI": null }, "geometry": { "type": "Point", "coordinates": [ 15.520694710859894, 38.264308124396337, 0.0 ] } },
{ "type": "Feature", "properties": { "COD_ID": null, "TIPO": null, "MATERIALE": null, "PORTATA": null, "MARCA_MODELLO": null, "RUBINETTO": "SI", "SCARICO_FOGNA": null, "NOTE": null, "COMUNE": null, "N_CIV": null, "UTENTE_CREAZIONE": null, "DATA_INS": null, "OPERATORE_": null, "DATA_AGG": null, "D_STATO": "Attivo/In esercizio", "IDGIS": null, "PORTING_CLASSE": null, "PORTING_ID": null, "POINT_X": 545790.28359999973, "POINT_Y": 4235133.7928, "ANGLE": null, "LINK": null, "VIA_DENOMINAZIONE": null, "GlobalID": "{D5BCF044-18B8-4EAE-B373-4EE55C3204F6}", "STATO_RILIEVO": "RILEVATO", "SORGENTE_DATI": null }, "geometry": { "type": "Point", "coordinates": [ 15.523418942392047, 38.263073858083544, 0.0 ] } },
{ "type": "Feature", "properties": { "COD_ID": null, "TIPO": "a colonna", "MATERIALE": null, "PORTATA": null, "MARCA_MODELLO": null, "RUBINETTO": "SI", "SCARICO_FOGNA": "?", "NOTE": null, "COMUNE": null, "N_CIV": null, "UTENTE_CREAZIONE": null, "DATA_INS": null, "OPERATORE_": null, "DATA_AGG": null, "D_STATO": "Attivo/In esercizio", "IDGIS": null, "PORTING_CLASSE": null, "PORTING_ID": null, "POINT_X": 545604.04040000029, "POINT_Y": 4234730.6384999994, "ANGLE": null, "LINK": null, "VIA_DENOMINAZIONE": "Via Acquicella", "GlobalID": "{98B626C9-EC67-4CB6-AB18-BA2E9C899968}", "STATO_RILIEVO": "RILEVATO", "SORGENTE_DATI": null }, "geometry": { "type": "Point", "coordinates": [ 15.521264155483788, 38.259450057849079, 0.0 ] } },
{ "type": "Feature", "properties": { "COD_ID": null, "TIPO": null, "MATERIALE": null, "PORTATA": null, "MARCA_MODELLO": null, "RUBINETTO": null, "SCARICO_FOGNA": null, "NOTE": null, "COMUNE": null, "N_CIV": null, "UTENTE_CREAZIONE": null, "DATA_INS": null, "OPERATORE_": null, "DATA_AGG": null, "D_STATO": "Attivo/In esercizio", "IDGIS": null, "PORTING_CLASSE": null, "PORTING_ID": null, "POINT_X": 542896.8761, "POINT_Y": 4219898.4200999998, "ANGLE": null, "LINK": null, "VIA_DENOMINAZIONE": null, "GlobalID": "{2B038A2A-C232-4BE0-B244-93B03B02A987}", "STATO_RILIEVO": null, "SORGENTE_DATI": null }, "geometry": { "type": "Point", "coordinates": [ 15.489426333523909, 38.125911417903772, 233.0 ] } },
{ "type": "Feature", "properties": { "COD_ID": null, "TIPO": null, "MATERIALE": null, "PORTATA": null, "MARCA_MODELLO": null, "RUBINETTO": null, "SCARICO_FOGNA": null, "NOTE": null, "COMUNE": null, "N_CIV": null, "UTENTE_CREAZIONE": null, "DATA_INS": null, "OPERATORE_": null, "DATA_AGG": null, "D_STATO": "Attivo/In esercizio", "IDGIS": null, "PORTING_CLASSE": null, "PORTING_ID": null, "POINT_X": 543922.8607000001, "POINT_Y": 4216792.3564, "ANGLE": null, "LINK": null, "VIA_DENOMINAZIONE": null, "GlobalID": "{B6B7604C-4D72-4647-940C-F7A4D57CF596}", "STATO_RILIEVO": null, "SORGENTE_DATI": null }, "geometry": { "type": "Point", "coordinates": [ 15.500940533219959, 38.097869034186992, 65.30000000000291 ] } },
{ "type": "Feature", "properties": { "COD_ID": null, "TIPO": "a muro", "MATERIALE": null, "PORTATA": null, "MARCA_MODELLO": null, "RUBINETTO": "NO", "SCARICO_FOGNA": "?", "NOTE": null, "COMUNE": null, "N_CIV": null, "UTENTE_CREAZIONE": null, "DATA_INS": null, "OPERATORE_": null, "DATA_AGG": null, "D_STATO": "Attivo/In esercizio", "IDGIS": null, "PORTING_CLASSE": null, "PORTING_ID": null, "POINT_X": 549723.45820000023, "POINT_Y": 4234834.2028000001, "ANGLE": null, "LINK": null, "VIA_DENOMINAZIONE": null, "GlobalID": "{FE14CC4D-A54D-4892-9D84-453C316D0A45}", "STATO_RILIEVO": "RILEVATO", "SORGENTE_DATI": null }, "geometry": { "type": "Point", "coordinates": [ 15.56835522120571, 38.260164790067549, 0.0 ] } },
{ "type": "Feature", "properties": { "COD_ID": null, "TIPO": "a muro", "MATERIALE": null, "PORTATA": null, "MARCA_MODELLO": null, "RUBINETTO": "SI", "SCARICO_FOGNA": "?", "NOTE": null, "COMUNE": null, "N_CIV": null, "UTENTE_CREAZIONE": null, "DATA_INS": null, "OPERATORE_": null, "DATA_AGG": null, "D_STATO": "Attivo/In esercizio", "IDGIS": null, "PORTING_CLASSE": null, "PORTING_ID": null, "POINT_X": 549435.74990000017, "POINT_Y": 4234221.9145, "ANGLE": null, "LINK": null, "VIA_DENOMINAZIONE": null, "GlobalID": "{05B67666-A2BB-471F-A135-CE4CFBD60395}", "STATO_RILIEVO": "RILEVATO", "SORGENTE_DATI": null }, "geometry": { "type": "Point", "coordinates": [ 15.565024035642063, 38.254662689470315, 0.0 ] } },
{ "type": "Feature", "properties": { "COD_ID": null, "TIPO": "a colonna", "MATERIALE": null, "PORTATA": null, "MARCA_MODELLO": null, "RUBINETTO": "SI", "SCARICO_FOGNA": "?", "NOTE": null, "COMUNE": null, "N_CIV": null, "UTENTE_CREAZIONE": null, "DATA_INS": null, "OPERATORE_": null, "DATA_AGG": null, "D_STATO": "Attivo/In esercizio", "IDGIS": null, "PORTING_CLASSE": null, "PORTING_ID": null, "POINT_X": 551128.56919999979, "POINT_Y": 4235315.5618999992, "ANGLE": null, "LINK": null, "VIA_DENOMINAZIONE": null, "GlobalID": "{60E2B760-A0EE-44E2-904A-A55C7D39211A}", "STATO_RILIEVO": "RILEVATO", "SORGENTE_DATI": null }, "geometry": { "type": "Point", "coordinates": [ 15.584450088609666, 38.264423926411119, 0.0 ] } },
{ "type": "Feature", "properties": { "COD_ID": null, "TIPO": "a colonna", "MATERIALE": null, "PORTATA": null, "MARCA_MODELLO": null, "RUBINETTO": "SI", "SCARICO_FOGNA": "SI", "NOTE": null, "COMUNE": null, "N_CIV": null, "UTENTE_CREAZIONE": null, "DATA_INS": null, "OPERATORE_": null, "DATA_AGG": null, "D_STATO": "Attivo/In esercizio", "IDGIS": null, "PORTING_CLASSE": null, "PORTING_ID": null, "POINT_X": 551140.5373999998, "POINT_Y": 4235129.9542999994, "ANGLE": null, "LINK": null, "VIA_DENOMINAZIONE": null, "GlobalID": "{4ABE8F56-6946-43DA-AD32-1CABDACA544E}", "STATO_RILIEVO": "RILEVATO", "SORGENTE_DATI": null }, "geometry": { "type": "Point", "coordinates": [ 15.584573485058165, 38.262750544740108, 0.0 ] } },
{ "type": "Feature", "properties": { "COD_ID": null, "TIPO": "a muro", "MATERIALE": null, "PORTATA": null, "MARCA_MODELLO": null, "RUBINETTO": "SI", "SCARICO_FOGNA": "?", "NOTE": null, "COMUNE": null, "N_CIV": null, "UTENTE_CREAZIONE": null, "DATA_INS": null, "OPERATORE_": null, "DATA_AGG": null, "D_STATO": "Attivo/In esercizio", "IDGIS": null, "PORTING_CLASSE": null, "PORTING_ID": null, "POINT_X": 551117.58970000036, "POINT_Y": 4234809.6416999996, "ANGLE": null, "LINK": null, "VIA_DENOMINAZIONE": null, "GlobalID": "{CEE7D0EE-2529-4442-BF37-F543639A0E34}", "STATO_RILIEVO": "RILEVATO", "SORGENTE_DATI": null }, "geometry": { "type": "Point", "coordinates": [ 15.584288067510714, 38.259865184908115, 200.475000000005821 ] } },
{ "type": "Feature", "properties": { "COD_ID": null, "TIPO": "a muro", "MATERIALE": null, "PORTATA": null, "MARCA_MODELLO": null, "RUBINETTO": "SI", "SCARICO_FOGNA": "SI", "NOTE": null, "COMUNE": null, "N_CIV": null, "UTENTE_CREAZIONE": null, "DATA_INS": null, "OPERATORE_": null, "DATA_AGG": null, "D_STATO": "Attivo/In esercizio", "IDGIS": null, "PORTING_CLASSE": null, "PORTING_ID": null, "POINT_X": 550904.07720000017, "POINT_Y": 4235285.9789000005, "ANGLE": null, "LINK": null, "VIA_DENOMINAZIONE": null, "GlobalID": "{639F65CF-5054-4D25-8DB9-BEF667E400C3}", "STATO_RILIEVO": "RILEVATO", "SORGENTE_DATI": null }, "geometry": { "type": "Point", "coordinates": [ 15.58188191888649, 38.264170076353473, 0.0 ] } },
{ "type": "Feature", "properties": { "COD_ID": null, "TIPO": "a muro", "MATERIALE": null, "PORTATA": null, "MARCA_MODELLO": null, "RUBINETTO": "SI", "SCARICO_FOGNA": "SI", "NOTE": null, "COMUNE": null, "N_CIV": null, "UTENTE_CREAZIONE": null, "DATA_INS": null, "OPERATORE_": null, "DATA_AGG": null, "D_STATO": "Attivo/In esercizio", "IDGIS": null, "PORTING_CLASSE": null, "PORTING_ID": null, "POINT_X": 550864.1941, "POINT_Y": 4235289.2864999995, "ANGLE": null, "LINK": null, "VIA_DENOMINAZIONE": null, "GlobalID": "{BAC3832A-2D7B-42D5-8D9F-64D050420A52}", "STATO_RILIEVO": "RILEVATO", "SORGENTE_DATI": null }, "geometry": { "type": "Point", "coordinates": [ 15.58142627650181, 38.264202144293883, 185.11359999999695 ] } },
{ "type": "Feature", "properties": { "COD_ID": null, "TIPO": "a colonna", "MATERIALE": null, "PORTATA": null, "MARCA_MODELLO": null, "RUBINETTO": "NO", "SCARICO_FOGNA": "?", "NOTE": null, "COMUNE": null, "N_CIV": null, "UTENTE_CREAZIONE": null, "DATA_INS": null, "OPERATORE_": null, "DATA_AGG": null, "D_STATO": "Attivo/In esercizio", "IDGIS": null, "PORTING_CLASSE": null, "PORTING_ID": null, "POINT_X": 551047.0395, "POINT_Y": 4236238.9686999992, "ANGLE": null, "LINK": null, "VIA_DENOMINAZIONE": null, "GlobalID": "{F67C5676-119A-4189-A7E1-379F70A88F05}", "STATO_RILIEVO": "RILEVATO", "SORGENTE_DATI": null }, "geometry": { "type": "Point", "coordinates": [ 15.583584754979888, 38.272750323377664, 0.0 ] } },
{ "type": "Feature", "properties": { "COD_ID": null, "TIPO": "a colonna", "MATERIALE": null, "PORTATA": null, "MARCA_MODELLO": null, "RUBINETTO": "SI", "SCARICO_FOGNA": "SI", "NOTE": null, "COMUNE": null, "N_CIV": null, "UTENTE_CREAZIONE": null, "DATA_INS": null, "OPERATORE_": null, "DATA_AGG": null, "D_STATO": "Attivo/In esercizio", "IDGIS": null, "PORTING_CLASSE": null, "PORTING_ID": null, "POINT_X": 552185.96250000037, "POINT_Y": 4235568.9855000004, "ANGLE": null, "LINK": null, "VIA_DENOMINAZIONE": null, "GlobalID": "{AD29AB16-8B9C-47FC-A188-6C7FF65528BD}", "STATO_RILIEVO": "RILEVATO", "SORGENTE_DATI": null }, "geometry": { "type": "Point", "coordinates": [ 15.596555219265046, 38.266646958330391, 0.0 ] } },
{ "type": "Feature", "properties": { "COD_ID": null, "TIPO": null, "MATERIALE": null, "PORTATA": null, "MARCA_MODELLO": null, "RUBINETTO": null, "SCARICO_FOGNA": null, "NOTE": null, "COMUNE": null, "N_CIV": null, "UTENTE_CREAZIONE": null, "DATA_INS": null, "OPERATORE_": null, "DATA_AGG": null, "D_STATO": "Attivo/In esercizio", "IDGIS": null, "PORTING_CLASSE": null, "PORTING_ID": null, "POINT_X": 552245.5231999997, "POINT_Y": 4235811.9467999991, "ANGLE": null, "LINK": null, "VIA_DENOMINAZIONE": null, "GlobalID": "{E25D4FC2-DD8F-4FF4-9E21-CF8E13E5D8B7}", "STATO_RILIEVO": "RILEVATO", "SORGENTE_DATI": null }, "geometry": { "type": "Point", "coordinates": [ 15.597253973882733, 38.268833061639327, 0.0 ] } },
{ "type": "Feature", "properties": { "COD_ID": null, "TIPO": null, "MATERIALE": null, "PORTATA": null, "MARCA_MODELLO": null, "RUBINETTO": null, "SCARICO_FOGNA": null, "NOTE": null, "COMUNE": null, "N_CIV": null, "UTENTE_CREAZIONE": null, "DATA_INS": null, "OPERATORE_": null, "DATA_AGG": null, "D_STATO": "Attivo/In esercizio", "IDGIS": null, "PORTING_CLASSE": null, "PORTING_ID": null, "POINT_X": 552516.9337, "POINT_Y": 4235371.4233999997, "ANGLE": null, "LINK": null, "VIA_DENOMINAZIONE": null, "GlobalID": "{62729F65-9BD9-45D2-87EF-877ACBA4A422}", "STATO_RILIEVO": "RILEVATO", "SORGENTE_DATI": null }, "geometry": { "type": "Point", "coordinates": [ 15.600323816308526, 38.264847234516964, 129.975000000005821 ] } },
{ "type": "Feature", "properties": { "COD_ID": null, "TIPO": "a colonna", "MATERIALE": null, "PORTATA": null, "MARCA_MODELLO": null, "RUBINETTO": "SI", "SCARICO_FOGNA": "SI", "NOTE": null, "COMUNE": null, "N_CIV": null, "UTENTE_CREAZIONE": null, "DATA_INS": null, "OPERATORE_": null, "DATA_AGG": null, "D_STATO": "Attivo/In esercizio", "IDGIS": null, "PORTING_CLASSE": null, "PORTING_ID": null, "POINT_X": 544509.5393000003, "POINT_Y": 4217570.2951999996, "ANGLE": null, "LINK": null, "VIA_DENOMINAZIONE": null, "GlobalID": "{88FE2EC0-2ADC-4264-9FD6-D298C2E3819A}", "STATO_RILIEVO": "RILEVATO", "SORGENTE_DATI": null }, "geometry": { "type": "Point", "coordinates": [ 15.507679875720727, 38.104851407644752, 0.0 ] } },
{ "type": "Feature", "properties": { "COD_ID": null, "TIPO": null, "MATERIALE": null, "PORTATA": null, "MARCA_MODELLO": null, "RUBINETTO": null, "SCARICO_FOGNA": null, "NOTE": null, "COMUNE": null, "N_CIV": null, "UTENTE_CREAZIONE": null, "DATA_INS": null, "OPERATORE_": null, "DATA_AGG": null, "D_STATO": "Attivo/In esercizio", "IDGIS": null, "PORTING_CLASSE": null, "PORTING_ID": null, "POINT_X": 544859.58519999962, "POINT_Y": 4218400.7795000002, "ANGLE": null, "LINK": null, "VIA_DENOMINAZIONE": null, "GlobalID": "{FE3F6699-94A9-4A92-9425-84D8F7154DE4}", "STATO_RILIEVO": "RILEVATO", "SORGENTE_DATI": null }, "geometry": { "type": "Point", "coordinates": [ 15.511724597061908, 38.112318723535807, 0.0 ] } },
{ "type": "Feature", "properties": { "COD_ID": null, "TIPO": "a colonna", "MATERIALE": null, "PORTATA": null, "MARCA_MODELLO": null, "RUBINETTO": "SI", "SCARICO_FOGNA": "?", "NOTE": null, "COMUNE": null, "N_CIV": null, "UTENTE_CREAZIONE": null, "DATA_INS": null, "OPERATORE_": null, "DATA_AGG": null, "D_STATO": "Attivo/In esercizio", "IDGIS": null, "PORTING_CLASSE": null, "PORTING_ID": null, "POINT_X": 545227.5569000002, "POINT_Y": 4219038.5217000004, "ANGLE": null, "LINK": null, "VIA_DENOMINAZIONE": null, "GlobalID": "{A93E7A1F-BF42-46BD-8429-D5F39209601A}", "STATO_RILIEVO": "RILEVATO", "SORGENTE_DATI": null }, "geometry": { "type": "Point", "coordinates": [ 15.515962423242147, 38.118047927431576, 0.0 ] } },
{ "type": "Feature", "properties": { "COD_ID": null, "TIPO": "a muro", "MATERIALE": null, "PORTATA": null, "MARCA_MODELLO": null, "RUBINETTO": "SI", "SCARICO_FOGNA": "?", "NOTE": null, "COMUNE": null, "N_CIV": null, "UTENTE_CREAZIONE": null, "DATA_INS": null, "OPERATORE_": null, "DATA_AGG": null, "D_STATO": "Attivo/In esercizio", "IDGIS": null, "PORTING_CLASSE": null, "PORTING_ID": null, "POINT_X": 546025.7884, "POINT_Y": 4221311.051000001, "ANGLE": null, "LINK": null, "VIA_DENOMINAZIONE": null, "GlobalID": "{6F9196C8-6090-4A7B-8B0F-120EFB08A0D9}", "STATO_RILIEVO": "RILEVATO", "SORGENTE_DATI": null }, "geometry": { "type": "Point", "coordinates": [ 15.525215141976442, 38.138488352936619, 0.0 ] } },
{ "type": "Feature", "properties": { "COD_ID": null, "TIPO": "a colonna", "MATERIALE": null, "PORTATA": null, "MARCA_MODELLO": null, "RUBINETTO": "SI", "SCARICO_FOGNA": "?", "NOTE": null, "COMUNE": null, "N_CIV": null, "UTENTE_CREAZIONE": null, "DATA_INS": null, "OPERATORE_": null, "DATA_AGG": null, "D_STATO": "Attivo/In esercizio", "IDGIS": null, "PORTING_CLASSE": null, "PORTING_ID": null, "POINT_X": 546095.25669999979, "POINT_Y": 4221519.3783, "ANGLE": null, "LINK": null, "VIA_DENOMINAZIONE": null, "GlobalID": "{95FE9B50-AAC9-4A9E-AE82-C4698DC4030F}", "STATO_RILIEVO": "RILEVATO", "SORGENTE_DATI": null }, "geometry": { "type": "Point", "coordinates": [ 15.526021315140616, 38.140362315116271, 0.0 ] } },
{ "type": "Feature", "properties": { "COD_ID": null, "TIPO": null, "MATERIALE": null, "PORTATA": null, "MARCA_MODELLO": null, "RUBINETTO": "SI", "SCARICO_FOGNA": "SI", "NOTE": null, "COMUNE": null, "N_CIV": null, "UTENTE_CREAZIONE": null, "DATA_INS": null, "OPERATORE_": null, "DATA_AGG": null, "D_STATO": "Attivo/In esercizio", "IDGIS": null, "PORTING_CLASSE": null, "PORTING_ID": null, "POINT_X": 543754.07309999969, "POINT_Y": 4221548.8309000004, "ANGLE": null, "LINK": null, "VIA_DENOMINAZIONE": null, "GlobalID": "{961B4DC7-446F-4026-8E36-2491BA0449F7}", "STATO_RILIEVO": "RILEVATO", "SORGENTE_DATI": null }, "geometry": { "type": "Point", "coordinates": [ 15.499307399604055, 38.140744350895702, 209.061000000001513 ] } },
{ "type": "Feature", "properties": { "COD_ID": null, "TIPO": "a muro", "MATERIALE": null, "PORTATA": null, "MARCA_MODELLO": null, "RUBINETTO": "SI", "SCARICO_FOGNA": null, "NOTE": null, "COMUNE": null, "N_CIV": null, "UTENTE_CREAZIONE": null, "DATA_INS": null, "OPERATORE_": null, "DATA_AGG": null, "D_STATO": "Attivo/In esercizio", "IDGIS": null, "PORTING_CLASSE": null, "PORTING_ID": null, "POINT_X": 545249.145, "POINT_Y": 4221645.8124000002, "ANGLE": null, "LINK": null, "VIA_DENOMINAZIONE": null, "GlobalID": "{B23064F5-CDE5-4E93-9110-E0DA788ABA38}", "STATO_RILIEVO": "RILEVATO", "SORGENTE_DATI": null }, "geometry": { "type": "Point", "coordinates": [ 15.516374210223704, 38.141544619582916, 0.0 ] } },
{ "type": "Feature", "properties": { "COD_ID": null, "TIPO": "a muro", "MATERIALE": null, "PORTATA": null, "MARCA_MODELLO": null, "RUBINETTO": "SI", "SCARICO_FOGNA": "?", "NOTE": null, "COMUNE": null, "N_CIV": null, "UTENTE_CREAZIONE": null, "DATA_INS": null, "OPERATORE_": null, "DATA_AGG": null, "D_STATO": "Attivo/In esercizio", "IDGIS": null, "PORTING_CLASSE": null, "PORTING_ID": null, "POINT_X": 542897.3657, "POINT_Y": 4219905.2747000009, "ANGLE": null, "LINK": null, "VIA_DENOMINAZIONE": null, "GlobalID": "{7EF44978-C3B2-476E-9A7E-B7231576BE77}", "STATO_RILIEVO": "RILEVATO", "SORGENTE_DATI": null }, "geometry": { "type": "Point", "coordinates": [ 15.489432331813108, 38.125973170870893, 0.0 ] } },
{ "type": "Feature", "properties": { "COD_ID": null, "TIPO": null, "MATERIALE": null, "PORTATA": null, "MARCA_MODELLO": null, "RUBINETTO": null, "SCARICO_FOGNA": null, "NOTE": null, "COMUNE": null, "N_CIV": null, "UTENTE_CREAZIONE": null, "DATA_INS": null, "OPERATORE_": null, "DATA_AGG": null, "D_STATO": "Attivo/In esercizio", "IDGIS": null, "PORTING_CLASSE": null, "PORTING_ID": null, "POINT_X": 542780.72630000021, "POINT_Y": 4220018.887, "ANGLE": null, "LINK": null, "VIA_DENOMINAZIONE": "Via Fontana incrocio via Roccarelli", "GlobalID": "{62606040-4C86-433E-B0B7-4D61D4D4DAF6}", "STATO_RILIEVO": "RILEVATO", "SORGENTE_DATI": null }, "geometry": { "type": "Point", "coordinates": [ 15.488108411011005, 38.127002624347504, 0.0 ] } },
{ "type": "Feature", "properties": { "COD_ID": null, "TIPO": null, "MATERIALE": null, "PORTATA": null, "MARCA_MODELLO": null, "RUBINETTO": null, "SCARICO_FOGNA": null, "NOTE": null, "COMUNE": null, "N_CIV": null, "UTENTE_CREAZIONE": null, "DATA_INS": null, "OPERATORE_": null, "DATA_AGG": null, "D_STATO": "Attivo/In esercizio", "IDGIS": null, "PORTING_CLASSE": null, "PORTING_ID": null, "POINT_X": 542988.79949999973, "POINT_Y": 4219754.4745000005, "ANGLE": null, "LINK": null, "VIA_DENOMINAZIONE": null, "GlobalID": "{0FD0AD79-29DA-4C2A-81E6-3A03302ED6D0}", "STATO_RILIEVO": "RILEVATO", "SORGENTE_DATI": null }, "geometry": { "type": "Point", "coordinates": [ 15.490466406650272, 38.124609752084133, 220.533999999999651 ] } }
]
}
