{
"type": "FeatureCollection",
"name": "IDRANTE",
"crs": { "type": "name", "properties": { "name": "urn:ogc:def:crs:OGC:1.3:CRS84" } },
"features": [
{ "type": "Feature", "properties": { "COD_CESPITI": null, "TIPO": null, "MARCA_MODELLO": null, "CLASSE_DN": null, "CLASSE_PN": null, "PORTATA": null, "N_SBOCCHI": null, "NOTE": null, "STATO_CONSERVAZIONE": null, "STATO_FUNZIONALITA": null, "COMUNE": "Messina", "VIA_LOCALITA": null, "N_CIV": null, "UTENTE_CREAZIONE": null, "DATA_INS": null, "OPERATORE": null, "DATA_AGG": null, "D_STATO": "Attivo/In esercizio", "IDGIS": null, "PORTING_CLASSE": null, "PORTING_ID": 1203, "POINT_X": 545386.172, "POINT_Y": 4228817.122, "ANGLE": null, "LINK": null, "VIA_DENOMINAZIONE": null, "GlobalID": "{D9DB1C06-2764-4981-83A1-8C8F2DD69485}", "SORGENTE_DATI": "RILEVATA" }, "geometry": { "type": "Point", "coordinates": [ 15.518395501505998, 38.206167465468944, 0.0 ] } },
{ "type": "Feature", "properties": { "COD_CESPITI": null, "TIPO": "sottosuolo", "MARCA_MODELLO": null, "CLASSE_DN": null, "CLASSE_PN": null, "PORTATA": null, "N_SBOCCHI": null, "NOTE": "Battuto con numero “10000” per mancanza generazione ID app", "STATO_CONSERVAZIONE": null, "STATO_FUNZIONALITA": null, "COMUNE": "Messina", "VIA_LOCALITA": null, "N_CIV": null, "UTENTE_CREAZIONE": null, "DATA_INS": null, "OPERATORE": null, "DATA_AGG": null, "D_STATO": "Attivo/In esercizio", "IDGIS": null, "PORTING_CLASSE": null, "PORTING_ID": 1603, "POINT_X": 544603.54409999959, "POINT_Y": 4219308.2652000003, "ANGLE": null, "LINK": null, "VIA_DENOMINAZIONE": null, "GlobalID": "{E0DA8F14-639B-40B1-8930-7F71D3F26217}", "SORGENTE_DATI": "RILEVATA" }, "geometry": { "type": "Point", "coordinates": [ 15.508860727714662, 38.120509999927592, 0.0 ] } },
{ "type": "Feature", "properties": { "COD_CESPITI": null, "TIPO": null, "MARCA_MODELLO": null, "CLASSE_DN": null, "CLASSE_PN": null, "PORTATA": null, "N_SBOCCHI": null, "NOTE": "Battuto con numero “10001” per mancanza generazione ID app", "STATO_CONSERVAZIONE": null, "STATO_FUNZIONALITA": null, "COMUNE": "Messina", "VIA_LOCALITA": null, "N_CIV": null, "UTENTE_CREAZIONE": null, "DATA_INS": null, "OPERATORE": null, "DATA_AGG": null, "D_STATO": "Attivo/In esercizio", "IDGIS": null, "PORTING_CLASSE": null, "PORTING_ID": 1604, "POINT_X": 544508.858, "POINT_Y": 4219371.0654000007, "ANGLE": null, "LINK": null, "VIA_DENOMINAZIONE": null, "GlobalID": "{D48B33CD-B3A0-4338-B259-4AE98C16C24F}", "SORGENTE_DATI": "RILEVATA" }, "geometry": { "type": "Point", "coordinates": [ 15.507784457695116, 38.121080651601936, 0.0 ] } },
{ "type": "Feature", "properties": { "COD_CESPITI": null, "TIPO": "sottosuolo", "MARCA_MODELLO": null, "CLASSE_DN": null, "CLASSE_PN": null, "PORTATA": null, "N_SBOCCHI": null, "NOTE": "Gps imp ", "STATO_CONSERVAZIONE": null, "STATO_FUNZIONALITA": null, "COMUNE": "Messina", "VIA_LOCALITA": null, "N_CIV": null, "UTENTE_CREAZIONE": null, "DATA_INS": null, "OPERATORE": null, "DATA_AGG": null, "D_STATO": "Attivo/In esercizio", "IDGIS": null, "PORTING_CLASSE": null, "PORTING_ID": 1605, "POINT_X": 544488.33910000045, "POINT_Y": 4219455.5516, "ANGLE": null, "LINK": null, "VIA_DENOMINAZIONE": "Località Mili S. Marco", "GlobalID": "{BA44BDEF-92FF-4299-823B-FC7C6864A175}", "SORGENTE_DATI": "RILEVATA" }, "geometry": { "type": "Point", "coordinates": [ 15.50755564492772, 38.121843083077032, 0.0 ] } },
{ "type": "Feature", "properties": { "COD_CESPITI": null, "TIPO": null, "MARCA_MODELLO": null, "CLASSE_DN": null, "CLASSE_PN": null, "PORTATA": null, "N_SBOCCHI": null, "NOTE": null, "STATO_CONSERVAZIONE": null, "STATO_FUNZIONALITA": null, "COMUNE": "Messina", "VIA_LOCALITA": null, "N_CIV": null, "UTENTE_CREAZIONE": null, "DATA_INS": null, "OPERATORE": null, "DATA_AGG": null, "D_STATO": "Attivo/In esercizio", "IDGIS": null, "PORTING_CLASSE": null, "PORTING_ID": 2003, "POINT_X": 542626.01489999983, "POINT_Y": 4217419.6418999992, "ANGLE": null, "LINK": null, "VIA_DENOMINAZIONE": null, "GlobalID": "{FCC01602-3C04-4A0B-B983-D44EBB35DD44}", "SORGENTE_DATI": "RILEVATA" }, "geometry": { "type": "Point", "coordinates": [ 15.486187955303182, 38.10358451505833, 0.0 ] } },
{ "type": "Feature", "properties": { "COD_CESPITI": null, "TIPO": null, "MARCA_MODELLO": null, "CLASSE_DN": null, "CLASSE_PN": null, "PORTATA": null, "N_SBOCCHI": null, "NOTE": null, "STATO_CONSERVAZIONE": null, "STATO_FUNZIONALITA": null, "COMUNE": "Messina", "VIA_LOCALITA": null, "N_CIV": null, "UTENTE_CREAZIONE": null, "DATA_INS": null, "OPERATORE": null, "DATA_AGG": null, "D_STATO": "Attivo/In esercizio", "IDGIS": null, "PORTING_CLASSE": null, "PORTING_ID": 2403, "POINT_X": 552210.6354, "POINT_Y": 4235831.325, "ANGLE": null, "LINK": null, "VIA_DENOMINAZIONE": null, "GlobalID": "{7172F8FE-D901-49E9-BB46-36D99982D8B2}", "SORGENTE_DATI": "RILEVATA" }, "geometry": { "type": "Point", "coordinates": [ 15.596856597040791, 38.269009727172133, 0.0 ] } },
{ "type": "Feature", "properties": { "COD_CESPITI": null, "TIPO": null, "MARCA_MODELLO": null, "CLASSE_DN": null, "CLASSE_PN": null, "PORTATA": null, "N_SBOCCHI": null, "NOTE": null, "STATO_CONSERVAZIONE": null, "STATO_FUNZIONALITA": null, "COMUNE": "Messina", "VIA_LOCALITA": null, "N_CIV": null, "UTENTE_CREAZIONE": null, "DATA_INS": null, "OPERATORE": null, "DATA_AGG": null, "D_STATO": "Attivo/In esercizio", "IDGIS": null, "PORTING_CLASSE": null, "PORTING_ID": 2404, "POINT_X": 552247.23290000018, "POINT_Y": 4235821.2103000004, "ANGLE": null, "LINK": null, "VIA_DENOMINAZIONE": null, "GlobalID": "{E7C9EDD4-15BA-4972-85C4-D2FE755B2CCB}", "SORGENTE_DATI": "RILEVATA" }, "geometry": { "type": "Point", "coordinates": [ 15.597274201344645, 38.268916444780018, 0.0 ] } },
{ "type": "Feature", "properties": { "COD_CESPITI": null, "TIPO": null, "MARCA_MODELLO": null, "CLASSE_DN": null, "CLASSE_PN": null, "PORTATA": null, "N_SBOCCHI": null, "NOTE": null, "STATO_CONSERVAZIONE": null, "STATO_FUNZIONALITA": null, "COMUNE": "Messina", "VIA_LOCALITA": null, "N_CIV": null, "UTENTE_CREAZIONE": null, "DATA_INS": null, "OPERATORE": null, "DATA_AGG": null, "D_STATO": "Attivo/In esercizio", "IDGIS": null, "PORTING_CLASSE": null, "PORTING_ID": 2405, "POINT_X": 552252.54910000041, "POINT_Y": 4235842.2826000005, "ANGLE": null, "LINK": null, "VIA_DENOMINAZIONE": null, "GlobalID": "{988ABB95-9189-4EA2-8A99-BD1D0D85D315}", "SORGENTE_DATI": "RILEVATA" }, "geometry": { "type": "Point", "coordinates": [ 15.597336526882419, 38.269106038898421, 0.0 ] } },
{ "type": "Feature", "properties": { "COD_CESPITI": null, "TIPO": null, "MARCA_MODELLO": null, "CLASSE_DN": null, "CLASSE_PN": null, "PORTATA": null, "N_SBOCCHI": null, "NOTE": null, "STATO_CONSERVAZIONE": null, "STATO_FUNZIONALITA": null, "COMUNE": "Messina", "VIA_LOCALITA": null, "N_CIV": null, "UTENTE_CREAZIONE": null, "DATA_INS": null, "OPERATORE": null, "DATA_AGG": null, "D_STATO": "Attivo/In esercizio", "IDGIS": null, "PORTING_CLASSE": null, "PORTING_ID": 2406, "POINT_X": 552282.36720000021, "POINT_Y": 4235853.0750999991, "ANGLE": null, "LINK": null, "VIA_DENOMINAZIONE": null, "GlobalID": "{3D48D196-5757-4995-83C5-EB202F011DF1}", "SORGENTE_DATI": "RILEVATA" }, "geometry": { "type": "Point", "coordinates": [ 15.597678179028767, 38.269201565138516, 0.0 ] } },
{ "type": "Feature", "properties": { "COD_CESPITI": null, "TIPO": null, "MARCA_MODELLO": null, "CLASSE_DN": null, "CLASSE_PN": null, "PORTATA": null, "N_SBOCCHI": null, "NOTE": null, "STATO_CONSERVAZIONE": null, "STATO_FUNZIONALITA": null, "COMUNE": "Messina", "VIA_LOCALITA": null, "N_CIV": null, "UTENTE_CREAZIONE": null, "DATA_INS": null, "OPERATORE": null, "DATA_AGG": null, "D_STATO": "Attivo/In esercizio", "IDGIS": null, "PORTING_CLASSE": null, "PORTING_ID": 2407, "POINT_X": 552203.06969999988, "POINT_Y": 4235933.7704000007, "ANGLE": null, "LINK": null, "VIA_DENOMINAZIONE": null, "GlobalID": "{5288FD72-D165-4176-AA6C-971B40C2AF47}", "SORGENTE_DATI": "RILEVATA" }, "geometry": { "type": "Point", "coordinates": [ 15.596777667466608, 38.269933404542194, 0.0 ] } },
{ "type": "Feature", "properties": { "COD_CESPITI": null, "TIPO": null, "MARCA_MODELLO": null, "CLASSE_DN": null, "CLASSE_PN": null, "PORTATA": null, "N_SBOCCHI": null, "NOTE": null, "STATO_CONSERVAZIONE": null, "STATO_FUNZIONALITA": null, "COMUNE": "Messina", "VIA_LOCALITA": null, "N_CIV": null, "UTENTE_CREAZIONE": null, "DATA_INS": null, "OPERATORE": null, "DATA_AGG": null, "D_STATO": "Attivo/In esercizio", "IDGIS": null, "PORTING_CLASSE": null, "PORTING_ID": 2408, "POINT_X": 552173.98809999973, "POINT_Y": 4235905.604, "ANGLE": null, "LINK": null, "VIA_DENOMINAZIONE": null, "GlobalID": "{8D584314-C993-4C4F-9B9E-AA39B5292FE0}", "SORGENTE_DATI": "RILEVATA" }, "geometry": { "type": "Point", "coordinates": [ 15.596443151588057, 38.26968125940428, 0.0 ] } },
{ "type": "Feature", "properties": { "COD_CESPITI": null, "TIPO": null, "MARCA_MODELLO": null, "CLASSE_DN": null, "CLASSE_PN": null, "PORTATA": null, "N_SBOCCHI": null, "NOTE": null, "STATO_CONSERVAZIONE": null, "STATO_FUNZIONALITA": null, "COMUNE": "Messina", "VIA_LOCALITA": null, "N_CIV": null, "UTENTE_CREAZIONE": null, "DATA_INS": null, "OPERATORE": null, "DATA_AGG": null, "D_STATO": "Attivo/In esercizio", "IDGIS": null, "PORTING_CLASSE": null, "PORTING_ID": 2803, "POINT_X": 545762.45359999966, "POINT_Y": 4221072.5413000006, "ANGLE": null, "LINK": null, "VIA_DENOMINAZIONE": null, "GlobalID": "{284FB9B2-522C-488C-A27A-36475D552E73}", "SORGENTE_DATI": "RILEVATA" }, "geometry": { "type": "Point", "coordinates": [ 15.522194940362155, 38.136352225788066, 0.0 ] } },
{ "type": "Feature", "properties": { "COD_CESPITI": null, "TIPO": "sottosuolo", "MARCA_MODELLO": null, "CLASSE_DN": null, "CLASSE_PN": null, "PORTATA": null, "N_SBOCCHI": null, "NOTE": null, "STATO_CONSERVAZIONE": null, "STATO_FUNZIONALITA": null, "COMUNE": "Messina", "VIA_LOCALITA": null, "N_CIV": null, "UTENTE_CREAZIONE": null, "DATA_INS": null, "OPERATORE": null, "DATA_AGG": null, "D_STATO": "Attivo/In esercizio", "IDGIS": null, "PORTING_CLASSE": null, "PORTING_ID": 2805, "POINT_X": 547650.44979999959, "POINT_Y": 4224108.1556000002, "ANGLE": null, "LINK": null, "VIA_DENOMINAZIONE": "Via Acireale", "GlobalID": "{B0593FB8-412B-4FDD-A8B4-300E9B036E4D}", "SORGENTE_DATI": "NORMALIZZATA" }, "geometry": { "type": "Point", "coordinates": [ 15.543941106149427, 38.163612235465102, 0.0 ] } },
{ "type": "Feature", "properties": { "COD_CESPITI": null, "TIPO": null, "MARCA_MODELLO": null, "CLASSE_DN": null, "CLASSE_PN": null, "PORTATA": null, "N_SBOCCHI": null, "NOTE": null, "STATO_CONSERVAZIONE": null, "STATO_FUNZIONALITA": null, "COMUNE": "Messina", "VIA_LOCALITA": null, "N_CIV": null, "UTENTE_CREAZIONE": null, "DATA_INS": null, "OPERATORE": null, "DATA_AGG": null, "D_STATO": "Attivo/In esercizio", "IDGIS": null, "PORTING_CLASSE": null, "PORTING_ID": 2806, "POINT_X": 546628.255, "POINT_Y": 4223968.4806999993, "ANGLE": null, "LINK": null, "VIA_DENOMINAZIONE": "Via Minissale", "GlobalID": "{77713422-1521-43C0-9B88-B285D9E6AA8C}", "SORGENTE_DATI": "NORMALIZZATA" }, "geometry": { "type": "Point", "coordinates": [ 15.532263829446707, 38.162406911692884, 0.0 ] } },
{ "type": "Feature", "properties": { "COD_CESPITI": null, "TIPO": null, "MARCA_MODELLO": null, "CLASSE_DN": null, "CLASSE_PN": null, "PORTATA": null, "N_SBOCCHI": null, "NOTE": null, "STATO_CONSERVAZIONE": null, "STATO_FUNZIONALITA": null, "COMUNE": "Messina", "VIA_LOCALITA": null, "N_CIV": null, "UTENTE_CREAZIONE": null, "DATA_INS": null, "OPERATORE": null, "DATA_AGG": null, "D_STATO": "Attivo/In esercizio", "IDGIS": null, "PORTING_CLASSE": null, "PORTING_ID": 2807, "POINT_X": 545623.28089999966, "POINT_Y": 4225311.8095999993, "ANGLE": null, "LINK": null, "VIA_DENOMINAZIONE": null, "GlobalID": "{7DFD7BCA-F787-4F77-9672-C336807440CF}", "SORGENTE_DATI": "NORMALIZZATA" }, "geometry": { "type": "Point", "coordinates": [ 15.520878590060367, 38.174564780992952, 0.0 ] } },
{ "type": "Feature", "properties": { "COD_CESPITI": null, "TIPO": null, "MARCA_MODELLO": null, "CLASSE_DN": null, "CLASSE_PN": null, "PORTATA": null, "N_SBOCCHI": null, "NOTE": null, "STATO_CONSERVAZIONE": null, "STATO_FUNZIONALITA": null, "COMUNE": "Messina", "VIA_LOCALITA": null, "N_CIV": null, "UTENTE_CREAZIONE": null, "DATA_INS": null, "OPERATORE": null, "DATA_AGG": null, "D_STATO": "Attivo/In esercizio", "IDGIS": null, "PORTING_CLASSE": null, "PORTING_ID": 2808, "POINT_X": 545870.77390000038, "POINT_Y": 4225251.7411000002, "ANGLE": null, "LINK": null, "VIA_DENOMINAZIONE": null, "GlobalID": "{9CF831A1-4843-49B2-A356-9610D834AFD6}", "SORGENTE_DATI": "NORMALIZZATA" }, "geometry": { "type": "Point", "coordinates": [ 15.523700221741187, 38.174010861447968, 0.0 ] } },
{ "type": "Feature", "properties": { "COD_CESPITI": null, "TIPO": null, "MARCA_MODELLO": null, "CLASSE_DN": null, "CLASSE_PN": null, "PORTATA": null, "N_SBOCCHI": null, "NOTE": null, "STATO_CONSERVAZIONE": null, "STATO_FUNZIONALITA": null, "COMUNE": "Messina", "VIA_LOCALITA": null, "N_CIV": null, "UTENTE_CREAZIONE": null, "DATA_INS": null, "OPERATORE": null, "DATA_AGG": null, "D_STATO": "Attivo/In esercizio", "IDGIS": null, "PORTING_CLASSE": null, "PORTING_ID": 2809, "POINT_X": 545903.33069999982, "POINT_Y": 4225340.0328000002, "ANGLE": null, "LINK": null, "VIA_DENOMINAZIONE": "Via Platone", "GlobalID": "{95447F21-BD27-45AF-BD05-CB8B38B09926}", "SORGENTE_DATI": "NORMALIZZATA" }, "geometry": { "type": "Point", "coordinates": [ 15.524077602375973, 38.174804910511341, 0.0 ] } }
]
}
