{
"type": "FeatureCollection",
"name": "PARTITORE",
"crs": { "type": "name", "properties": { "name": "urn:ogc:def:crs:OGC:1.3:CRS84" } },
"features": [
{ "type": "Feature", "properties": { "COD_CESPITI": null, "DENOMINAZIONE": null, "A_INIZIO_ESERC": null, "TIPO": null, "TIPOLOGIA_COSTR": null, "N_VASCHE": 2.0, "Q_MAX_PL": null, "CAPACITA": null, "STRUMENTI_M_I": null, "STRUMENTI_M_TIPO": null, "NOTE": "ripartitore tra i serbatoi massa s. Giovanni /s. Lucia e sollevamento comunità Faro", "STATO_CONSERVAZIONE": null, "STATO_FUNZIONALITA": null, "COMUNE": null, "N_CIV": null, "UTENTE_CREAZIONE": null, "DATA_INS": null, "OPERATORE": null, "DATA_AGG": null, "D_STATO": null, "IDGIS": null, "PORTING_CLASSE": null, "PORTING_ID": 1, "POINT_X": 547519.8325, "POINT_Y": 4233903.0202000001, "ANGLE": null, "LINK": null, "STRUMENTI_M_U": null, "TIPO_DISINF": null, "VIA_DENOMINAZIONE": null, "ACCESSIBILE": null, "PSU": null, "GlobalID": "{4EF90DFF-A518-4F66-83DE-FF80B4610FCA}", "SORGENTE_DATI": "RILEVATA" }, "geometry": { "type": "Point", "coordinates": [ 15.543105667072524, 38.251892167243348, 501.899999999994179 ] } },
{ "type": "Feature", "properties": { "COD_CESPITI": null, "DENOMINAZIONE": null, "A_INIZIO_ESERC": null, "TIPO": null, "TIPOLOGIA_COSTR": null, "N_VASCHE": null, "Q_MAX_PL": null, "CAPACITA": null, "STRUMENTI_M_I": null, "STRUMENTI_M_TIPO": null, "NOTE": null, "STATO_CONSERVAZIONE": null, "STATO_FUNZIONALITA": null, "COMUNE": "MESSINA", "N_CIV": null, "UTENTE_CREAZIONE": null, "DATA_INS": null, "OPERATORE": null, "DATA_AGG": null, "D_STATO": null, "IDGIS": null, "PORTING_CLASSE": null, "PORTING_ID": 2, "POINT_X": 541930.0953, "POINT_Y": 4218398.8734, "ANGLE": null, "LINK": null, "STRUMENTI_M_U": null, "TIPO_DISINF": null, "VIA_DENOMINAZIONE": null, "ACCESSIBILE": null, "PSU": null, "GlobalID": "{97C28985-F002-414D-A88A-C34FAC657CD7}", "SORGENTE_DATI": "RILEVATA" }, "geometry": { "type": "Point", "coordinates": [ 15.478308166773894, 38.112442334400136, 214.80000000000291 ] } },
{ "type": "Feature", "properties": { "COD_CESPITI": null, "DENOMINAZIONE": null, "A_INIZIO_ESERC": null, "TIPO": null, "TIPOLOGIA_COSTR": null, "N_VASCHE": null, "Q_MAX_PL": null, "CAPACITA": null, "STRUMENTI_M_I": null, "STRUMENTI_M_TIPO": null, "NOTE": null, "STATO_CONSERVAZIONE": null, "STATO_FUNZIONALITA": null, "COMUNE": "MESSINA", "N_CIV": null, "UTENTE_CREAZIONE": null, "DATA_INS": null, "OPERATORE": null, "DATA_AGG": null, "D_STATO": null, "IDGIS": null, "PORTING_CLASSE": null, "PORTING_ID": 4, "POINT_X": 541557.1287, "POINT_Y": 4215136.9419, "ANGLE": null, "LINK": null, "STRUMENTI_M_U": null, "TIPO_DISINF": null, "VIA_DENOMINAZIONE": null, "ACCESSIBILE": null, "PSU": null, "GlobalID": "{77212A6C-CED0-4803-AC9B-FEE5335A25DB}", "SORGENTE_DATI": "RILEVATA" }, "geometry": { "type": "Point", "coordinates": [ 15.473863891524719, 38.083061612720435, 313.80000000000291 ] } },
{ "type": "Feature", "properties": { "COD_CESPITI": null, "DENOMINAZIONE": null, "A_INIZIO_ESERC": null, "TIPO": null, "TIPOLOGIA_COSTR": null, "N_VASCHE": null, "Q_MAX_PL": null, "CAPACITA": null, "STRUMENTI_M_I": null, "STRUMENTI_M_TIPO": null, "NOTE": null, "STATO_CONSERVAZIONE": null, "STATO_FUNZIONALITA": null, "COMUNE": "MESSINA", "N_CIV": null, "UTENTE_CREAZIONE": null, "DATA_INS": null, "OPERATORE": null, "DATA_AGG": null, "D_STATO": null, "IDGIS": null, "PORTING_CLASSE": null, "PORTING_ID": 413, "POINT_X": 539401.4485000001, "POINT_Y": 4215222.7993000001, "ANGLE": null, "LINK": null, "STRUMENTI_M_U": null, "TIPO_DISINF": null, "VIA_DENOMINAZIONE": null, "ACCESSIBILE": null, "PSU": null, "GlobalID": "{1BD24307-2A21-4A27-8641-7A5CF258D600}", "SORGENTE_DATI": "RILEVATA" }, "geometry": { "type": "Point", "coordinates": [ 15.449288746154179, 38.083931941245147, 0.0 ] } }
]
}
