{
"type": "FeatureCollection",
"name": "POZZO",
"crs": { "type": "name", "properties": { "name": "urn:ogc:def:crs:OGC:1.3:CRS84" } },
"features": [
{ "type": "Feature", "properties": { "DENOMINAZIONE": "Altolia", "COD_CESPITI": null, "ANNO_C": null, "TIPOLOGIA_COSTR": null, "PORTATA_MEDIA": null, "VOL_ANNO_CIVILE_U": null, "PROF_PRELIEVO": null, "DIAMETRO": "0", "N_POZZI": null, "CONCESSIONE": null, "CONCESS_STATO": null, "PORTATA_CONCESSA": null, "COD_BACINO_IDRO": null, "COD_ACQUIF": null, "ZONA_TUTELA": null, "ZONA_RISPETTO": null, "ACCESSIBILE": null, "STRUMENTI_M": null, "STRUMENTI_M_TIPO": null, "TELECONTROLLO": null, "N_POMPE": null, "NOTE": " ", "STATO_CONSERVAZIONE": null, "STATO_FUNZIONALITA": null, "COMUNE": "Messina", "N_CIV": null, "UTENTE_CREAZIONE": null, "DATA_INS": null, "OPERATORE": null, "DATA_AGG": null, "D_STATO": "Attivo/In esercizio", "IDGIS": null, "PORTING_CLASSE": null, "PORTING_ID": null, "POINT_X": 538496.4925000001, "POINT_Y": 4214636.5749000004, "ANGLE": null, "PRGA": null, "LINK": null, "PREVALENZA": null, "TIPO_DISINF": null, "VIA_DENOMINAZIONE": null, "PORTATA_MAX_P": null, "GlobalID": "{71EF35A4-3712-4CCE-9155-C7B8C3A1A5DE}", "COD_PRGA": "19ME00G0049P0031", "COMPRENSOR": 8.0, "COD_COMUNE": 83048.0, "COD_GESTOR": "G0049", "name": "Messina P0031", "DENOMINAZI": "Altolia", "UBIC_COM": "Messina", "POZZI_UBIC_LOC": "Altolia", "ALIMENTAZI": " ", "Utenza": " ", "Q_MED": 0.0, "UTILIZZO": 0.0, "VOLUME_MED": 0.0, "ENTRATA_ES": 0.0, "IN_ESERCIZ": " ", "QUOTA_PREL": 354.0, "PROFONDITA": 0.0, "DIAMETRO_1": null, "N_DI_POZZI": 0.0, "MIS_PORTAT": " ", "STATO_CONS": 0.0, "RECINZIONE": " ", "RISPETTO": " ", "CONC_DERIV": " ", "AUT_SANITA": " ", "FONTE_DATI": "AMAM Agosto 2018", "ACCESSIBIL": "difficilmente accessibile: sentiero sterrato e con forte pendenza", "DISTRETTO": null, "SORGENTE_DATI": "RILIEVO" }, "geometry": { "type": "Point", "coordinates": [ 15.438938367244281, 38.078687584321315, 398.399999999994179 ] } },
{ "type": "Feature", "properties": { "DENOMINAZIONE": "Corridore", "COD_CESPITI": "CO_P01", "ANNO_C": null, "TIPOLOGIA_COSTR": null, "PORTATA_MEDIA": null, "VOL_ANNO_CIVILE_U": null, "PROF_PRELIEVO": null, "DIAMETRO": "0", "N_POZZI": null, "CONCESSIONE": null, "CONCESS_STATO": null, "PORTATA_CONCESSA": null, "COD_BACINO_IDRO": null, "COD_ACQUIF": null, "ZONA_TUTELA": null, "ZONA_RISPETTO": null, "ACCESSIBILE": null, "STRUMENTI_M": null, "STRUMENTI_M_TIPO": null, "TELECONTROLLO": null, "N_POMPE": null, "NOTE": " ", "STATO_CONSERVAZIONE": null, "STATO_FUNZIONALITA": null, "COMUNE": null, "N_CIV": null, "UTENTE_CREAZIONE": null, "DATA_INS": null, "OPERATORE": null, "DATA_AGG": null, "D_STATO": "Attivo/In esercizio", "IDGIS": null, "PORTING_CLASSE": null, "PORTING_ID": null, "POINT_X": 543545.1751, "POINT_Y": 4236225.3246, "ANGLE": null, "PRGA": null, "LINK": "\\\\NAS-SERVER3\\Dati3\\AMAM\\_IMPIANTI\\IMPIANTI\\POZZI\\PO_CORRIDORE", "PREVALENZA": null, "TIPO_DISINF": null, "VIA_DENOMINAZIONE": null, "PORTATA_MAX_P": null, "GlobalID": "{CE81FC2A-7771-4CFC-B77B-DA4661A91D8C}", "COD_PRGA": " ", "COMPRENSOR": 8.0, "COD_COMUNE": 83048.0, "COD_GESTOR": "G0049", "name": "Messina P0016", "DENOMINAZI": "Corridore", "UBIC_COM": "Messina", "POZZI_UBIC_LOC": "Rodia", "ALIMENTAZI": " ", "Utenza": " ", "Q_MED": 0.0, "UTILIZZO": 0.0, "VOLUME_MED": 0.0, "ENTRATA_ES": 0.0, "IN_ESERCIZ": " ", "QUOTA_PREL": 104.0, "PROFONDITA": 0.0, "DIAMETRO_1": null, "N_DI_POZZI": 0.0, "MIS_PORTAT": " ", "STATO_CONS": 0.0, "RECINZIONE": " ", "RISPETTO": " ", "CONC_DERIV": " ", "AUT_SANITA": " ", "FONTE_DATI": "AMAM Agosto 2018", "ACCESSIBIL": " ", "DISTRETTO": null, "SORGENTE_DATI": "RILIEVO" }, "geometry": { "type": "Point", "coordinates": [ 15.497823646796613, 38.273022565254159, 0.0 ] } },
{ "type": "Feature", "properties": { "DENOMINAZIONE": "San Filippo Casallotto", "COD_CESPITI": null, "ANNO_C": null, "TIPOLOGIA_COSTR": null, "PORTATA_MEDIA": null, "VOL_ANNO_CIVILE_U": null, "PROF_PRELIEVO": null, "DIAMETRO": "0", "N_POZZI": null, "CONCESSIONE": null, "CONCESS_STATO": null, "PORTATA_CONCESSA": null, "COD_BACINO_IDRO": null, "COD_ACQUIF": null, "ZONA_TUTELA": null, "ZONA_RISPETTO": null, "ACCESSIBILE": null, "STRUMENTI_M": null, "STRUMENTI_M_TIPO": null, "TELECONTROLLO": null, "N_POMPE": null, "NOTE": " ", "STATO_CONSERVAZIONE": null, "STATO_FUNZIONALITA": null, "COMUNE": "Messina", "N_CIV": null, "UTENTE_CREAZIONE": null, "DATA_INS": null, "OPERATORE": null, "DATA_AGG": null, "D_STATO": "Attivo/In esercizio", "IDGIS": null, "PORTING_CLASSE": null, "PORTING_ID": null, "POINT_X": 545271.7261, "POINT_Y": 4223807.0919000003, "ANGLE": null, "PRGA": null, "LINK": null, "PREVALENZA": null, "TIPO_DISINF": null, "VIA_DENOMINAZIONE": null, "PORTATA_MAX_P": null, "GlobalID": "{F0BBE260-D32A-47EF-94D8-1E5175796BE5}", "COD_PRGA": "19ME00G0049P0034", "COMPRENSOR": 8.0, "COD_COMUNE": 83048.0, "COD_GESTOR": "G0049", "name": "Messina P0034", "DENOMINAZI": "San Filippo Casallotto", "UBIC_COM": "Messina", "POZZI_UBIC_LOC": "SAn Filippo", "ALIMENTAZI": " ", "Utenza": " ", "Q_MED": 0.0, "UTILIZZO": 0.0, "VOLUME_MED": 0.0, "ENTRATA_ES": 0.0, "IN_ESERCIZ": " ", "QUOTA_PREL": 124.0, "PROFONDITA": 0.0, "DIAMETRO_1": null, "N_DI_POZZI": 0.0, "MIS_PORTAT": " ", "STATO_CONS": 0.0, "RECINZIONE": " ", "RISPETTO": " ", "CONC_DERIV": " ", "AUT_SANITA": " ", "FONTE_DATI": "AMAM Agosto 2018", "ACCESSIBIL": " ", "DISTRETTO": null, "SORGENTE_DATI": "RILIEVO" }, "geometry": { "type": "Point", "coordinates": [ 15.516769308559828, 38.161021585989573, 0.0 ] } },
{ "type": "Feature", "properties": { "DENOMINAZIONE": "Sanderson 2", "COD_CESPITI": "TB_P02", "ANNO_C": null, "TIPOLOGIA_COSTR": null, "PORTATA_MEDIA": null, "VOL_ANNO_CIVILE_U": null, "PROF_PRELIEVO": null, "DIAMETRO": "0", "N_POZZI": null, "CONCESSIONE": null, "CONCESS_STATO": null, "PORTATA_CONCESSA": null, "COD_BACINO_IDRO": null, "COD_ACQUIF": null, "ZONA_TUTELA": null, "ZONA_RISPETTO": null, "ACCESSIBILE": null, "STRUMENTI_M": null, "STRUMENTI_M_TIPO": null, "TELECONTROLLO": null, "N_POMPE": null, "NOTE": " ", "STATO_CONSERVAZIONE": null, "STATO_FUNZIONALITA": null, "COMUNE": "Messina", "N_CIV": null, "UTENTE_CREAZIONE": null, "DATA_INS": null, "OPERATORE": null, "DATA_AGG": null, "D_STATO": "Attivo/In esercizio", "IDGIS": null, "PORTING_CLASSE": null, "PORTING_ID": null, "POINT_X": 545297.7384, "POINT_Y": 4220974.9622999998, "ANGLE": null, "PRGA": null, "LINK": null, "PREVALENZA": null, "TIPO_DISINF": null, "VIA_DENOMINAZIONE": null, "PORTATA_MAX_P": null, "GlobalID": "{F9FA4733-88F1-4556-BA57-940D06C8CA39}", "COD_PRGA": "19ME00G0049P0036", "COMPRENSOR": 8.0, "COD_COMUNE": 83048.0, "COD_GESTOR": "G0049", "name": "Messina P0036", "DENOMINAZI": "Sanderson 2", "UBIC_COM": "Messina", "POZZI_UBIC_LOC": "Torrente Larderia", "ALIMENTAZI": " ", "Utenza": " ", "Q_MED": 0.0, "UTILIZZO": 0.0, "VOLUME_MED": 0.0, "ENTRATA_ES": 0.0, "IN_ESERCIZ": " ", "QUOTA_PREL": 47.0, "PROFONDITA": 0.0, "DIAMETRO_1": null, "N_DI_POZZI": 0.0, "MIS_PORTAT": " ", "STATO_CONS": 3.0, "RECINZIONE": " ", "RISPETTO": " ", "CONC_DERIV": " ", "AUT_SANITA": " ", "FONTE_DATI": "AMAM Agosto 2018", "ACCESSIBIL": "Accesso attraversando il torrente Larderia", "DISTRETTO": null, "SORGENTE_DATI": "RILIEVO" }, "geometry": { "type": "Point", "coordinates": [ 15.516886076521796, 38.135496265176485, 0.0 ] } },
{ "type": "Feature", "properties": { "DENOMINAZIONE": "Sanderson 1", "COD_CESPITI": "TB_P01", "ANNO_C": null, "TIPOLOGIA_COSTR": null, "PORTATA_MEDIA": null, "VOL_ANNO_CIVILE_U": null, "PROF_PRELIEVO": null, "DIAMETRO": "0", "N_POZZI": null, "CONCESSIONE": null, "CONCESS_STATO": null, "PORTATA_CONCESSA": null, "COD_BACINO_IDRO": null, "COD_ACQUIF": null, "ZONA_TUTELA": null, "ZONA_RISPETTO": null, "ACCESSIBILE": null, "STRUMENTI_M": null, "STRUMENTI_M_TIPO": null, "TELECONTROLLO": null, "N_POMPE": null, "NOTE": " ", "STATO_CONSERVAZIONE": null, "STATO_FUNZIONALITA": null, "COMUNE": "Messina", "N_CIV": null, "UTENTE_CREAZIONE": null, "DATA_INS": null, "OPERATORE": null, "DATA_AGG": null, "D_STATO": "Attivo/In esercizio", "IDGIS": null, "PORTING_CLASSE": null, "PORTING_ID": null, "POINT_X": 545819.9496000001, "POINT_Y": 4221246.4304, "ANGLE": null, "PRGA": null, "LINK": null, "PREVALENZA": null, "TIPO_DISINF": null, "VIA_DENOMINAZIONE": null, "PORTATA_MAX_P": null, "GlobalID": "{80A93137-36A2-46A3-8FD5-C9BB620358C3}", "COD_PRGA": "19ME00G0049P0035", "COMPRENSOR": 8.0, "COD_COMUNE": 83048.0, "COD_GESTOR": "G0049", "name": "Messina P0035", "DENOMINAZI": "Sanderson 1", "UBIC_COM": "Messina", "POZZI_UBIC_LOC": "Ex Sanderson", "ALIMENTAZI": " ", "Utenza": "Collegato con la Santissima", "Q_MED": 5.0, "UTILIZZO": 0.0, "VOLUME_MED": 0.0, "ENTRATA_ES": 0.0, "IN_ESERCIZ": " ", "QUOTA_PREL": 20.0, "PROFONDITA": 0.0, "DIAMETRO_1": null, "N_DI_POZZI": 0.0, "MIS_PORTAT": " ", "STATO_CONS": 0.0, "RECINZIONE": " ", "RISPETTO": " ", "CONC_DERIV": " ", "AUT_SANITA": " ", "FONTE_DATI": "AMAM Agosto 2018", "ACCESSIBIL": "Facilmente accessibile", "DISTRETTO": null, "SORGENTE_DATI": "RILIEVO" }, "geometry": { "type": "Point", "coordinates": [ 15.522862183644872, 38.137916450493009, 63.600000000005821 ] } },
{ "type": "Feature", "properties": { "DENOMINAZIONE": "Scordo", "COD_CESPITI": null, "ANNO_C": null, "TIPOLOGIA_COSTR": null, "PORTATA_MEDIA": null, "VOL_ANNO_CIVILE_U": null, "PROF_PRELIEVO": null, "DIAMETRO": "0", "N_POZZI": null, "CONCESSIONE": null, "CONCESS_STATO": null, "PORTATA_CONCESSA": null, "COD_BACINO_IDRO": null, "COD_ACQUIF": null, "ZONA_TUTELA": null, "ZONA_RISPETTO": null, "ACCESSIBILE": null, "STRUMENTI_M": null, "STRUMENTI_M_TIPO": null, "TELECONTROLLO": null, "N_POMPE": null, "NOTE": "normalizzata", "STATO_CONSERVAZIONE": null, "STATO_FUNZIONALITA": null, "COMUNE": "Messina", "N_CIV": null, "UTENTE_CREAZIONE": null, "DATA_INS": null, "OPERATORE": null, "DATA_AGG": null, "D_STATO": "Attivo/In esercizio", "IDGIS": null, "PORTING_CLASSE": null, "PORTING_ID": null, "POINT_X": 547083.7418, "POINT_Y": 4226635.7558000004, "ANGLE": null, "PRGA": null, "LINK": null, "PREVALENZA": null, "TIPO_DISINF": null, "VIA_DENOMINAZIONE": null, "PORTATA_MAX_P": null, "GlobalID": "{158A3023-118C-4AE4-8CD9-0853188BF100}", "COD_PRGA": "19ME00G0049P0037", "COMPRENSOR": 8.0, "COD_COMUNE": 83048.0, "COD_GESTOR": "G0049", "name": "Messina P0037", "DENOMINAZI": "Scordo", "UBIC_COM": "Messina", "POZZI_UBIC_LOC": "Camaro Inferiore", "ALIMENTAZI": " ", "Utenza": " ", "Q_MED": 0.0, "UTILIZZO": 0.0, "VOLUME_MED": 0.0, "ENTRATA_ES": 0.0, "IN_ESERCIZ": " ", "QUOTA_PREL": 65.0, "PROFONDITA": 0.0, "DIAMETRO_1": null, "N_DI_POZZI": 0.0, "MIS_PORTAT": " ", "STATO_CONS": 2.0, "RECINZIONE": " ", "RISPETTO": " ", "CONC_DERIV": " ", "AUT_SANITA": " ", "FONTE_DATI": "AMAM Agosto 2018", "ACCESSIBIL": " ", "DISTRETTO": null, "SORGENTE_DATI": "RILIEVO" }, "geometry": { "type": "Point", "coordinates": [ 15.537639602170477, 38.186421341238983, 0.0 ] } },
{ "type": "Feature", "properties": { "DENOMINAZIONE": "D'Arrigo", "COD_CESPITI": null, "ANNO_C": null, "TIPOLOGIA_COSTR": null, "PORTATA_MEDIA": null, "VOL_ANNO_CIVILE_U": null, "PROF_PRELIEVO": null, "DIAMETRO": "0", "N_POZZI": null, "CONCESSIONE": null, "CONCESS_STATO": null, "PORTATA_CONCESSA": null, "COD_BACINO_IDRO": null, "COD_ACQUIF": null, "ZONA_TUTELA": null, "ZONA_RISPETTO": null, "ACCESSIBILE": null, "STRUMENTI_M": null, "STRUMENTI_M_TIPO": null, "TELECONTROLLO": null, "N_POMPE": null, "NOTE": " odore di zolfo all'interno", "STATO_CONSERVAZIONE": null, "STATO_FUNZIONALITA": null, "COMUNE": "Messina", "N_CIV": null, "UTENTE_CREAZIONE": null, "DATA_INS": null, "OPERATORE": null, "DATA_AGG": null, "D_STATO": "Attivo/In esercizio", "IDGIS": null, "PORTING_CLASSE": null, "PORTING_ID": null, "POINT_X": 547744.9653, "POINT_Y": 4226129.1216000002, "ANGLE": null, "PRGA": null, "LINK": null, "PREVALENZA": null, "TIPO_DISINF": null, "VIA_DENOMINAZIONE": null, "PORTATA_MAX_P": null, "GlobalID": "{1AB7391F-77C1-4175-BA95-D7AE616BA045}", "COD_PRGA": "19ME00G0049P0005", "COMPRENSOR": 8.0, "COD_COMUNE": 83048.0, "COD_GESTOR": "G0049", "name": "Messina P0005", "DENOMINAZI": "D'Arrigo", "UBIC_COM": "Messina", "POZZI_UBIC_LOC": "Viale Europa", "ALIMENTAZI": " ", "Utenza": " ", "Q_MED": 50.0, "UTILIZZO": 0.0, "VOLUME_MED": 0.0, "ENTRATA_ES": 0.0, "IN_ESERCIZ": " ", "QUOTA_PREL": 38.0, "PROFONDITA": 0.0, "DIAMETRO_1": null, "N_DI_POZZI": 0.0, "MIS_PORTAT": " ", "STATO_CONS": 0.0, "RECINZIONE": " ", "RISPETTO": " ", "CONC_DERIV": " ", "AUT_SANITA": " ", "FONTE_DATI": "AMAM Agosto 2018", "ACCESSIBIL": " ", "DISTRETTO": null, "SORGENTE_DATI": "RILIEVO" }, "geometry": { "type": "Point", "coordinates": [ 15.545155637018933, 38.181820635215416, 0.0 ] } },
{ "type": "Feature", "properties": { "DENOMINAZIONE": "Beata Eustochia", "COD_CESPITI": null, "ANNO_C": null, "TIPOLOGIA_COSTR": null, "PORTATA_MEDIA": null, "VOL_ANNO_CIVILE_U": null, "PROF_PRELIEVO": null, "DIAMETRO": "0", "N_POZZI": null, "CONCESSIONE": null, "CONCESS_STATO": null, "PORTATA_CONCESSA": null, "COD_BACINO_IDRO": null, "COD_ACQUIF": null, "ZONA_TUTELA": null, "ZONA_RISPETTO": null, "ACCESSIBILE": null, "STRUMENTI_M": null, "STRUMENTI_M_TIPO": null, "TELECONTROLLO": null, "N_POMPE": null, "NOTE": " mancano le chiavi del pozzo", "STATO_CONSERVAZIONE": null, "STATO_FUNZIONALITA": null, "COMUNE": "Messina", "N_CIV": null, "UTENTE_CREAZIONE": null, "DATA_INS": null, "OPERATORE": null, "DATA_AGG": null, "D_STATO": "Attivo/In esercizio", "IDGIS": null, "PORTING_CLASSE": null, "PORTING_ID": null, "POINT_X": 548805.5209, "POINT_Y": 4230437.569, "ANGLE": null, "PRGA": null, "LINK": null, "PREVALENZA": null, "TIPO_DISINF": null, "VIA_DENOMINAZIONE": null, "PORTATA_MAX_P": null, "GlobalID": "{81636496-3ED5-491E-82A1-172D80D1902C}", "COD_PRGA": "19ME00G0049P0019", "COMPRENSOR": 8.0, "COD_COMUNE": 83048.0, "COD_GESTOR": "G0049", "name": "Messina P0019", "DENOMINAZI": "Beata Eustochia", "UBIC_COM": "Messina", "POZZI_UBIC_LOC": "Scuola Beata Eustochia - Annunziata", "ALIMENTAZI": " ", "Utenza": "Annunziata", "Q_MED": 0.0, "UTILIZZO": 0.0, "VOLUME_MED": 0.0, "ENTRATA_ES": 0.0, "IN_ESERCIZ": " ", "QUOTA_PREL": 61.0, "PROFONDITA": 0.0, "DIAMETRO_1": null, "N_DI_POZZI": 0.0, "MIS_PORTAT": " ", "STATO_CONS": 3.0, "RECINZIONE": " ", "RISPETTO": " ", "CONC_DERIV": " ", "AUT_SANITA": " ", "FONTE_DATI": "AMAM Agosto 2018", "ACCESSIBIL": "Facilmente accessibile", "DISTRETTO": null, "SORGENTE_DATI": "RILIEVO" }, "geometry": { "type": "Point", "coordinates": [ 15.557560667870414, 38.220592223712892, 0.0 ] } },
{ "type": "Feature", "properties": { "DENOMINAZIONE": "Garibaldi", "COD_CESPITI": null, "ANNO_C": null, "TIPOLOGIA_COSTR": null, "PORTATA_MEDIA": null, "VOL_ANNO_CIVILE_U": null, "PROF_PRELIEVO": null, "DIAMETRO": "0", "N_POZZI": null, "CONCESSIONE": null, "CONCESS_STATO": null, "PORTATA_CONCESSA": null, "COD_BACINO_IDRO": null, "COD_ACQUIF": null, "ZONA_TUTELA": null, "ZONA_RISPETTO": null, "ACCESSIBILE": null, "STRUMENTI_M": null, "STRUMENTI_M_TIPO": null, "TELECONTROLLO": null, "N_POMPE": null, "NOTE": "Da collegare alla normalizzata", "STATO_CONSERVAZIONE": null, "STATO_FUNZIONALITA": null, "COMUNE": null, "N_CIV": null, "UTENTE_CREAZIONE": null, "DATA_INS": null, "OPERATORE": null, "DATA_AGG": null, "D_STATO": "Attivo/In esercizio", "IDGIS": null, "PORTING_CLASSE": null, "PORTING_ID": null, "POINT_X": 548864.0826, "POINT_Y": 4229129.8863000004, "ANGLE": null, "PRGA": null, "LINK": "\\\\NAS-SERVER3\\Dati3\\AMAM\\_IMPIANTI\\IMPIANTI\\POZZI\\P0006_GARIBALDI", "PREVALENZA": null, "TIPO_DISINF": null, "VIA_DENOMINAZIONE": null, "PORTATA_MAX_P": null, "GlobalID": "{AF54D3E3-A34D-4503-8709-B80EB4320A49}", "COD_PRGA": "19ME00G0049P0006", "COMPRENSOR": 8.0, "COD_COMUNE": 83048.0, "COD_GESTOR": "G0049", "name": "Messina P0006", "DENOMINAZI": "Garibaldi", "UBIC_COM": "Messina", "POZZI_UBIC_LOC": "P.za Castronovo", "ALIMENTAZI": " ", "Utenza": "Viale Regina Elena", "Q_MED": 0.0, "UTILIZZO": 0.0, "VOLUME_MED": 0.0, "ENTRATA_ES": 0.0, "IN_ESERCIZ": " ", "QUOTA_PREL": 30.0, "PROFONDITA": 0.0, "DIAMETRO_1": null, "N_DI_POZZI": 0.0, "MIS_PORTAT": " ", "STATO_CONS": 3.0, "RECINZIONE": " ", "RISPETTO": " ", "CONC_DERIV": " ", "AUT_SANITA": " ", "FONTE_DATI": "AMAM Agosto 2018", "ACCESSIBIL": "Facilmente accessibile", "DISTRETTO": null, "SORGENTE_DATI": "RILIEVO" }, "geometry": { "type": "Point", "coordinates": [ 15.558139631270931, 38.208804023130732, 0.0 ] } },
{ "type": "Feature", "properties": { "DENOMINAZIONE": "Bonaccorso", "COD_CESPITI": null, "ANNO_C": null, "TIPOLOGIA_COSTR": null, "PORTATA_MEDIA": null, "VOL_ANNO_CIVILE_U": null, "PROF_PRELIEVO": null, "DIAMETRO": "0", "N_POZZI": null, "CONCESSIONE": null, "CONCESS_STATO": null, "PORTATA_CONCESSA": null, "COD_BACINO_IDRO": null, "COD_ACQUIF": null, "ZONA_TUTELA": null, "ZONA_RISPETTO": null, "ACCESSIBILE": null, "STRUMENTI_M": null, "STRUMENTI_M_TIPO": null, "TELECONTROLLO": null, "N_POMPE": null, "NOTE": " ", "STATO_CONSERVAZIONE": null, "STATO_FUNZIONALITA": null, "COMUNE": "Messina", "N_CIV": null, "UTENTE_CREAZIONE": null, "DATA_INS": null, "OPERATORE": null, "DATA_AGG": null, "D_STATO": "Attivo/In esercizio", "IDGIS": null, "PORTING_CLASSE": null, "PORTING_ID": null, "POINT_X": 550187.0549, "POINT_Y": 4232581.4373000003, "ANGLE": null, "PRGA": null, "LINK": null, "PREVALENZA": null, "TIPO_DISINF": null, "VIA_DENOMINAZIONE": null, "PORTATA_MAX_P": null, "GlobalID": "{6746E62A-B606-45D7-B2FB-DE3121565F21}", "COD_PRGA": "19ME00G0049P0009", "COMPRENSOR": 8.0, "COD_COMUNE": 83048.0, "COD_GESTOR": "G0049", "name": "Messina P0009", "DENOMINAZI": "Bonaccorso", "UBIC_COM": "Messina", "POZZI_UBIC_LOC": "Torrente Pace", "ALIMENTAZI": " ", "Utenza": " ", "Q_MED": 0.0, "UTILIZZO": 0.0, "VOLUME_MED": 0.0, "ENTRATA_ES": 0.0, "IN_ESERCIZ": " ", "QUOTA_PREL": 46.0, "PROFONDITA": 0.0, "DIAMETRO_1": null, "N_DI_POZZI": 0.0, "MIS_PORTAT": " ", "STATO_CONS": 0.0, "RECINZIONE": " ", "RISPETTO": " ", "CONC_DERIV": " ", "AUT_SANITA": " ", "FONTE_DATI": "AMAM Agosto 2018", "ACCESSIBIL": " ", "DISTRETTO": null, "SORGENTE_DATI": "RILIEVO" }, "geometry": { "type": "Point", "coordinates": [ 15.573494474369513, 38.23983694181404, 0.0 ] } },
{ "type": "Feature", "properties": { "DENOMINAZIONE": "Pace", "COD_CESPITI": null, "ANNO_C": null, "TIPOLOGIA_COSTR": null, "PORTATA_MEDIA": null, "VOL_ANNO_CIVILE_U": null, "PROF_PRELIEVO": null, "DIAMETRO": null, "N_POZZI": null, "CONCESSIONE": null, "CONCESS_STATO": null, "PORTATA_CONCESSA": null, "COD_BACINO_IDRO": null, "COD_ACQUIF": null, "ZONA_TUTELA": null, "ZONA_RISPETTO": null, "ACCESSIBILE": null, "STRUMENTI_M": null, "STRUMENTI_M_TIPO": null, "TELECONTROLLO": null, "N_POMPE": null, "NOTE": " ", "STATO_CONSERVAZIONE": null, "STATO_FUNZIONALITA": null, "COMUNE": "Messina", "N_CIV": null, "UTENTE_CREAZIONE": null, "DATA_INS": null, "OPERATORE": null, "DATA_AGG": null, "D_STATO": "Attivo/In esercizio", "IDGIS": null, "PORTING_CLASSE": null, "PORTING_ID": null, "POINT_X": 550464.5723, "POINT_Y": 4232634.3179000001, "ANGLE": null, "PRGA": null, "LINK": null, "PREVALENZA": null, "TIPO_DISINF": null, "VIA_DENOMINAZIONE": null, "PORTATA_MAX_P": null, "GlobalID": "{AD69F484-5964-480D-A45E-42DFAB54918A}", "COD_PRGA": " ", "COMPRENSOR": 8.0, "COD_COMUNE": 83048.0, "COD_GESTOR": "G0049", "name": "Messina P0011", "DENOMINAZI": "Pace", "UBIC_COM": "Messina", "POZZI_UBIC_LOC": "Pace", "ALIMENTAZI": " ", "Utenza": " ", "Q_MED": 0.0, "UTILIZZO": 0.0, "VOLUME_MED": 0.0, "ENTRATA_ES": 0.0, "IN_ESERCIZ": " ", "QUOTA_PREL": 59.0, "PROFONDITA": 0.0, "DIAMETRO_1": null, "N_DI_POZZI": 0.0, "MIS_PORTAT": " ", "STATO_CONS": 0.0, "RECINZIONE": " ", "RISPETTO": " ", "CONC_DERIV": " ", "AUT_SANITA": " ", "FONTE_DATI": "AMAM Agosto 2018", "ACCESSIBIL": " ", "DISTRETTO": null, "SORGENTE_DATI": "RILIEVO" }, "geometry": { "type": "Point", "coordinates": [ 15.576669320806063, 38.240297967688974, 0.0 ] } },
{ "type": "Feature", "properties": { "DENOMINAZIONE": "Puleo", "COD_CESPITI": null, "ANNO_C": null, "TIPOLOGIA_COSTR": "muratura", "PORTATA_MEDIA": null, "VOL_ANNO_CIVILE_U": null, "PROF_PRELIEVO": null, "DIAMETRO": "0", "N_POZZI": 1.0, "CONCESSIONE": null, "CONCESS_STATO": null, "PORTATA_CONCESSA": null, "COD_BACINO_IDRO": null, "COD_ACQUIF": null, "ZONA_TUTELA": null, "ZONA_RISPETTO": null, "ACCESSIBILE": "all'interno pertinenza del campo da rugby", "STRUMENTI_M": "NO", "STRUMENTI_M_TIPO": null, "TELECONTROLLO": null, "N_POMPE": null, "NOTE": " problema di accesso serve la chiave del cancello automatico del campo da ragby", "STATO_CONSERVAZIONE": null, "STATO_FUNZIONALITA": null, "COMUNE": "Messina", "N_CIV": null, "UTENTE_CREAZIONE": null, "DATA_INS": null, "OPERATORE": null, "DATA_AGG": null, "D_STATO": "Attivo/In esercizio", "IDGIS": null, "PORTING_CLASSE": null, "PORTING_ID": null, "POINT_X": 551929.0457, "POINT_Y": 4235413.7041999996, "ANGLE": null, "PRGA": null, "LINK": null, "PREVALENZA": null, "TIPO_DISINF": null, "VIA_DENOMINAZIONE": null, "PORTATA_MAX_P": null, "GlobalID": "{2EA09213-F693-4E45-84A5-23E174C95331}", "COD_PRGA": "19ME00G0049P0012", "COMPRENSOR": 8.0, "COD_COMUNE": 83048.0, "COD_GESTOR": "G0049", "name": "Messina P0012", "DENOMINAZI": "Puleo", "UBIC_COM": "Messina", "POZZI_UBIC_LOC": "Torrente Papardo", "ALIMENTAZI": " ", "Utenza": " ", "Q_MED": 7.0, "UTILIZZO": 0.0, "VOLUME_MED": 0.0, "ENTRATA_ES": 0.0, "IN_ESERCIZ": " ", "QUOTA_PREL": 91.0, "PROFONDITA": 0.0, "DIAMETRO_1": null, "N_DI_POZZI": 0.0, "MIS_PORTAT": " ", "STATO_CONS": 4.0, "RECINZIONE": " ", "RISPETTO": " ", "CONC_DERIV": " ", "AUT_SANITA": " ", "FONTE_DATI": "AMAM Agosto 2018", "ACCESSIBIL": "Facilmente accessibile", "DISTRETTO": null, "SORGENTE_DATI": "RILIEVO" }, "geometry": { "type": "Point", "coordinates": [ 15.593607073985675, 38.265262456056163, 0.0 ] } },
{ "type": "Feature", "properties": { "DENOMINAZIONE": "Timpazzi", "COD_CESPITI": null, "ANNO_C": null, "TIPOLOGIA_COSTR": null, "PORTATA_MEDIA": null, "VOL_ANNO_CIVILE_U": null, "PROF_PRELIEVO": null, "DIAMETRO": "0", "N_POZZI": null, "CONCESSIONE": null, "CONCESS_STATO": null, "PORTATA_CONCESSA": null, "COD_BACINO_IDRO": null, "COD_ACQUIF": null, "ZONA_TUTELA": null, "ZONA_RISPETTO": null, "ACCESSIBILE": null, "STRUMENTI_M": null, "STRUMENTI_M_TIPO": null, "TELECONTROLLO": null, "N_POMPE": null, "NOTE": " ", "STATO_CONSERVAZIONE": null, "STATO_FUNZIONALITA": null, "COMUNE": null, "N_CIV": null, "UTENTE_CREAZIONE": null, "DATA_INS": null, "OPERATORE": null, "DATA_AGG": null, "D_STATO": "Attivo/In esercizio", "IDGIS": null, "PORTING_CLASSE": null, "PORTING_ID": null, "POINT_X": 552011.4173, "POINT_Y": 4236331.4315999998, "ANGLE": null, "PRGA": null, "LINK": "\\\\NAS-SERVER3\\Dati3\\AMAM\\_IMPIANTI\\IMPIANTI\\POZZI\\P0022_TIMPAZZI", "PREVALENZA": null, "TIPO_DISINF": null, "VIA_DENOMINAZIONE": null, "PORTATA_MAX_P": null, "GlobalID": "{2FE4BA69-9B0D-41CF-86EA-7992F2968AF2}", "COD_PRGA": "19ME00G0049P0022", "COMPRENSOR": 8.0, "COD_COMUNE": 83048.0, "COD_GESTOR": "G0049", "name": "Messina P0022", "DENOMINAZI": "Timpazzi", "UBIC_COM": "Messina", "POZZI_UBIC_LOC": "Timpazzi", "ALIMENTAZI": " ", "Utenza": " ", "Q_MED": 0.0, "UTILIZZO": 0.0, "VOLUME_MED": 0.0, "ENTRATA_ES": 0.0, "IN_ESERCIZ": " ", "QUOTA_PREL": 33.0, "PROFONDITA": 0.0, "DIAMETRO_1": null, "N_DI_POZZI": 0.0, "MIS_PORTAT": " ", "STATO_CONS": 0.0, "RECINZIONE": " ", "RISPETTO": " ", "CONC_DERIV": " ", "AUT_SANITA": " ", "FONTE_DATI": "AMAM Agosto 2018", "ACCESSIBIL": "Strada sterrata dissestata", "DISTRETTO": null, "SORGENTE_DATI": "RILIEVO" }, "geometry": { "type": "Point", "coordinates": [ 15.594616056741085, 38.273528247728656, 0.0 ] } },
{ "type": "Feature", "properties": { "DENOMINAZIONE": "Timpazzi Ovest", "COD_CESPITI": null, "ANNO_C": null, "TIPOLOGIA_COSTR": null, "PORTATA_MEDIA": null, "VOL_ANNO_CIVILE_U": null, "PROF_PRELIEVO": null, "DIAMETRO": "0", "N_POZZI": null, "CONCESSIONE": null, "CONCESS_STATO": null, "PORTATA_CONCESSA": null, "COD_BACINO_IDRO": null, "COD_ACQUIF": null, "ZONA_TUTELA": null, "ZONA_RISPETTO": null, "ACCESSIBILE": null, "STRUMENTI_M": null, "STRUMENTI_M_TIPO": null, "TELECONTROLLO": null, "N_POMPE": null, "NOTE": " ", "STATO_CONSERVAZIONE": null, "STATO_FUNZIONALITA": null, "COMUNE": null, "N_CIV": null, "UTENTE_CREAZIONE": null, "DATA_INS": null, "OPERATORE": null, "DATA_AGG": null, "D_STATO": "Attivo/In esercizio", "IDGIS": null, "PORTING_CLASSE": null, "PORTING_ID": null, "POINT_X": 551984.0434, "POINT_Y": 4236352.0757, "ANGLE": null, "PRGA": null, "LINK": null, "PREVALENZA": null, "TIPO_DISINF": null, "VIA_DENOMINAZIONE": null, "PORTATA_MAX_P": null, "GlobalID": "{0336BE70-FFCC-4CF7-84CD-F1252A372D21}", "COD_PRGA": " ", "COMPRENSOR": 8.0, "COD_COMUNE": 83048.0, "COD_GESTOR": "G0049", "name": " ", "DENOMINAZI": "Timpazzi Ovest", "UBIC_COM": "Messina", "POZZI_UBIC_LOC": "Timpazzi", "ALIMENTAZI": " ", "Utenza": " ", "Q_MED": 0.0, "UTILIZZO": 0.0, "VOLUME_MED": 0.0, "ENTRATA_ES": 0.0, "IN_ESERCIZ": " ", "QUOTA_PREL": 30.0, "PROFONDITA": 0.0, "DIAMETRO_1": null, "N_DI_POZZI": 0.0, "MIS_PORTAT": " ", "STATO_CONS": 0.0, "RECINZIONE": " ", "RISPETTO": " ", "CONC_DERIV": " ", "AUT_SANITA": " ", "FONTE_DATI": "AMAM Agosto 2018", "ACCESSIBIL": "In terreno privato - Strada dissestata", "DISTRETTO": null, "SORGENTE_DATI": "RILIEVO" }, "geometry": { "type": "Point", "coordinates": [ 15.594304638890355, 38.273715877677652, 0.0 ] } },
{ "type": "Feature", "properties": { "DENOMINAZIONE": "Timpazzi Est", "COD_CESPITI": null, "ANNO_C": null, "TIPOLOGIA_COSTR": null, "PORTATA_MEDIA": null, "VOL_ANNO_CIVILE_U": null, "PROF_PRELIEVO": null, "DIAMETRO": "0", "N_POZZI": null, "CONCESSIONE": null, "CONCESS_STATO": null, "PORTATA_CONCESSA": null, "COD_BACINO_IDRO": null, "COD_ACQUIF": null, "ZONA_TUTELA": null, "ZONA_RISPETTO": null, "ACCESSIBILE": null, "STRUMENTI_M": null, "STRUMENTI_M_TIPO": null, "TELECONTROLLO": null, "N_POMPE": null, "NOTE": " ", "STATO_CONSERVAZIONE": null, "STATO_FUNZIONALITA": null, "COMUNE": null, "N_CIV": null, "UTENTE_CREAZIONE": null, "DATA_INS": null, "OPERATORE": null, "DATA_AGG": null, "D_STATO": "Attivo/In esercizio", "IDGIS": null, "PORTING_CLASSE": null, "PORTING_ID": null, "POINT_X": 552095.501, "POINT_Y": 4236308.3693000004, "ANGLE": null, "PRGA": null, "LINK": null, "PREVALENZA": null, "TIPO_DISINF": null, "VIA_DENOMINAZIONE": null, "PORTATA_MAX_P": null, "GlobalID": "{8096ADBD-0AE7-4A8D-888F-4E20A7032023}", "COD_PRGA": " ", "COMPRENSOR": 8.0, "COD_COMUNE": 83048.0, "COD_GESTOR": "G0049", "name": " ", "DENOMINAZI": "Timpazzi Est", "UBIC_COM": "Messina", "POZZI_UBIC_LOC": "Timpazzi", "ALIMENTAZI": " ", "Utenza": " ", "Q_MED": 0.0, "UTILIZZO": 0.0, "VOLUME_MED": 0.0, "ENTRATA_ES": 0.0, "IN_ESERCIZ": " ", "QUOTA_PREL": 30.0, "PROFONDITA": 0.0, "DIAMETRO_1": null, "N_DI_POZZI": 0.0, "MIS_PORTAT": " ", "STATO_CONS": 0.0, "RECINZIONE": " ", "RISPETTO": " ", "CONC_DERIV": " ", "AUT_SANITA": " ", "FONTE_DATI": "AMAM Agosto 2018", "ACCESSIBIL": "Strada dissestata", "DISTRETTO": null, "SORGENTE_DATI": "RILIEVO" }, "geometry": { "type": "Point", "coordinates": [ 15.595575590875141, 38.273315535240982, 0.0 ] } },
{ "type": "Feature", "properties": { "DENOMINAZIONE": "Casabianca", "COD_CESPITI": null, "ANNO_C": null, "TIPOLOGIA_COSTR": null, "PORTATA_MEDIA": null, "VOL_ANNO_CIVILE_U": null, "PROF_PRELIEVO": null, "DIAMETRO": "0", "N_POZZI": null, "CONCESSIONE": null, "CONCESS_STATO": null, "PORTATA_CONCESSA": null, "COD_BACINO_IDRO": null, "COD_ACQUIF": null, "ZONA_TUTELA": null, "ZONA_RISPETTO": null, "ACCESSIBILE": null, "STRUMENTI_M": null, "STRUMENTI_M_TIPO": null, "TELECONTROLLO": null, "N_POMPE": null, "NOTE": " ", "STATO_CONSERVAZIONE": null, "STATO_FUNZIONALITA": null, "COMUNE": null, "N_CIV": null, "UTENTE_CREAZIONE": null, "DATA_INS": null, "OPERATORE": null, "DATA_AGG": null, "D_STATO": "Attivo/In esercizio", "IDGIS": null, "PORTING_CLASSE": null, "PORTING_ID": null, "POINT_X": 551818.1416, "POINT_Y": 4236467.4463, "ANGLE": null, "PRGA": null, "LINK": "\\\\NAS-SERVER3\\Dati3\\AMAM\\_IMPIANTI\\IMPIANTI\\POZZI\\P0014_CASABIANCA", "PREVALENZA": null, "TIPO_DISINF": null, "VIA_DENOMINAZIONE": null, "PORTATA_MAX_P": null, "GlobalID": "{1D3DF8D6-AC08-4465-BACF-1F5AE371E87E}", "COD_PRGA": "19ME00G0049P0014", "COMPRENSOR": 8.0, "COD_COMUNE": 83048.0, "COD_GESTOR": "G0049", "name": "Messina P0014", "DENOMINAZI": "Casabianca", "UBIC_COM": "Messina", "POZZI_UBIC_LOC": "Casabianca", "ALIMENTAZI": " ", "Utenza": " ", "Q_MED": 0.0, "UTILIZZO": 0.0, "VOLUME_MED": 0.0, "ENTRATA_ES": 0.0, "IN_ESERCIZ": " ", "QUOTA_PREL": 23.0, "PROFONDITA": 0.0, "DIAMETRO_1": null, "N_DI_POZZI": 0.0, "MIS_PORTAT": " ", "STATO_CONS": 0.0, "RECINZIONE": " ", "RISPETTO": " ", "CONC_DERIV": " ", "AUT_SANITA": " ", "FONTE_DATI": "AMAM Agosto 2018", "ACCESSIBIL": " ", "DISTRETTO": null, "SORGENTE_DATI": "RILIEVO" }, "geometry": { "type": "Point", "coordinates": [ 15.592416517167777, 38.274765188008409, 0.0 ] } },
{ "type": "Feature", "properties": { "DENOMINAZIONE": "Marotta", "COD_CESPITI": null, "ANNO_C": null, "TIPOLOGIA_COSTR": null, "PORTATA_MEDIA": null, "VOL_ANNO_CIVILE_U": null, "PROF_PRELIEVO": null, "DIAMETRO": "0", "N_POZZI": null, "CONCESSIONE": null, "CONCESS_STATO": null, "PORTATA_CONCESSA": null, "COD_BACINO_IDRO": null, "COD_ACQUIF": null, "ZONA_TUTELA": null, "ZONA_RISPETTO": null, "ACCESSIBILE": null, "STRUMENTI_M": null, "STRUMENTI_M_TIPO": null, "TELECONTROLLO": null, "N_POMPE": null, "NOTE": " ", "STATO_CONSERVAZIONE": null, "STATO_FUNZIONALITA": null, "COMUNE": "Messina", "N_CIV": null, "UTENTE_CREAZIONE": null, "DATA_INS": null, "OPERATORE": null, "DATA_AGG": null, "D_STATO": "Attivo/In esercizio", "IDGIS": null, "PORTING_CLASSE": null, "PORTING_ID": null, "POINT_X": 549901.2189, "POINT_Y": 4233962.5933999997, "ANGLE": null, "PRGA": null, "LINK": null, "PREVALENZA": null, "TIPO_DISINF": null, "VIA_DENOMINAZIONE": null, "PORTATA_MAX_P": null, "GlobalID": "{7C2EAFBB-C4DE-4B35-B9C0-D509F7E8B4BE}", "COD_PRGA": "19ME00G0049P0015", "COMPRENSOR": 8.0, "COD_COMUNE": 83048.0, "COD_GESTOR": "G0049", "name": "Messina P0015", "DENOMINAZI": "Marotta", "UBIC_COM": "Messina", "POZZI_UBIC_LOC": "Torrente Marotta", "ALIMENTAZI": " ", "Utenza": " ", "Q_MED": 0.0, "UTILIZZO": 0.0, "VOLUME_MED": 0.0, "ENTRATA_ES": 0.0, "IN_ESERCIZ": " ", "QUOTA_PREL": 170.0, "PROFONDITA": 0.0, "DIAMETRO_1": null, "N_DI_POZZI": 0.0, "MIS_PORTAT": " ", "STATO_CONS": 0.0, "RECINZIONE": " ", "RISPETTO": " ", "CONC_DERIV": " ", "AUT_SANITA": " ", "FONTE_DATI": "AMAM Agosto 2018", "ACCESSIBIL": " ", "DISTRETTO": null, "SORGENTE_DATI": "RILIEVO" }, "geometry": { "type": "Point", "coordinates": [ 15.570325587393123, 38.252299937048477, 0.0 ] } },
{ "type": "Feature", "properties": { "DENOMINAZIONE": "Mangialupi 1", "COD_CESPITI": null, "ANNO_C": null, "TIPOLOGIA_COSTR": null, "PORTATA_MEDIA": null, "VOL_ANNO_CIVILE_U": null, "PROF_PRELIEVO": null, "DIAMETRO": "0", "N_POZZI": null, "CONCESSIONE": null, "CONCESS_STATO": null, "PORTATA_CONCESSA": null, "COD_BACINO_IDRO": null, "COD_ACQUIF": null, "ZONA_TUTELA": null, "ZONA_RISPETTO": null, "ACCESSIBILE": null, "STRUMENTI_M": null, "STRUMENTI_M_TIPO": null, "TELECONTROLLO": null, "N_POMPE": null, "NOTE": " ", "STATO_CONSERVAZIONE": null, "STATO_FUNZIONALITA": null, "COMUNE": "Messina", "N_CIV": null, "UTENTE_CREAZIONE": null, "DATA_INS": null, "OPERATORE": null, "DATA_AGG": null, "D_STATO": "Attivo/In esercizio", "IDGIS": null, "PORTING_CLASSE": null, "PORTING_ID": null, "POINT_X": 546962.1187, "POINT_Y": 4224984.0806999998, "ANGLE": null, "PRGA": null, "LINK": null, "PREVALENZA": null, "TIPO_DISINF": null, "VIA_DENOMINAZIONE": null, "PORTATA_MAX_P": null, "GlobalID": "{73D1D83E-E8A1-4162-9E1F-CEB07B7511F1}", "COD_PRGA": "19ME00G0049P0002", "COMPRENSOR": 8.0, "COD_COMUNE": 83048.0, "COD_GESTOR": "G0049", "name": "Messina P0002", "DENOMINAZI": "Mangialupi 1", "UBIC_COM": "Messina", "POZZI_UBIC_LOC": "Mangialupi", "ALIMENTAZI": " ", "Utenza": " ", "Q_MED": 28.0, "UTILIZZO": 0.0, "VOLUME_MED": 0.0, "ENTRATA_ES": 0.0, "IN_ESERCIZ": "SI", "QUOTA_PREL": 0.0, "PROFONDITA": 0.0, "DIAMETRO_1": null, "N_DI_POZZI": 0.0, "MIS_PORTAT": " ", "STATO_CONS": 0.0, "RECINZIONE": " ", "RISPETTO": " ", "CONC_DERIV": " ", "AUT_SANITA": " ", "FONTE_DATI": "AMAM Agosto 2018", "ACCESSIBIL": " ", "DISTRETTO": null, "SORGENTE_DATI": "RILIEVO" }, "geometry": { "type": "Point", "coordinates": [ 15.536141782869842, 38.171542417181143, 104.100000000005821 ] } },
{ "type": "Feature", "properties": { "DENOMINAZIONE": "Mangialupi 2", "COD_CESPITI": null, "ANNO_C": null, "TIPOLOGIA_COSTR": null, "PORTATA_MEDIA": null, "VOL_ANNO_CIVILE_U": null, "PROF_PRELIEVO": null, "DIAMETRO": "0", "N_POZZI": null, "CONCESSIONE": null, "CONCESS_STATO": null, "PORTATA_CONCESSA": null, "COD_BACINO_IDRO": null, "COD_ACQUIF": null, "ZONA_TUTELA": null, "ZONA_RISPETTO": null, "ACCESSIBILE": null, "STRUMENTI_M": null, "STRUMENTI_M_TIPO": null, "TELECONTROLLO": null, "N_POMPE": null, "NOTE": " ", "STATO_CONSERVAZIONE": null, "STATO_FUNZIONALITA": null, "COMUNE": "Messina", "N_CIV": null, "UTENTE_CREAZIONE": null, "DATA_INS": null, "OPERATORE": null, "DATA_AGG": null, "D_STATO": "Attivo/In esercizio", "IDGIS": null, "PORTING_CLASSE": null, "PORTING_ID": null, "POINT_X": 547017.1529, "POINT_Y": 4225005.7147000004, "ANGLE": null, "PRGA": null, "LINK": null, "PREVALENZA": null, "TIPO_DISINF": null, "VIA_DENOMINAZIONE": null, "PORTATA_MAX_P": null, "GlobalID": "{5D25D8DA-8722-4A4F-8270-DCA1312B049C}", "COD_PRGA": " ", "COMPRENSOR": 8.0, "COD_COMUNE": 83048.0, "COD_GESTOR": "G0049", "name": "Messina P0018", "DENOMINAZI": "Mangialupi 2", "UBIC_COM": "Messina", "POZZI_UBIC_LOC": "Mangialupi", "ALIMENTAZI": " ", "Utenza": " ", "Q_MED": 26.0, "UTILIZZO": 0.0, "VOLUME_MED": 0.0, "ENTRATA_ES": 0.0, "IN_ESERCIZ": "NO", "QUOTA_PREL": 0.0, "PROFONDITA": 0.0, "DIAMETRO_1": null, "N_DI_POZZI": 0.0, "MIS_PORTAT": " ", "STATO_CONS": 0.0, "RECINZIONE": " ", "RISPETTO": " ", "CONC_DERIV": " ", "AUT_SANITA": " ", "FONTE_DATI": "AMAM Agosto 2018", "ACCESSIBIL": " ", "DISTRETTO": null, "SORGENTE_DATI": "RILIEVO" }, "geometry": { "type": "Point", "coordinates": [ 15.536771483909977, 38.171734517916313, 117.600000000005821 ] } },
{ "type": "Feature", "properties": { "DENOMINAZIONE": "Mangialupi 3", "COD_CESPITI": null, "ANNO_C": null, "TIPOLOGIA_COSTR": null, "PORTATA_MEDIA": null, "VOL_ANNO_CIVILE_U": null, "PROF_PRELIEVO": null, "DIAMETRO": "0", "N_POZZI": null, "CONCESSIONE": null, "CONCESS_STATO": null, "PORTATA_CONCESSA": null, "COD_BACINO_IDRO": null, "COD_ACQUIF": null, "ZONA_TUTELA": null, "ZONA_RISPETTO": null, "ACCESSIBILE": null, "STRUMENTI_M": null, "STRUMENTI_M_TIPO": null, "TELECONTROLLO": null, "N_POMPE": null, "NOTE": " ", "STATO_CONSERVAZIONE": null, "STATO_FUNZIONALITA": null, "COMUNE": "Messina", "N_CIV": null, "UTENTE_CREAZIONE": null, "DATA_INS": null, "OPERATORE": null, "DATA_AGG": null, "D_STATO": "Attivo/In esercizio", "IDGIS": null, "PORTING_CLASSE": null, "PORTING_ID": null, "POINT_X": 546839.4504, "POINT_Y": 4224886.7254, "ANGLE": null, "PRGA": null, "LINK": null, "PREVALENZA": null, "TIPO_DISINF": null, "VIA_DENOMINAZIONE": null, "PORTATA_MAX_P": null, "GlobalID": "{20BDE184-F4F0-4BFF-BD2E-54E0D7904BE1}", "COD_PRGA": " ", "COMPRENSOR": 8.0, "COD_COMUNE": 83048.0, "COD_GESTOR": "G0049", "name": "Messina P0013", "DENOMINAZI": "Mangialupi 3", "UBIC_COM": "Messina", "POZZI_UBIC_LOC": "Mangialupi", "ALIMENTAZI": " ", "Utenza": " ", "Q_MED": 65.0, "UTILIZZO": 0.0, "VOLUME_MED": 0.0, "ENTRATA_ES": 0.0, "IN_ESERCIZ": "SI", "QUOTA_PREL": 0.0, "PROFONDITA": 0.0, "DIAMETRO_1": null, "N_DI_POZZI": 0.0, "MIS_PORTAT": " ", "STATO_CONS": 0.0, "RECINZIONE": " ", "RISPETTO": " ", "CONC_DERIV": " ", "AUT_SANITA": " ", "FONTE_DATI": "AMAM Agosto 2018", "ACCESSIBIL": " ", "DISTRETTO": null, "SORGENTE_DATI": "RILIEVO" }, "geometry": { "type": "Point", "coordinates": [ 15.534734989229815, 38.17067141262374, 0.0 ] } },
{ "type": "Feature", "properties": { "DENOMINAZIONE": "S.Agata", "COD_CESPITI": null, "ANNO_C": null, "TIPOLOGIA_COSTR": null, "PORTATA_MEDIA": null, "VOL_ANNO_CIVILE_U": null, "PROF_PRELIEVO": null, "DIAMETRO": "0", "N_POZZI": null, "CONCESSIONE": null, "CONCESS_STATO": null, "PORTATA_CONCESSA": null, "COD_BACINO_IDRO": null, "COD_ACQUIF": null, "ZONA_TUTELA": null, "ZONA_RISPETTO": null, "ACCESSIBILE": null, "STRUMENTI_M": null, "STRUMENTI_M_TIPO": null, "TELECONTROLLO": null, "N_POMPE": null, "NOTE": " ", "STATO_CONSERVAZIONE": null, "STATO_FUNZIONALITA": null, "COMUNE": "Messina", "N_CIV": null, "UTENTE_CREAZIONE": null, "DATA_INS": null, "OPERATORE": null, "DATA_AGG": null, "D_STATO": "Attivo/In esercizio", "IDGIS": null, "PORTING_CLASSE": null, "PORTING_ID": null, "POINT_X": 551884.3397, "POINT_Y": 4234161.0562000005, "ANGLE": null, "PRGA": null, "LINK": null, "PREVALENZA": null, "TIPO_DISINF": null, "VIA_DENOMINAZIONE": null, "PORTATA_MAX_P": null, "GlobalID": "{256C30B7-804E-49E1-805E-4EFCF4F00574}", "COD_PRGA": " ", "COMPRENSOR": 8.0, "COD_COMUNE": 83048.0, "COD_GESTOR": "G0049", "name": "Messina P0021", "DENOMINAZI": "S.Agata", "UBIC_COM": "Messina", "POZZI_UBIC_LOC": "S.Agata", "ALIMENTAZI": " ", "Utenza": " ", "Q_MED": 6.0, "UTILIZZO": 0.0, "VOLUME_MED": 0.0, "ENTRATA_ES": 0.0, "IN_ESERCIZ": "SI", "QUOTA_PREL": 0.0, "PROFONDITA": 0.0, "DIAMETRO_1": null, "N_DI_POZZI": 0.0, "MIS_PORTAT": " ", "STATO_CONS": 0.0, "RECINZIONE": " ", "RISPETTO": " ", "CONC_DERIV": " ", "AUT_SANITA": " ", "FONTE_DATI": "AMAM Agosto 2018", "ACCESSIBIL": " ", "DISTRETTO": null, "SORGENTE_DATI": "RILIEVO" }, "geometry": { "type": "Point", "coordinates": [ 15.593004290677294, 38.253976155305921, 0.0 ] } },
{ "type": "Feature", "properties": { "DENOMINAZIONE": "S. Margherita 3", "COD_CESPITI": "SM_P03", "ANNO_C": null, "TIPOLOGIA_COSTR": null, "PORTATA_MEDIA": null, "VOL_ANNO_CIVILE_U": null, "PROF_PRELIEVO": null, "DIAMETRO": "0", "N_POZZI": null, "CONCESSIONE": null, "CONCESS_STATO": null, "PORTATA_CONCESSA": null, "COD_BACINO_IDRO": null, "COD_ACQUIF": null, "ZONA_TUTELA": null, "ZONA_RISPETTO": null, "ACCESSIBILE": null, "STRUMENTI_M": null, "STRUMENTI_M_TIPO": null, "TELECONTROLLO": null, "N_POMPE": null, "NOTE": " ", "STATO_CONSERVAZIONE": null, "STATO_FUNZIONALITA": null, "COMUNE": "Messina", "N_CIV": null, "UTENTE_CREAZIONE": null, "DATA_INS": null, "OPERATORE": null, "DATA_AGG": null, "D_STATO": "Attivo/In esercizio", "IDGIS": null, "PORTING_CLASSE": null, "PORTING_ID": null, "POINT_X": 543749.6367, "POINT_Y": 4216910.7876000004, "ANGLE": null, "PRGA": null, "LINK": null, "PREVALENZA": null, "TIPO_DISINF": null, "VIA_DENOMINAZIONE": null, "PORTATA_MAX_P": null, "GlobalID": "{D3D45119-DAB1-43BB-A168-10E4D750E4CC}", "COD_PRGA": "19ME00G0049P0032", "COMPRENSOR": 8.0, "COD_COMUNE": 83048.0, "COD_GESTOR": "G0049", "name": "Messina P0032", "DENOMINAZI": "S. Margherita 3", "UBIC_COM": "Messina", "POZZI_UBIC_LOC": "S.Margherita", "ALIMENTAZI": " ", "Utenza": " ", "Q_MED": 35.0, "UTILIZZO": 0.0, "VOLUME_MED": 0.0, "ENTRATA_ES": 0.0, "IN_ESERCIZ": "SI", "QUOTA_PREL": 0.0, "PROFONDITA": 0.0, "DIAMETRO_1": null, "N_DI_POZZI": 0.0, "MIS_PORTAT": " ", "STATO_CONS": 0.0, "RECINZIONE": " ", "RISPETTO": " ", "CONC_DERIV": " ", "AUT_SANITA": " ", "FONTE_DATI": "AMAM Agosto 2018", "ACCESSIBIL": " ", "DISTRETTO": null, "SORGENTE_DATI": "RILIEVO" }, "geometry": { "type": "Point", "coordinates": [ 15.498972239335798, 38.098944789625733, 0.0 ] } },
{ "type": "Feature", "properties": { "DENOMINAZIONE": "S.Margherita (F)", "COD_CESPITI": null, "ANNO_C": null, "TIPOLOGIA_COSTR": null, "PORTATA_MEDIA": null, "VOL_ANNO_CIVILE_U": null, "PROF_PRELIEVO": null, "DIAMETRO": "0", "N_POZZI": null, "CONCESSIONE": null, "CONCESS_STATO": null, "PORTATA_CONCESSA": null, "COD_BACINO_IDRO": null, "COD_ACQUIF": null, "ZONA_TUTELA": null, "ZONA_RISPETTO": null, "ACCESSIBILE": null, "STRUMENTI_M": null, "STRUMENTI_M_TIPO": null, "TELECONTROLLO": null, "N_POMPE": null, "NOTE": " non trovato", "STATO_CONSERVAZIONE": null, "STATO_FUNZIONALITA": null, "COMUNE": "Messina", "N_CIV": null, "UTENTE_CREAZIONE": null, "DATA_INS": null, "OPERATORE": null, "DATA_AGG": null, "D_STATO": "Attivo/In esercizio", "IDGIS": null, "PORTING_CLASSE": null, "PORTING_ID": null, "POINT_X": 543699.3314, "POINT_Y": 4216851.7872000001, "ANGLE": null, "PRGA": null, "LINK": null, "PREVALENZA": null, "TIPO_DISINF": null, "VIA_DENOMINAZIONE": null, "PORTATA_MAX_P": null, "GlobalID": "{9138D1C9-2C5F-4843-80E3-8CBAABA96A32}", "COD_PRGA": " ", "COMPRENSOR": 8.0, "COD_COMUNE": 83048.0, "COD_GESTOR": "G0049", "name": "Messina P0023", "DENOMINAZI": "S.Margherita (F)", "UBIC_COM": "Messina", "POZZI_UBIC_LOC": "S.Margherita", "ALIMENTAZI": " ", "Utenza": " ", "Q_MED": 15.0, "UTILIZZO": 0.0, "VOLUME_MED": 0.0, "ENTRATA_ES": 0.0, "IN_ESERCIZ": "NO", "QUOTA_PREL": 0.0, "PROFONDITA": 0.0, "DIAMETRO_1": null, "N_DI_POZZI": 0.0, "MIS_PORTAT": " ", "STATO_CONS": 0.0, "RECINZIONE": " ", "RISPETTO": " ", "CONC_DERIV": " ", "AUT_SANITA": " ", "FONTE_DATI": "AMAM Agosto 2018", "ACCESSIBIL": " ", "DISTRETTO": null, "SORGENTE_DATI": "RILIEVO" }, "geometry": { "type": "Point", "coordinates": [ 15.49839490702743, 38.098415488868476, 0.0 ] } },
{ "type": "Feature", "properties": { "DENOMINAZIONE": "S. Margherita 2", "COD_CESPITI": null, "ANNO_C": null, "TIPOLOGIA_COSTR": null, "PORTATA_MEDIA": null, "VOL_ANNO_CIVILE_U": null, "PROF_PRELIEVO": null, "DIAMETRO": "0", "N_POZZI": null, "CONCESSIONE": null, "CONCESS_STATO": null, "PORTATA_CONCESSA": null, "COD_BACINO_IDRO": null, "COD_ACQUIF": null, "ZONA_TUTELA": null, "ZONA_RISPETTO": null, "ACCESSIBILE": null, "STRUMENTI_M": null, "STRUMENTI_M_TIPO": null, "TELECONTROLLO": null, "N_POMPE": null, "NOTE": " NON TROVATO", "STATO_CONSERVAZIONE": null, "STATO_FUNZIONALITA": null, "COMUNE": "Messina", "N_CIV": null, "UTENTE_CREAZIONE": null, "DATA_INS": null, "OPERATORE": null, "DATA_AGG": null, "D_STATO": "Attivo/In esercizio", "IDGIS": null, "PORTING_CLASSE": null, "PORTING_ID": null, "POINT_X": 543815.3729, "POINT_Y": 4216843.9003, "ANGLE": null, "PRGA": null, "LINK": null, "PREVALENZA": null, "TIPO_DISINF": null, "VIA_DENOMINAZIONE": null, "PORTATA_MAX_P": null, "GlobalID": "{C88A8776-FA54-41FA-BA7F-78A62AF5E3AE}", "COD_PRGA": "19ME00G0049P0017", "COMPRENSOR": 8.0, "COD_COMUNE": 83048.0, "COD_GESTOR": "G0049", "name": "Messina P0017", "DENOMINAZI": "S. Margherita 2", "UBIC_COM": "Messina", "POZZI_UBIC_LOC": "S.Margherita", "ALIMENTAZI": " ", "Utenza": " ", "Q_MED": 8.0, "UTILIZZO": 0.0, "VOLUME_MED": 0.0, "ENTRATA_ES": 0.0, "IN_ESERCIZ": "NO", "QUOTA_PREL": 0.0, "PROFONDITA": 0.0, "DIAMETRO_1": null, "N_DI_POZZI": 0.0, "MIS_PORTAT": " ", "STATO_CONS": 0.0, "RECINZIONE": " ", "RISPETTO": " ", "CONC_DERIV": " ", "AUT_SANITA": " ", "FONTE_DATI": "AMAM Agosto 2018", "ACCESSIBIL": " ", "DISTRETTO": null, "SORGENTE_DATI": "RILIEVO" }, "geometry": { "type": "Point", "coordinates": [ 15.499717840625268, 38.09833878826835, 0.0 ] } },
{ "type": "Feature", "properties": { "DENOMINAZIONE": "S.Margherita (S)  - portarossa", "COD_CESPITI": "SM_P02", "ANNO_C": null, "TIPOLOGIA_COSTR": null, "PORTATA_MEDIA": null, "VOL_ANNO_CIVILE_U": null, "PROF_PRELIEVO": null, "DIAMETRO": "0", "N_POZZI": null, "CONCESSIONE": null, "CONCESS_STATO": null, "PORTATA_CONCESSA": null, "COD_BACINO_IDRO": null, "COD_ACQUIF": null, "ZONA_TUTELA": null, "ZONA_RISPETTO": null, "ACCESSIBILE": null, "STRUMENTI_M": null, "STRUMENTI_M_TIPO": null, "TELECONTROLLO": null, "N_POMPE": null, "NOTE": " ", "STATO_CONSERVAZIONE": null, "STATO_FUNZIONALITA": null, "COMUNE": "Messina", "N_CIV": null, "UTENTE_CREAZIONE": null, "DATA_INS": null, "OPERATORE": null, "DATA_AGG": null, "D_STATO": "Attivo/In esercizio", "IDGIS": null, "PORTING_CLASSE": null, "PORTING_ID": null, "POINT_X": 543921.2755, "POINT_Y": 4216792.2803999996, "ANGLE": null, "PRGA": null, "LINK": null, "PREVALENZA": null, "TIPO_DISINF": null, "VIA_DENOMINAZIONE": null, "PORTATA_MAX_P": null, "GlobalID": "{45D919AB-3C36-415E-9AFE-9B6EE1419850}", "COD_PRGA": " ", "COMPRENSOR": 8.0, "COD_COMUNE": 83048.0, "COD_GESTOR": "G0049", "name": "Messina P0025", "DENOMINAZI": "S.Margherita (S)", "UBIC_COM": "Messina", "POZZI_UBIC_LOC": "S.Margherita", "ALIMENTAZI": " ", "Utenza": " ", "Q_MED": 15.0, "UTILIZZO": 0.0, "VOLUME_MED": 0.0, "ENTRATA_ES": 0.0, "IN_ESERCIZ": "SI", "QUOTA_PREL": 0.0, "PROFONDITA": 0.0, "DIAMETRO_1": null, "N_DI_POZZI": 0.0, "MIS_PORTAT": " ", "STATO_CONS": 0.0, "RECINZIONE": " ", "RISPETTO": " ", "CONC_DERIV": " ", "AUT_SANITA": " ", "FONTE_DATI": "AMAM Agosto 2018", "ACCESSIBIL": " ", "DISTRETTO": null, "SORGENTE_DATI": "RILIEVO" }, "geometry": { "type": "Point", "coordinates": [ 15.500922449964422, 38.097868426313561, 0.0 ] } },
{ "type": "Feature", "properties": { "DENOMINAZIONE": "S. Margherita 1", "COD_CESPITI": "SM_P01", "ANNO_C": null, "TIPOLOGIA_COSTR": null, "PORTATA_MEDIA": null, "VOL_ANNO_CIVILE_U": null, "PROF_PRELIEVO": null, "DIAMETRO": "0", "N_POZZI": null, "CONCESSIONE": null, "CONCESS_STATO": null, "PORTATA_CONCESSA": null, "COD_BACINO_IDRO": null, "COD_ACQUIF": null, "ZONA_TUTELA": null, "ZONA_RISPETTO": null, "ACCESSIBILE": null, "STRUMENTI_M": null, "STRUMENTI_M_TIPO": null, "TELECONTROLLO": null, "N_POMPE": null, "NOTE": " ", "STATO_CONSERVAZIONE": null, "STATO_FUNZIONALITA": null, "COMUNE": "Messina", "N_CIV": null, "UTENTE_CREAZIONE": null, "DATA_INS": null, "OPERATORE": null, "DATA_AGG": null, "D_STATO": "Attivo/In esercizio", "IDGIS": null, "PORTING_CLASSE": null, "PORTING_ID": null, "POINT_X": 543882.935, "POINT_Y": 4216674.1925999997, "ANGLE": null, "PRGA": null, "LINK": null, "PREVALENZA": null, "TIPO_DISINF": null, "VIA_DENOMINAZIONE": null, "PORTATA_MAX_P": null, "GlobalID": "{0ADD8699-4447-4EBA-B5B5-B4DD9260C73C}", "COD_PRGA": "19ME00G0049P0001", "COMPRENSOR": 8.0, "COD_COMUNE": 83048.0, "COD_GESTOR": "G0049", "name": "Messina P0001", "DENOMINAZI": "S. Margherita 1", "UBIC_COM": "Messina", "POZZI_UBIC_LOC": "S.Margherita", "ALIMENTAZI": " ", "Utenza": " ", "Q_MED": 30.0, "UTILIZZO": 0.0, "VOLUME_MED": 0.0, "ENTRATA_ES": 0.0, "IN_ESERCIZ": "SI", "QUOTA_PREL": 0.0, "PROFONDITA": 0.0, "DIAMETRO_1": null, "N_DI_POZZI": 0.0, "MIS_PORTAT": " ", "STATO_CONS": 0.0, "RECINZIONE": " ", "RISPETTO": " ", "CONC_DERIV": " ", "AUT_SANITA": " ", "FONTE_DATI": "AMAM Agosto 2018", "ACCESSIBIL": " ", "DISTRETTO": null, "SORGENTE_DATI": "RILIEVO" }, "geometry": { "type": "Point", "coordinates": [ 15.500477933246239, 38.096806034334023, 53.19999999999709 ] } },
{ "type": "Feature", "properties": { "DENOMINAZIONE": "Torre Faro", "COD_CESPITI": null, "ANNO_C": null, "TIPOLOGIA_COSTR": null, "PORTATA_MEDIA": null, "VOL_ANNO_CIVILE_U": null, "PROF_PRELIEVO": null, "DIAMETRO": "0", "N_POZZI": null, "CONCESSIONE": null, "CONCESS_STATO": null, "PORTATA_CONCESSA": null, "COD_BACINO_IDRO": null, "COD_ACQUIF": null, "ZONA_TUTELA": null, "ZONA_RISPETTO": null, "ACCESSIBILE": null, "STRUMENTI_M": null, "STRUMENTI_M_TIPO": null, "TELECONTROLLO": null, "N_POMPE": null, "NOTE": " ", "STATO_CONSERVAZIONE": null, "STATO_FUNZIONALITA": null, "COMUNE": "Messina", "N_CIV": null, "UTENTE_CREAZIONE": null, "DATA_INS": null, "OPERATORE": null, "DATA_AGG": null, "D_STATO": "Attivo/In esercizio", "IDGIS": null, "PORTING_CLASSE": null, "PORTING_ID": null, "POINT_X": 554592.5569, "POINT_Y": 4235646.8218, "ANGLE": null, "PRGA": null, "LINK": null, "PREVALENZA": null, "TIPO_DISINF": null, "VIA_DENOMINAZIONE": null, "PORTATA_MAX_P": null, "GlobalID": "{3A208944-6F8A-4E1A-9341-B2003991BD1C}", "COD_PRGA": " ", "COMPRENSOR": 8.0, "COD_COMUNE": 83048.0, "COD_GESTOR": "G0049", "name": "Messina P0028", "DENOMINAZI": "Torre Faro", "UBIC_COM": "Messina", "POZZI_UBIC_LOC": "Torre Faro", "ALIMENTAZI": " ", "Utenza": " ", "Q_MED": 6.0, "UTILIZZO": 0.0, "VOLUME_MED": 0.0, "ENTRATA_ES": 0.0, "IN_ESERCIZ": "SI", "QUOTA_PREL": 0.0, "PROFONDITA": 0.0, "DIAMETRO_1": null, "N_DI_POZZI": 0.0, "MIS_PORTAT": " ", "STATO_CONS": 0.0, "RECINZIONE": " ", "RISPETTO": " ", "CONC_DERIV": " ", "AUT_SANITA": " ", "FONTE_DATI": "AMAM Agosto 2018", "ACCESSIBIL": " ", "DISTRETTO": null, "SORGENTE_DATI": "RILIEVO" }, "geometry": { "type": "Point", "coordinates": [ 15.624070333380974, 38.267205334073928, 137.80000000000291 ] } },
{ "type": "Feature", "properties": { "DENOMINAZIONE": "Trimarchi", "COD_CESPITI": null, "ANNO_C": null, "TIPOLOGIA_COSTR": null, "PORTATA_MEDIA": null, "VOL_ANNO_CIVILE_U": null, "PROF_PRELIEVO": null, "DIAMETRO": "0", "N_POZZI": null, "CONCESSIONE": null, "CONCESS_STATO": null, "PORTATA_CONCESSA": null, "COD_BACINO_IDRO": null, "COD_ACQUIF": null, "ZONA_TUTELA": null, "ZONA_RISPETTO": null, "ACCESSIBILE": null, "STRUMENTI_M": null, "STRUMENTI_M_TIPO": null, "TELECONTROLLO": null, "N_POMPE": null, "NOTE": " dismesso", "STATO_CONSERVAZIONE": null, "STATO_FUNZIONALITA": null, "COMUNE": "Messina", "N_CIV": null, "UTENTE_CREAZIONE": null, "DATA_INS": null, "OPERATORE": null, "DATA_AGG": null, "D_STATO": "Attivo/In esercizio", "IDGIS": null, "PORTING_CLASSE": null, "PORTING_ID": null, "POINT_X": 552582.7521, "POINT_Y": 4234946.8611000003, "ANGLE": null, "PRGA": null, "LINK": null, "PREVALENZA": null, "TIPO_DISINF": null, "VIA_DENOMINAZIONE": null, "PORTATA_MAX_P": null, "GlobalID": "{D3F0ABB7-5A3F-4D99-BD99-DD8D3547AD0E}", "COD_PRGA": "19ME00G0049P0020", "COMPRENSOR": 8.0, "COD_COMUNE": 83048.0, "COD_GESTOR": "G0049", "name": "Messina P0020", "DENOMINAZI": "Trimarchi", "UBIC_COM": "Messina", "POZZI_UBIC_LOC": "Salita Papardo", "ALIMENTAZI": " ", "Utenza": " ", "Q_MED": 5.0, "UTILIZZO": 0.0, "VOLUME_MED": 0.0, "ENTRATA_ES": 0.0, "IN_ESERCIZ": "SI", "QUOTA_PREL": 68.0, "PROFONDITA": 0.0, "DIAMETRO_1": null, "N_DI_POZZI": 0.0, "MIS_PORTAT": " ", "STATO_CONS": 0.0, "RECINZIONE": " ", "RISPETTO": " ", "CONC_DERIV": " ", "AUT_SANITA": " ", "FONTE_DATI": "AMAM Agosto 2018", "ACCESSIBIL": " ", "DISTRETTO": null, "SORGENTE_DATI": "RILIEVO" }, "geometry": { "type": "Point", "coordinates": [ 15.601044624366798, 38.261017228306507, 0.0 ] } },
{ "type": "Feature", "properties": { "DENOMINAZIONE": "Marullo Trapani", "COD_CESPITI": null, "ANNO_C": null, "TIPOLOGIA_COSTR": null, "PORTATA_MEDIA": null, "VOL_ANNO_CIVILE_U": null, "PROF_PRELIEVO": null, "DIAMETRO": "4000", "N_POZZI": null, "CONCESSIONE": null, "CONCESS_STATO": null, "PORTATA_CONCESSA": null, "COD_BACINO_IDRO": null, "COD_ACQUIF": null, "ZONA_TUTELA": null, "ZONA_RISPETTO": null, "ACCESSIBILE": null, "STRUMENTI_M": null, "STRUMENTI_M_TIPO": null, "TELECONTROLLO": null, "N_POMPE": null, "NOTE": "Da collegare alla normalizzata", "STATO_CONSERVAZIONE": null, "STATO_FUNZIONALITA": null, "COMUNE": "Messina", "N_CIV": null, "UTENTE_CREAZIONE": null, "DATA_INS": null, "OPERATORE": null, "DATA_AGG": null, "D_STATO": "Attivo/In esercizio", "IDGIS": null, "PORTING_CLASSE": null, "PORTING_ID": null, "POINT_X": 548129.8363, "POINT_Y": 4228672.5739000002, "ANGLE": null, "PRGA": null, "LINK": null, "PREVALENZA": null, "TIPO_DISINF": null, "VIA_DENOMINAZIONE": null, "PORTATA_MAX_P": null, "GlobalID": "{82646EB6-AABF-4572-8A22-0265AD2F9D79}", "COD_PRGA": "19ME00G0049P0003", "COMPRENSOR": 8.0, "COD_COMUNE": 83048.0, "COD_GESTOR": "G0049", "name": "Messina P0003", "DENOMINAZI": "Marullo Trapani", "UBIC_COM": "Messina", "POZZI_UBIC_LOC": "Torrente Trapani", "ALIMENTAZI": "D: Messina", "Utenza": "Centro Urbano", "Q_MED": 3.0, "UTILIZZO": 24.0, "VOLUME_MED": 94608.0, "ENTRATA_ES": 0.0, "IN_ESERCIZ": "no", "QUOTA_PREL": 64.0, "PROFONDITA": 45.0, "DIAMETRO_1": null, "N_DI_POZZI": 1.0, "MIS_PORTAT": "no", "STATO_CONS": 4.0, "RECINZIONE": "no", "RISPETTO": "no", "CONC_DERIV": " ", "AUT_SANITA": " ", "FONTE_DATI": "Ricognizione 2021", "ACCESSIBIL": " ", "DISTRETTO": null, "SORGENTE_DATI": "RILIEVO" }, "geometry": { "type": "Point", "coordinates": [ 15.549722220466956, 38.204722219916192, 0.0 ] } },
{ "type": "Feature", "properties": { "DENOMINAZIONE": "Ritiro", "COD_CESPITI": null, "ANNO_C": null, "TIPOLOGIA_COSTR": null, "PORTATA_MEDIA": null, "VOL_ANNO_CIVILE_U": null, "PROF_PRELIEVO": null, "DIAMETRO": "3000", "N_POZZI": null, "CONCESSIONE": null, "CONCESS_STATO": null, "PORTATA_CONCESSA": null, "COD_BACINO_IDRO": null, "COD_ACQUIF": null, "ZONA_TUTELA": null, "ZONA_RISPETTO": null, "ACCESSIBILE": null, "STRUMENTI_M": null, "STRUMENTI_M_TIPO": null, "TELECONTROLLO": null, "N_POMPE": null, "NOTE": " ", "STATO_CONSERVAZIONE": null, "STATO_FUNZIONALITA": null, "COMUNE": "Messina", "N_CIV": null, "UTENTE_CREAZIONE": null, "DATA_INS": null, "OPERATORE": null, "DATA_AGG": null, "D_STATO": "Attivo/In esercizio", "IDGIS": null, "PORTING_CLASSE": null, "PORTING_ID": null, "POINT_X": 547064.7727, "POINT_Y": 4229681.6925999997, "ANGLE": null, "PRGA": null, "LINK": null, "PREVALENZA": null, "TIPO_DISINF": null, "VIA_DENOMINAZIONE": null, "PORTATA_MAX_P": null, "GlobalID": "{0F777132-E888-4FBC-8BA6-8C3DE82CC657}", "COD_PRGA": "19ME00G0049P0004", "COMPRENSOR": 8.0, "COD_COMUNE": 83048.0, "COD_GESTOR": "G0049", "name": "Messina P0004", "DENOMINAZI": "Ritiro", "UBIC_COM": "Messina", "POZZI_UBIC_LOC": "Vill. Ritiro", "ALIMENTAZI": "I: Messina", "Utenza": "Centro Urbano", "Q_MED": 24.0, "UTILIZZO": 24.0, "VOLUME_MED": 756864.0, "ENTRATA_ES": 0.0, "IN_ESERCIZ": "si", "QUOTA_PREL": 120.0, "PROFONDITA": 59.0, "DIAMETRO_1": null, "N_DI_POZZI": 1.0, "MIS_PORTAT": "si magnetico", "STATO_CONS": 2.0, "RECINZIONE": "no", "RISPETTO": "no", "CONC_DERIV": " ", "AUT_SANITA": " ", "FONTE_DATI": "Ricognizione 2021", "ACCESSIBIL": " ", "DISTRETTO": null, "SORGENTE_DATI": "RILIEVO" }, "geometry": { "type": "Point", "coordinates": [ 15.537624829326429, 38.213872908297937, 0.0 ] } },
{ "type": "Feature", "properties": { "DENOMINAZIONE": "Pozzo Citola", "COD_CESPITI": null, "ANNO_C": null, "TIPOLOGIA_COSTR": null, "PORTATA_MEDIA": null, "VOL_ANNO_CIVILE_U": null, "PROF_PRELIEVO": null, "DIAMETRO": "270", "N_POZZI": null, "CONCESSIONE": null, "CONCESS_STATO": null, "PORTATA_CONCESSA": null, "COD_BACINO_IDRO": null, "COD_ACQUIF": null, "ZONA_TUTELA": null, "ZONA_RISPETTO": null, "ACCESSIBILE": null, "STRUMENTI_M": null, "STRUMENTI_M_TIPO": null, "TELECONTROLLO": null, "N_POMPE": null, "NOTE": "Pozzo dismesso. Accesso non consentito per presenza di rifiuti nell'area esterna. Rilievo solo esterno. ", "STATO_CONSERVAZIONE": null, "STATO_FUNZIONALITA": null, "COMUNE": "Messina", "N_CIV": null, "UTENTE_CREAZIONE": null, "DATA_INS": null, "OPERATORE": null, "DATA_AGG": null, "D_STATO": "Attivo/In esercizio", "IDGIS": null, "PORTING_CLASSE": null, "PORTING_ID": null, "POINT_X": 548453.053, "POINT_Y": 4230874.9639, "ANGLE": null, "PRGA": null, "LINK": null, "PREVALENZA": null, "TIPO_DISINF": null, "VIA_DENOMINAZIONE": null, "PORTATA_MAX_P": null, "GlobalID": "{13C90DF5-657E-4274-BFC3-0316C0C9F5B0}", "COD_PRGA": "19ME00G0049P0008", "COMPRENSOR": 8.0, "COD_COMUNE": 83048.0, "COD_GESTOR": "G0049", "name": "Messina P0008", "DENOMINAZI": "Pozzo Citola", "UBIC_COM": "Messina", "POZZI_UBIC_LOC": "C.da Citola", "ALIMENTAZI": "D: Messina", "Utenza": "Vill. Annunziata", "Q_MED": 3.0, "UTILIZZO": 24.0, "VOLUME_MED": 94608.0, "ENTRATA_ES": 0.0, "IN_ESERCIZ": "si", "QUOTA_PREL": 108.0, "PROFONDITA": 83.0, "DIAMETRO_1": null, "N_DI_POZZI": 1.0, "MIS_PORTAT": "no", "STATO_CONS": 4.0, "RECINZIONE": "no", "RISPETTO": "no", "CONC_DERIV": " ", "AUT_SANITA": " ", "FONTE_DATI": "Ricognizione 2021", "ACCESSIBIL": "più basso rispetto alla strada. area esterna invasa dai rifiuti che rendono impossibile l'accesso", "DISTRETTO": null, "SORGENTE_DATI": "RILIEVO" }, "geometry": { "type": "Point", "coordinates": [ 15.553564072202741, 38.224553142154434, 0.0 ] } },
{ "type": "Feature", "properties": { "DENOMINAZIONE": "Corsari 2", "COD_CESPITI": null, "ANNO_C": null, "TIPOLOGIA_COSTR": null, "PORTATA_MEDIA": null, "VOL_ANNO_CIVILE_U": null, "PROF_PRELIEVO": null, "DIAMETRO": "0", "N_POZZI": null, "CONCESSIONE": null, "CONCESS_STATO": null, "PORTATA_CONCESSA": null, "COD_BACINO_IDRO": null, "COD_ACQUIF": null, "ZONA_TUTELA": null, "ZONA_RISPETTO": null, "ACCESSIBILE": null, "STRUMENTI_M": null, "STRUMENTI_M_TIPO": null, "TELECONTROLLO": null, "N_POMPE": null, "NOTE": " ", "STATO_CONSERVAZIONE": null, "STATO_FUNZIONALITA": null, "COMUNE": "Messina", "N_CIV": null, "UTENTE_CREAZIONE": null, "DATA_INS": null, "OPERATORE": null, "DATA_AGG": null, "D_STATO": "Attivo/In esercizio", "IDGIS": null, "PORTING_CLASSE": null, "PORTING_ID": null, "POINT_X": 548269.7901, "POINT_Y": 4237714.9955000002, "ANGLE": null, "PRGA": null, "LINK": "\\\\NAS-SERVER3\\Dati3\\AMAM\\_IMPIANTI\\IMPIANTI\\POZZI\\Pozzo_corsari1_2_3", "PREVALENZA": null, "TIPO_DISINF": null, "VIA_DENOMINAZIONE": null, "PORTATA_MAX_P": null, "GlobalID": "{96CB64B8-22F1-45C8-A4A1-F92C5EF00734}", "COD_PRGA": "19ME00G0049P0039", "COMPRENSOR": 8.0, "COD_COMUNE": 83048.0, "COD_GESTOR": "G0049", "name": "Messina P0039", "DENOMINAZI": "Corsari 2", "UBIC_COM": "Messina", "POZZI_UBIC_LOC": " ", "ALIMENTAZI": " ", "Utenza": " ", "Q_MED": 2.0, "UTILIZZO": 0.0, "VOLUME_MED": 0.0, "ENTRATA_ES": 0.0, "IN_ESERCIZ": " ", "QUOTA_PREL": 67.0, "PROFONDITA": 0.0, "DIAMETRO_1": null, "N_DI_POZZI": 0.0, "MIS_PORTAT": " ", "STATO_CONS": 0.0, "RECINZIONE": " ", "RISPETTO": " ", "CONC_DERIV": " ", "AUT_SANITA": " ", "FONTE_DATI": "GIS AMAM", "ACCESSIBIL": " ", "DISTRETTO": null, "SORGENTE_DATI": "RILIEVO" }, "geometry": { "type": "Point", "coordinates": [ 15.551936524151387, 38.286205966577299, 0.0 ] } },
{ "type": "Feature", "properties": { "DENOMINAZIONE": "D'Anna", "COD_CESPITI": null, "ANNO_C": null, "TIPOLOGIA_COSTR": null, "PORTATA_MEDIA": null, "VOL_ANNO_CIVILE_U": null, "PROF_PRELIEVO": null, "DIAMETRO": "0", "N_POZZI": null, "CONCESSIONE": null, "CONCESS_STATO": null, "PORTATA_CONCESSA": null, "COD_BACINO_IDRO": null, "COD_ACQUIF": null, "ZONA_TUTELA": null, "ZONA_RISPETTO": null, "ACCESSIBILE": null, "STRUMENTI_M": null, "STRUMENTI_M_TIPO": null, "TELECONTROLLO": null, "N_POMPE": null, "NOTE": " Pozzo D'Anna alimenta serbatoio salice e serbatoio forte dei centri", "STATO_CONSERVAZIONE": null, "STATO_FUNZIONALITA": null, "COMUNE": "Messina", "N_CIV": null, "UTENTE_CREAZIONE": null, "DATA_INS": null, "OPERATORE": null, "DATA_AGG": null, "D_STATO": "Attivo/In esercizio", "IDGIS": null, "PORTING_CLASSE": null, "PORTING_ID": null, "POINT_X": 543222.1049, "POINT_Y": 4233589.9326999998, "ANGLE": null, "PRGA": null, "LINK": "\\\\NAS-SERVER3\\Dati3\\AMAM\\_IMPIANTI\\IMPIANTI\\POZZI\\PO_S_ANNA", "PREVALENZA": null, "TIPO_DISINF": null, "VIA_DENOMINAZIONE": null, "PORTATA_MAX_P": null, "GlobalID": "{D5CF8D39-F445-4F3C-820F-3AF31E85848E}", "COD_PRGA": "19ME00G0049P0027", "COMPRENSOR": 8.0, "COD_COMUNE": 83048.0, "COD_GESTOR": "G0049", "name": "Messina P0027", "DENOMINAZI": "D'Anna", "UBIC_COM": "Messina", "POZZI_UBIC_LOC": "Salice", "ALIMENTAZI": " ", "Utenza": "Uscita DN80 per 100m - poi biforcazione, una va alla stazione di rilancio Forte dei Centri e 1 al serbatoio Salice", "Q_MED": 0.0, "UTILIZZO": 0.0, "VOLUME_MED": 0.0, "ENTRATA_ES": 0.0, "IN_ESERCIZ": " ", "QUOTA_PREL": 219.0, "PROFONDITA": 0.0, "DIAMETRO_1": null, "N_DI_POZZI": 0.0, "MIS_PORTAT": " ", "STATO_CONS": 0.0, "RECINZIONE": " ", "RISPETTO": " ", "CONC_DERIV": " ", "AUT_SANITA": " ", "FONTE_DATI": "GIS AMAM", "ACCESSIBIL": " ", "DISTRETTO": "SI", "SORGENTE_DATI": "RILIEVO" }, "geometry": { "type": "Point", "coordinates": [ 15.493969473979281, 38.249287597006564, 0.0 ] } },
{ "type": "Feature", "properties": { "DENOMINAZIONE": "Rizzina", "COD_CESPITI": null, "ANNO_C": null, "TIPOLOGIA_COSTR": null, "PORTATA_MEDIA": null, "VOL_ANNO_CIVILE_U": null, "PROF_PRELIEVO": null, "DIAMETRO": "0", "N_POZZI": null, "CONCESSIONE": null, "CONCESS_STATO": null, "PORTATA_CONCESSA": null, "COD_BACINO_IDRO": null, "COD_ACQUIF": null, "ZONA_TUTELA": null, "ZONA_RISPETTO": null, "ACCESSIBILE": null, "STRUMENTI_M": null, "STRUMENTI_M_TIPO": null, "TELECONTROLLO": null, "N_POMPE": null, "NOTE": " ", "STATO_CONSERVAZIONE": null, "STATO_FUNZIONALITA": null, "COMUNE": "Messina", "N_CIV": null, "UTENTE_CREAZIONE": null, "DATA_INS": null, "OPERATORE": null, "DATA_AGG": null, "D_STATO": "Attivo/In esercizio", "IDGIS": null, "PORTING_CLASSE": null, "PORTING_ID": null, "POINT_X": 543730.2566, "POINT_Y": 4234048.9501999998, "ANGLE": null, "PRGA": null, "LINK": "\\\\NAS-SERVER3\\Dati3\\AMAM\\_IMPIANTI\\IMPIANTI\\POZZI\\PozzoRizzina", "PREVALENZA": null, "TIPO_DISINF": null, "VIA_DENOMINAZIONE": null, "PORTATA_MAX_P": null, "GlobalID": "{7BA5CE97-13D5-49DC-8A5B-1340ADEDAFA8}", "COD_PRGA": " ", "COMPRENSOR": 8.0, "COD_COMUNE": 83048.0, "COD_GESTOR": "G0049", "name": " ", "DENOMINAZI": "Rizzina", "UBIC_COM": "Messina", "POZZI_UBIC_LOC": " ", "ALIMENTAZI": " ", "Utenza": " ", "Q_MED": 0.0, "UTILIZZO": 0.0, "VOLUME_MED": 0.0, "ENTRATA_ES": 0.0, "IN_ESERCIZ": " ", "QUOTA_PREL": 188.0, "PROFONDITA": 0.0, "DIAMETRO_1": null, "N_DI_POZZI": 0.0, "MIS_PORTAT": " ", "STATO_CONS": 0.0, "RECINZIONE": " ", "RISPETTO": " ", "CONC_DERIV": " ", "AUT_SANITA": " ", "FONTE_DATI": "ricognizione 10-04-2024", "ACCESSIBIL": "Strada molto stretta, dissestata e pericolosa", "DISTRETTO": "SI", "SORGENTE_DATI": "RILIEVO" }, "geometry": { "type": "Point", "coordinates": [ 15.499805080453239, 38.253399753593072, 0.0 ] } },
{ "type": "Feature", "properties": { "DENOMINAZIONE": "Corsari 1", "COD_CESPITI": null, "ANNO_C": null, "TIPOLOGIA_COSTR": null, "PORTATA_MEDIA": null, "VOL_ANNO_CIVILE_U": null, "PROF_PRELIEVO": null, "DIAMETRO": "0", "N_POZZI": null, "CONCESSIONE": null, "CONCESS_STATO": null, "PORTATA_CONCESSA": null, "COD_BACINO_IDRO": null, "COD_ACQUIF": null, "ZONA_TUTELA": null, "ZONA_RISPETTO": null, "ACCESSIBILE": null, "STRUMENTI_M": null, "STRUMENTI_M_TIPO": null, "TELECONTROLLO": null, "N_POMPE": null, "NOTE": " ", "STATO_CONSERVAZIONE": null, "STATO_FUNZIONALITA": null, "COMUNE": "Messina", "N_CIV": null, "UTENTE_CREAZIONE": null, "DATA_INS": null, "OPERATORE": null, "DATA_AGG": null, "D_STATO": "Attivo/In esercizio", "IDGIS": null, "PORTING_CLASSE": null, "PORTING_ID": null, "POINT_X": 548183.6724, "POINT_Y": 4237687.6388999997, "ANGLE": null, "PRGA": null, "LINK": "\\\\NAS-SERVER3\\Dati3\\AMAM\\_IMPIANTI\\IMPIANTI\\POZZI\\Pozzo_corsari1_2", "PREVALENZA": null, "TIPO_DISINF": null, "VIA_DENOMINAZIONE": null, "PORTATA_MAX_P": null, "GlobalID": "{99282A5F-1A1A-4759-BC96-6FF20957546B}", "COD_PRGA": "19ME00G0049P0023", "COMPRENSOR": 8.0, "COD_COMUNE": 83048.0, "COD_GESTOR": "G0049", "name": "Messina P0023", "DENOMINAZI": "Corsari 1", "UBIC_COM": "Messina", "POZZI_UBIC_LOC": " ", "ALIMENTAZI": " ", "Utenza": "Frazioni zona\nNORD: Acqualadroni, Spartà,\nPiano Torre", "Q_MED": 4.0, "UTILIZZO": 0.0, "VOLUME_MED": 0.0, "ENTRATA_ES": 0.0, "IN_ESERCIZ": " ", "QUOTA_PREL": 70.0, "PROFONDITA": 0.0, "DIAMETRO_1": null, "N_DI_POZZI": 0.0, "MIS_PORTAT": " ", "STATO_CONS": 0.0, "RECINZIONE": " ", "RISPETTO": " ", "CONC_DERIV": " ", "AUT_SANITA": " ", "FONTE_DATI": "GIS AMAM", "ACCESSIBIL": " ", "DISTRETTO": null, "SORGENTE_DATI": "RILIEVO" }, "geometry": { "type": "Point", "coordinates": [ 15.55094999761427, 38.28596405594579, 0.0 ] } },
{ "type": "Feature", "properties": { "DENOMINAZIONE": "Larderia", "COD_CESPITI": null, "ANNO_C": null, "TIPOLOGIA_COSTR": null, "PORTATA_MEDIA": null, "VOL_ANNO_CIVILE_U": null, "PROF_PRELIEVO": null, "DIAMETRO": "0", "N_POZZI": null, "CONCESSIONE": null, "CONCESS_STATO": null, "PORTATA_CONCESSA": null, "COD_BACINO_IDRO": null, "COD_ACQUIF": null, "ZONA_TUTELA": null, "ZONA_RISPETTO": null, "ACCESSIBILE": null, "STRUMENTI_M": null, "STRUMENTI_M_TIPO": null, "TELECONTROLLO": null, "N_POMPE": null, "NOTE": " ", "STATO_CONSERVAZIONE": null, "STATO_FUNZIONALITA": null, "COMUNE": null, "N_CIV": null, "UTENTE_CREAZIONE": null, "DATA_INS": null, "OPERATORE": null, "DATA_AGG": null, "D_STATO": "Attivo/In esercizio", "IDGIS": null, "PORTING_CLASSE": null, "PORTING_ID": null, "POINT_X": 544281.8752, "POINT_Y": 4221454.8032, "ANGLE": null, "PRGA": null, "LINK": null, "PREVALENZA": null, "TIPO_DISINF": null, "VIA_DENOMINAZIONE": null, "PORTATA_MAX_P": null, "GlobalID": "{E0BEC2AF-B032-4A7A-93BA-CAB0DB5B961A}", "COD_PRGA": " ", "COMPRENSOR": 8.0, "COD_COMUNE": 83048.0, "COD_GESTOR": "G0049", "name": " ", "DENOMINAZI": "Larderia", "UBIC_COM": "Messina", "POZZI_UBIC_LOC": "Larderia", "ALIMENTAZI": " ", "Utenza": "Pozzo che alimenta il serbatoio Larderia Sollevamento - Messa in funzionamento alla DATA ISP per il periodo estivo", "Q_MED": 0.0, "UTILIZZO": 0.0, "VOLUME_MED": 0.0, "ENTRATA_ES": 0.0, "IN_ESERCIZ": " ", "QUOTA_PREL": 129.0, "PROFONDITA": 0.0, "DIAMETRO_1": null, "N_DI_POZZI": 0.0, "MIS_PORTAT": " ", "STATO_CONS": 0.0, "RECINZIONE": " ", "RISPETTO": " ", "CONC_DERIV": " ", "AUT_SANITA": " ", "FONTE_DATI": "GIS AMAM", "ACCESSIBIL": " ", "DISTRETTO": null, "SORGENTE_DATI": "RILIEVO" }, "geometry": { "type": "Point", "coordinates": [ 15.505324447924817, 38.139871185830991, 0.0 ] } },
{ "type": "Feature", "properties": { "DENOMINAZIONE": "Rodia", "COD_CESPITI": null, "ANNO_C": null, "TIPOLOGIA_COSTR": null, "PORTATA_MEDIA": null, "VOL_ANNO_CIVILE_U": null, "PROF_PRELIEVO": null, "DIAMETRO": "0", "N_POZZI": null, "CONCESSIONE": null, "CONCESS_STATO": null, "PORTATA_CONCESSA": null, "COD_BACINO_IDRO": null, "COD_ACQUIF": null, "ZONA_TUTELA": null, "ZONA_RISPETTO": null, "ACCESSIBILE": null, "STRUMENTI_M": null, "STRUMENTI_M_TIPO": null, "TELECONTROLLO": null, "N_POMPE": null, "NOTE": " ", "STATO_CONSERVAZIONE": null, "STATO_FUNZIONALITA": null, "COMUNE": null, "N_CIV": null, "UTENTE_CREAZIONE": null, "DATA_INS": null, "OPERATORE": null, "DATA_AGG": null, "D_STATO": "Attivo/In esercizio", "IDGIS": null, "PORTING_CLASSE": null, "PORTING_ID": null, "POINT_X": 543798.7227, "POINT_Y": 4235004.6809, "ANGLE": null, "PRGA": null, "LINK": null, "PREVALENZA": null, "TIPO_DISINF": null, "VIA_DENOMINAZIONE": null, "PORTATA_MAX_P": null, "GlobalID": "{96B7BB65-DBD5-4962-A6B8-D407B5DC3265}", "COD_PRGA": " ", "COMPRENSOR": 8.0, "COD_COMUNE": 83048.0, "COD_GESTOR": "G0049", "name": " ", "DENOMINAZI": "Rodia", "UBIC_COM": " ", "POZZI_UBIC_LOC": " ", "ALIMENTAZI": " ", "Utenza": " ", "Q_MED": 0.0, "UTILIZZO": 0.0, "VOLUME_MED": 0.0, "ENTRATA_ES": 0.0, "IN_ESERCIZ": " ", "QUOTA_PREL": 0.0, "PROFONDITA": 0.0, "DIAMETRO_1": null, "N_DI_POZZI": 0.0, "MIS_PORTAT": " ", "STATO_CONS": 0.0, "RECINZIONE": " ", "RISPETTO": " ", "CONC_DERIV": " ", "AUT_SANITA": " ", "FONTE_DATI": " ", "ACCESSIBIL": " ", "DISTRETTO": null, "SORGENTE_DATI": "RILIEVO" }, "geometry": { "type": "Point", "coordinates": [ 15.500646670936117, 38.262009615252943, 0.0 ] } },
{ "type": "Feature", "properties": { "DENOMINAZIONE": "Tarantonio 1", "COD_CESPITI": null, "ANNO_C": null, "TIPOLOGIA_COSTR": null, "PORTATA_MEDIA": null, "VOL_ANNO_CIVILE_U": null, "PROF_PRELIEVO": null, "DIAMETRO": "0", "N_POZZI": null, "CONCESSIONE": null, "CONCESS_STATO": null, "PORTATA_CONCESSA": null, "COD_BACINO_IDRO": null, "COD_ACQUIF": null, "ZONA_TUTELA": null, "ZONA_RISPETTO": null, "ACCESSIBILE": null, "STRUMENTI_M": null, "STRUMENTI_M_TIPO": null, "TELECONTROLLO": null, "N_POMPE": null, "NOTE": " ", "STATO_CONSERVAZIONE": null, "STATO_FUNZIONALITA": null, "COMUNE": null, "N_CIV": null, "UTENTE_CREAZIONE": null, "DATA_INS": null, "OPERATORE": null, "DATA_AGG": null, "D_STATO": "Attivo/In esercizio", "IDGIS": null, "PORTING_CLASSE": null, "PORTING_ID": null, "POINT_X": 540874.7071, "POINT_Y": 4234729.6470999997, "ANGLE": null, "PRGA": null, "LINK": "\\\\NAS-SERVER3\\Dati3\\AMAM\\_IMPIANTI\\IMPIANTI\\POZZI\\PO_TARANTONIO_1-2", "PREVALENZA": null, "TIPO_DISINF": null, "VIA_DENOMINAZIONE": null, "PORTATA_MAX_P": null, "GlobalID": "{9AC18867-C192-4B89-8AAA-6B6C8649B88A}", "COD_PRGA": "19ME00G0049P0024", "COMPRENSOR": 8.0, "COD_COMUNE": 83048.0, "COD_GESTOR": "G0049", "name": "Messina P0024", "DENOMINAZI": "Tarantonio 1", "UBIC_COM": "Messina", "POZZI_UBIC_LOC": "Torrente Tarantonio SS 113", "ALIMENTAZI": " ", "Utenza": " ", "Q_MED": 4.5, "UTILIZZO": 0.0, "VOLUME_MED": 0.0, "ENTRATA_ES": 0.0, "IN_ESERCIZ": " ", "QUOTA_PREL": 0.0, "PROFONDITA": 0.0, "DIAMETRO_1": null, "N_DI_POZZI": 0.0, "MIS_PORTAT": " ", "STATO_CONS": 0.0, "RECINZIONE": " ", "RISPETTO": " ", "CONC_DERIV": " ", "AUT_SANITA": " ", "FONTE_DATI": "ricognizione 10-04-2024", "ACCESSIBIL": " ", "DISTRETTO": "SI", "SORGENTE_DATI": "RILIEVO" }, "geometry": { "type": "Point", "coordinates": [ 15.467208541027142, 38.259668790372011, 0.0 ] } },
{ "type": "Feature", "properties": { "DENOMINAZIONE": "Tarantonio 2", "COD_CESPITI": null, "ANNO_C": null, "TIPOLOGIA_COSTR": null, "PORTATA_MEDIA": null, "VOL_ANNO_CIVILE_U": null, "PROF_PRELIEVO": null, "DIAMETRO": "0", "N_POZZI": null, "CONCESSIONE": null, "CONCESS_STATO": null, "PORTATA_CONCESSA": null, "COD_BACINO_IDRO": null, "COD_ACQUIF": null, "ZONA_TUTELA": null, "ZONA_RISPETTO": null, "ACCESSIBILE": null, "STRUMENTI_M": null, "STRUMENTI_M_TIPO": null, "TELECONTROLLO": null, "N_POMPE": null, "NOTE": " ", "STATO_CONSERVAZIONE": null, "STATO_FUNZIONALITA": null, "COMUNE": "Messina", "N_CIV": null, "UTENTE_CREAZIONE": null, "DATA_INS": null, "OPERATORE": null, "DATA_AGG": null, "D_STATO": "Attivo/In esercizio", "IDGIS": null, "PORTING_CLASSE": null, "PORTING_ID": null, "POINT_X": 540897.3836, "POINT_Y": 4234737.8931, "ANGLE": null, "PRGA": null, "LINK": "\\\\NAS-SERVER3\\Dati3\\AMAM\\_IMPIANTI\\IMPIANTI\\POZZI\\PO_TARANTONIO_1-2", "PREVALENZA": null, "TIPO_DISINF": null, "VIA_DENOMINAZIONE": null, "PORTATA_MAX_P": null, "GlobalID": "{D2B36CDB-C3DA-449C-BD62-79A91B631DC3}", "COD_PRGA": "19ME00G0049P0040", "COMPRENSOR": 8.0, "COD_COMUNE": 83048.0, "COD_GESTOR": "G0049", "name": "Messina P0040", "DENOMINAZI": "Tarantonio 2", "UBIC_COM": "Messina", "POZZI_UBIC_LOC": " ", "ALIMENTAZI": " ", "Utenza": " ", "Q_MED": 4.5, "UTILIZZO": 0.0, "VOLUME_MED": 0.0, "ENTRATA_ES": 0.0, "IN_ESERCIZ": " ", "QUOTA_PREL": 0.0, "PROFONDITA": 0.0, "DIAMETRO_1": null, "N_DI_POZZI": 0.0, "MIS_PORTAT": " ", "STATO_CONS": 0.0, "RECINZIONE": " ", "RISPETTO": " ", "CONC_DERIV": " ", "AUT_SANITA": " ", "FONTE_DATI": "ricognizione 10-04-2024", "ACCESSIBIL": " ", "DISTRETTO": "SI", "SORGENTE_DATI": "RILIEVO" }, "geometry": { "type": "Point", "coordinates": [ 15.467468207539557, 38.259742072746832, 0.0 ] } },
{ "type": "Feature", "properties": { "DENOMINAZIONE": "Piano Torre", "COD_CESPITI": null, "ANNO_C": null, "TIPOLOGIA_COSTR": null, "PORTATA_MEDIA": null, "VOL_ANNO_CIVILE_U": null, "PROF_PRELIEVO": null, "DIAMETRO": "0", "N_POZZI": null, "CONCESSIONE": null, "CONCESS_STATO": null, "PORTATA_CONCESSA": null, "COD_BACINO_IDRO": null, "COD_ACQUIF": null, "ZONA_TUTELA": null, "ZONA_RISPETTO": null, "ACCESSIBILE": null, "STRUMENTI_M": null, "STRUMENTI_M_TIPO": null, "TELECONTROLLO": null, "N_POMPE": null, "NOTE": " ", "STATO_CONSERVAZIONE": null, "STATO_FUNZIONALITA": null, "COMUNE": null, "N_CIV": null, "UTENTE_CREAZIONE": null, "DATA_INS": null, "OPERATORE": null, "DATA_AGG": null, "D_STATO": "Attivo/In esercizio", "IDGIS": null, "PORTING_CLASSE": null, "PORTING_ID": null, "POINT_X": 545818.1172, "POINT_Y": 4238035.1864, "ANGLE": null, "PRGA": null, "LINK": null, "PREVALENZA": null, "TIPO_DISINF": null, "VIA_DENOMINAZIONE": null, "PORTATA_MAX_P": null, "GlobalID": "{0C836858-A5F6-4AB5-B2E4-FCDD47F397F3}", "COD_PRGA": " ", "COMPRENSOR": 8.0, "COD_COMUNE": 83048.0, "COD_GESTOR": "G0049", "name": " ", "DENOMINAZI": "Piano Torre", "UBIC_COM": "Messina", "POZZI_UBIC_LOC": "Piano Torre", "ALIMENTAZI": " ", "Utenza": " ", "Q_MED": 0.0, "UTILIZZO": 0.0, "VOLUME_MED": 0.0, "ENTRATA_ES": 0.0, "IN_ESERCIZ": " ", "QUOTA_PREL": 0.0, "PROFONDITA": 0.0, "DIAMETRO_1": null, "N_DI_POZZI": 0.0, "MIS_PORTAT": " ", "STATO_CONS": 0.0, "RECINZIONE": " ", "RISPETTO": " ", "CONC_DERIV": " ", "AUT_SANITA": " ", "FONTE_DATI": " ", "ACCESSIBIL": " ", "DISTRETTO": "SI", "SORGENTE_DATI": "RILIEVO" }, "geometry": { "type": "Point", "coordinates": [ 15.523924949232844, 38.289220081133323, 0.0 ] } },
{ "type": "Feature", "properties": { "DENOMINAZIONE": "Marmora Riviera", "COD_CESPITI": null, "ANNO_C": null, "TIPOLOGIA_COSTR": null, "PORTATA_MEDIA": null, "VOL_ANNO_CIVILE_U": null, "PROF_PRELIEVO": null, "DIAMETRO": null, "N_POZZI": null, "CONCESSIONE": null, "CONCESS_STATO": null, "PORTATA_CONCESSA": null, "COD_BACINO_IDRO": null, "COD_ACQUIF": null, "ZONA_TUTELA": null, "ZONA_RISPETTO": null, "ACCESSIBILE": "Accessibile attraverso strada sterrata su torrente", "STRUMENTI_M": null, "STRUMENTI_M_TIPO": null, "TELECONTROLLO": null, "N_POMPE": null, "NOTE": null, "STATO_CONSERVAZIONE": null, "STATO_FUNZIONALITA": null, "COMUNE": null, "N_CIV": null, "UTENTE_CREAZIONE": null, "DATA_INS": null, "OPERATORE": null, "DATA_AGG": null, "D_STATO": "Attivo/In esercizio", "IDGIS": null, "PORTING_CLASSE": null, "PORTING_ID": null, "POINT_X": 542050.7485, "POINT_Y": 4234961.3273, "ANGLE": null, "PRGA": "SI", "LINK": "\\\\NAS-SERVER3\\Dati3\\AMAM\\_IMPIANTI\\IMPIANTI\\POZZI\\PO_MARMORA_RIVIERA", "PREVALENZA": null, "TIPO_DISINF": null, "VIA_DENOMINAZIONE": null, "PORTATA_MAX_P": null, "GlobalID": "{D4FEEA6E-AB37-49DD-A0C4-DDDB4C88139E}", "COD_PRGA": "19ME00G0049P0025", "COMPRENSOR": null, "COD_COMUNE": null, "COD_GESTOR": null, "name": "Messina P0025", "DENOMINAZI": null, "UBIC_COM": null, "POZZI_UBIC_LOC": null, "ALIMENTAZI": null, "Utenza": null, "Q_MED": null, "UTILIZZO": null, "VOLUME_MED": null, "ENTRATA_ES": null, "IN_ESERCIZ": null, "QUOTA_PREL": null, "PROFONDITA": null, "DIAMETRO_1": null, "N_DI_POZZI": null, "MIS_PORTAT": null, "STATO_CONS": null, "RECINZIONE": null, "RISPETTO": null, "CONC_DERIV": null, "AUT_SANITA": null, "FONTE_DATI": null, "ACCESSIBIL": null, "DISTRETTO": null, "SORGENTE_DATI": "RILIEVO" }, "geometry": { "type": "Point", "coordinates": [ 15.480664326239117, 38.261702446375537, 0.0 ] } },
{ "type": "Feature", "properties": { "DENOMINAZIONE": "Mili San Pietro", "COD_CESPITI": "MSP_P01", "ANNO_C": null, "TIPOLOGIA_COSTR": null, "PORTATA_MEDIA": null, "VOL_ANNO_CIVILE_U": null, "PROF_PRELIEVO": null, "DIAMETRO": null, "N_POZZI": null, "CONCESSIONE": null, "CONCESS_STATO": null, "PORTATA_CONCESSA": null, "COD_BACINO_IDRO": null, "COD_ACQUIF": null, "ZONA_TUTELA": null, "ZONA_RISPETTO": null, "ACCESSIBILE": null, "STRUMENTI_M": null, "STRUMENTI_M_TIPO": null, "TELECONTROLLO": null, "N_POMPE": null, "NOTE": null, "STATO_CONSERVAZIONE": null, "STATO_FUNZIONALITA": null, "COMUNE": null, "N_CIV": null, "UTENTE_CREAZIONE": null, "DATA_INS": null, "OPERATORE": null, "DATA_AGG": null, "D_STATO": "Attivo/In esercizio", "IDGIS": null, "PORTING_CLASSE": null, "PORTING_ID": null, "POINT_X": 542194.4287, "POINT_Y": 4220132.7311000004, "ANGLE": null, "PRGA": "SI", "LINK": null, "PREVALENZA": null, "TIPO_DISINF": null, "VIA_DENOMINAZIONE": null, "PORTATA_MAX_P": null, "GlobalID": "{7E57E202-5520-4E0E-9CB0-CB26B96D4DCE}", "COD_PRGA": "19ME00G0049P0029", "COMPRENSOR": 8.0, "COD_COMUNE": 83048.0, "COD_GESTOR": "G0049", "name": null, "DENOMINAZI": "Mili San Pietro", "UBIC_COM": "Messina", "POZZI_UBIC_LOC": "Mili San Pietro", "ALIMENTAZI": null, "Utenza": null, "Q_MED": null, "UTILIZZO": null, "VOLUME_MED": null, "ENTRATA_ES": null, "IN_ESERCIZ": null, "QUOTA_PREL": null, "PROFONDITA": null, "DIAMETRO_1": null, "N_DI_POZZI": null, "MIS_PORTAT": null, "STATO_CONS": null, "RECINZIONE": null, "RISPETTO": null, "CONC_DERIV": null, "AUT_SANITA": null, "FONTE_DATI": null, "ACCESSIBIL": null, "DISTRETTO": "SI", "SORGENTE_DATI": "RILIEVO" }, "geometry": { "type": "Point", "coordinates": [ 15.481425982825858, 38.128056233636201, 290.0 ] } },
{ "type": "Feature", "properties": { "DENOMINAZIONE": "Tarantino 3", "COD_CESPITI": null, "ANNO_C": null, "TIPOLOGIA_COSTR": null, "PORTATA_MEDIA": null, "VOL_ANNO_CIVILE_U": null, "PROF_PRELIEVO": null, "DIAMETRO": null, "N_POZZI": null, "CONCESSIONE": null, "CONCESS_STATO": null, "PORTATA_CONCESSA": null, "COD_BACINO_IDRO": null, "COD_ACQUIF": null, "ZONA_TUTELA": null, "ZONA_RISPETTO": null, "ACCESSIBILE": null, "STRUMENTI_M": null, "STRUMENTI_M_TIPO": null, "TELECONTROLLO": null, "N_POMPE": null, "NOTE": null, "STATO_CONSERVAZIONE": null, "STATO_FUNZIONALITA": null, "COMUNE": null, "N_CIV": null, "UTENTE_CREAZIONE": null, "DATA_INS": null, "OPERATORE": null, "DATA_AGG": null, "D_STATO": "Attivo/In esercizio", "IDGIS": null, "PORTING_CLASSE": null, "PORTING_ID": null, "POINT_X": 540928.9758, "POINT_Y": 4234650.3482, "ANGLE": null, "PRGA": "SI", "LINK": "\\\\NAS-SERVER3\\Dati3\\AMAM\\_IMPIANTI\\IMPIANTI\\POZZI\\PO_TARANTONIO_3", "PREVALENZA": null, "TIPO_DISINF": null, "VIA_DENOMINAZIONE": null, "PORTATA_MAX_P": null, "GlobalID": "{5B42097D-7118-446C-9EB0-81AF8570EAFB}", "COD_PRGA": "19ME00G0049P0041", "COMPRENSOR": 8.0, "COD_COMUNE": null, "COD_GESTOR": null, "name": null, "DENOMINAZI": null, "UBIC_COM": null, "POZZI_UBIC_LOC": null, "ALIMENTAZI": null, "Utenza": null, "Q_MED": null, "UTILIZZO": null, "VOLUME_MED": null, "ENTRATA_ES": null, "IN_ESERCIZ": null, "QUOTA_PREL": null, "PROFONDITA": null, "DIAMETRO_1": null, "N_DI_POZZI": null, "MIS_PORTAT": null, "STATO_CONS": null, "RECINZIONE": null, "RISPETTO": null, "CONC_DERIV": null, "AUT_SANITA": null, "FONTE_DATI": null, "ACCESSIBIL": null, "DISTRETTO": "SI", "SORGENTE_DATI": "RILIEVO" }, "geometry": { "type": "Point", "coordinates": [ 15.467824244553865, 38.258951661575772, 0.0 ] } },
{ "type": "Feature", "properties": { "DENOMINAZIONE": "Corsari 3", "COD_CESPITI": null, "ANNO_C": null, "TIPOLOGIA_COSTR": null, "PORTATA_MEDIA": null, "VOL_ANNO_CIVILE_U": null, "PROF_PRELIEVO": null, "DIAMETRO": null, "N_POZZI": null, "CONCESSIONE": null, "CONCESS_STATO": null, "PORTATA_CONCESSA": null, "COD_BACINO_IDRO": null, "COD_ACQUIF": null, "ZONA_TUTELA": null, "ZONA_RISPETTO": null, "ACCESSIBILE": null, "STRUMENTI_M": null, "STRUMENTI_M_TIPO": null, "TELECONTROLLO": null, "N_POMPE": null, "NOTE": null, "STATO_CONSERVAZIONE": null, "STATO_FUNZIONALITA": null, "COMUNE": null, "N_CIV": null, "UTENTE_CREAZIONE": null, "DATA_INS": null, "OPERATORE": null, "DATA_AGG": null, "D_STATO": "Attivo/In esercizio", "IDGIS": null, "PORTING_CLASSE": null, "PORTING_ID": null, "POINT_X": 548160.5649, "POINT_Y": 4237729.628, "ANGLE": null, "PRGA": null, "LINK": null, "PREVALENZA": null, "TIPO_DISINF": null, "VIA_DENOMINAZIONE": null, "PORTATA_MAX_P": null, "GlobalID": "{395D2EA0-B097-4A2B-93FC-F624E8E0A616}", "COD_PRGA": null, "COMPRENSOR": null, "COD_COMUNE": null, "COD_GESTOR": null, "name": null, "DENOMINAZI": null, "UBIC_COM": null, "POZZI_UBIC_LOC": null, "ALIMENTAZI": null, "Utenza": null, "Q_MED": null, "UTILIZZO": null, "VOLUME_MED": null, "ENTRATA_ES": null, "IN_ESERCIZ": null, "QUOTA_PREL": null, "PROFONDITA": null, "DIAMETRO_1": null, "N_DI_POZZI": null, "MIS_PORTAT": null, "STATO_CONS": null, "RECINZIONE": null, "RISPETTO": null, "CONC_DERIV": null, "AUT_SANITA": null, "FONTE_DATI": null, "ACCESSIBIL": null, "DISTRETTO": null, "SORGENTE_DATI": "RILIEVO" }, "geometry": { "type": "Point", "coordinates": [ 15.550688648276234, 38.286343703946912, 0.0 ] } },
{ "type": "Feature", "properties": { "DENOMINAZIONE": "Torrente Guardia", "COD_CESPITI": null, "ANNO_C": null, "TIPOLOGIA_COSTR": null, "PORTATA_MEDIA": null, "VOL_ANNO_CIVILE_U": null, "PROF_PRELIEVO": null, "DIAMETRO": null, "N_POZZI": null, "CONCESSIONE": null, "CONCESS_STATO": null, "PORTATA_CONCESSA": null, "COD_BACINO_IDRO": null, "COD_ACQUIF": null, "ZONA_TUTELA": null, "ZONA_RISPETTO": null, "ACCESSIBILE": null, "STRUMENTI_M": null, "STRUMENTI_M_TIPO": null, "TELECONTROLLO": null, "N_POMPE": null, "NOTE": "NON IN FUZIONE", "STATO_CONSERVAZIONE": null, "STATO_FUNZIONALITA": null, "COMUNE": null, "N_CIV": null, "UTENTE_CREAZIONE": null, "DATA_INS": null, "OPERATORE": null, "DATA_AGG": null, "D_STATO": "Attivo/In esercizio", "IDGIS": null, "PORTING_CLASSE": null, "PORTING_ID": null, "POINT_X": 551311.8148000001, "POINT_Y": 4233918.9836999997, "ANGLE": null, "PRGA": null, "LINK": null, "PREVALENZA": null, "TIPO_DISINF": null, "VIA_DENOMINAZIONE": null, "PORTATA_MAX_P": null, "GlobalID": "{4FB4C59F-CEA7-47F3-B13F-DAF9D916AA81}", "COD_PRGA": "19ME00G0049P0010", "COMPRENSOR": 8.0, "COD_COMUNE": 83048.0, "COD_GESTOR": "G0049", "name": "Messina P0010", "DENOMINAZI": "Torrente Guardia", "UBIC_COM": null, "POZZI_UBIC_LOC": "Torrente Guardia ", "ALIMENTAZI": null, "Utenza": null, "Q_MED": null, "UTILIZZO": null, "VOLUME_MED": null, "ENTRATA_ES": null, "IN_ESERCIZ": null, "QUOTA_PREL": null, "PROFONDITA": null, "DIAMETRO_1": null, "N_DI_POZZI": 1.0, "MIS_PORTAT": null, "STATO_CONS": null, "RECINZIONE": null, "RISPETTO": null, "CONC_DERIV": null, "AUT_SANITA": null, "FONTE_DATI": null, "ACCESSIBIL": null, "DISTRETTO": null, "SORGENTE_DATI": "RILIEVO" }, "geometry": { "type": "Point", "coordinates": [ 15.58644348881352, 38.251827470922152, 93.80000000000291 ] } },
{ "type": "Feature", "properties": { "DENOMINAZIONE": "Nuovo Trimarchi", "COD_CESPITI": null, "ANNO_C": null, "TIPOLOGIA_COSTR": null, "PORTATA_MEDIA": null, "VOL_ANNO_CIVILE_U": null, "PROF_PRELIEVO": null, "DIAMETRO": null, "N_POZZI": null, "CONCESSIONE": null, "CONCESS_STATO": null, "PORTATA_CONCESSA": null, "COD_BACINO_IDRO": null, "COD_ACQUIF": null, "ZONA_TUTELA": null, "ZONA_RISPETTO": null, "ACCESSIBILE": null, "STRUMENTI_M": null, "STRUMENTI_M_TIPO": null, "TELECONTROLLO": null, "N_POMPE": null, "NOTE": null, "STATO_CONSERVAZIONE": null, "STATO_FUNZIONALITA": null, "COMUNE": null, "N_CIV": null, "UTENTE_CREAZIONE": null, "DATA_INS": null, "OPERATORE": null, "DATA_AGG": null, "D_STATO": "Attivo/In esercizio", "IDGIS": null, "PORTING_CLASSE": null, "PORTING_ID": null, "POINT_X": 552515.6887000001, "POINT_Y": 4235019.7100999998, "ANGLE": null, "PRGA": null, "LINK": null, "PREVALENZA": null, "TIPO_DISINF": null, "VIA_DENOMINAZIONE": null, "PORTATA_MAX_P": null, "GlobalID": "{CCC01814-2BDB-4B11-8574-A8F1321910E6}", "COD_PRGA": null, "COMPRENSOR": null, "COD_COMUNE": null, "COD_GESTOR": null, "name": null, "DENOMINAZI": null, "UBIC_COM": null, "POZZI_UBIC_LOC": null, "ALIMENTAZI": null, "Utenza": null, "Q_MED": null, "UTILIZZO": null, "VOLUME_MED": null, "ENTRATA_ES": null, "IN_ESERCIZ": null, "QUOTA_PREL": null, "PROFONDITA": null, "DIAMETRO_1": null, "N_DI_POZZI": null, "MIS_PORTAT": null, "STATO_CONS": null, "RECINZIONE": null, "RISPETTO": null, "CONC_DERIV": null, "AUT_SANITA": null, "FONTE_DATI": null, "ACCESSIBIL": null, "DISTRETTO": null, "SORGENTE_DATI": "RILIEVO" }, "geometry": { "type": "Point", "coordinates": [ 15.600283500612123, 38.261677667326133, 106.30000000000291 ] } },
{ "type": "Feature", "properties": { "DENOMINAZIONE": "Papardo", "COD_CESPITI": null, "ANNO_C": null, "TIPOLOGIA_COSTR": null, "PORTATA_MEDIA": null, "VOL_ANNO_CIVILE_U": null, "PROF_PRELIEVO": null, "DIAMETRO": null, "N_POZZI": null, "CONCESSIONE": null, "CONCESS_STATO": null, "PORTATA_CONCESSA": null, "COD_BACINO_IDRO": null, "COD_ACQUIF": null, "ZONA_TUTELA": null, "ZONA_RISPETTO": null, "ACCESSIBILE": null, "STRUMENTI_M": null, "STRUMENTI_M_TIPO": null, "TELECONTROLLO": null, "N_POMPE": null, "NOTE": null, "STATO_CONSERVAZIONE": null, "STATO_FUNZIONALITA": null, "COMUNE": null, "N_CIV": null, "UTENTE_CREAZIONE": null, "DATA_INS": null, "OPERATORE": null, "DATA_AGG": null, "D_STATO": "Attivo/In esercizio", "IDGIS": null, "PORTING_CLASSE": null, "PORTING_ID": null, "POINT_X": 552272.4079, "POINT_Y": 4235072.008, "ANGLE": null, "PRGA": null, "LINK": null, "PREVALENZA": null, "TIPO_DISINF": null, "VIA_DENOMINAZIONE": null, "PORTATA_MAX_P": null, "GlobalID": "{597A67E0-584C-4116-BDDE-1DC9AB41A7EF}", "COD_PRGA": null, "COMPRENSOR": null, "COD_COMUNE": null, "COD_GESTOR": null, "name": null, "DENOMINAZI": null, "UBIC_COM": null, "POZZI_UBIC_LOC": null, "ALIMENTAZI": null, "Utenza": null, "Q_MED": null, "UTILIZZO": 0.0, "VOLUME_MED": null, "ENTRATA_ES": null, "IN_ESERCIZ": null, "QUOTA_PREL": null, "PROFONDITA": null, "DIAMETRO_1": null, "N_DI_POZZI": null, "MIS_PORTAT": null, "STATO_CONS": 1.0, "RECINZIONE": null, "RISPETTO": null, "CONC_DERIV": null, "AUT_SANITA": null, "FONTE_DATI": null, "ACCESSIBIL": null, "DISTRETTO": null, "SORGENTE_DATI": "RILIEVO" }, "geometry": { "type": "Point", "coordinates": [ 15.597506666385417, 38.262163168216745, 117.5 ] } },
{ "type": "Feature", "properties": { "DENOMINAZIONE": "Cucinotta", "COD_CESPITI": "MSM_P01", "ANNO_C": null, "TIPOLOGIA_COSTR": null, "PORTATA_MEDIA": null, "VOL_ANNO_CIVILE_U": null, "PROF_PRELIEVO": null, "DIAMETRO": null, "N_POZZI": null, "CONCESSIONE": null, "CONCESS_STATO": null, "PORTATA_CONCESSA": null, "COD_BACINO_IDRO": null, "COD_ACQUIF": null, "ZONA_TUTELA": null, "ZONA_RISPETTO": null, "ACCESSIBILE": null, "STRUMENTI_M": null, "STRUMENTI_M_TIPO": null, "TELECONTROLLO": null, "N_POMPE": null, "NOTE": "bisogna parlare con Amam per aprire", "STATO_CONSERVAZIONE": null, "STATO_FUNZIONALITA": null, "COMUNE": null, "N_CIV": null, "UTENTE_CREAZIONE": null, "DATA_INS": null, "OPERATORE": null, "DATA_AGG": null, "D_STATO": "Attivo/In esercizio", "IDGIS": null, "PORTING_CLASSE": null, "PORTING_ID": null, "POINT_X": 544998.6112, "POINT_Y": 4219167.3169, "ANGLE": null, "PRGA": null, "LINK": null, "PREVALENZA": null, "TIPO_DISINF": null, "VIA_DENOMINAZIONE": null, "PORTATA_MAX_P": null, "GlobalID": "{AD4199AE-DA04-4203-9709-C4941D776705}", "COD_PRGA": null, "COMPRENSOR": null, "COD_COMUNE": null, "COD_GESTOR": null, "name": null, "DENOMINAZI": null, "UBIC_COM": null, "POZZI_UBIC_LOC": null, "ALIMENTAZI": null, "Utenza": null, "Q_MED": null, "UTILIZZO": null, "VOLUME_MED": null, "ENTRATA_ES": null, "IN_ESERCIZ": null, "QUOTA_PREL": null, "PROFONDITA": null, "DIAMETRO_1": null, "N_DI_POZZI": null, "MIS_PORTAT": null, "STATO_CONS": null, "RECINZIONE": null, "RISPETTO": null, "CONC_DERIV": null, "AUT_SANITA": null, "FONTE_DATI": null, "ACCESSIBIL": null, "DISTRETTO": null, "SORGENTE_DATI": "RILIEVO" }, "geometry": { "type": "Point", "coordinates": [ 15.513358801391076, 38.119220116459175, 0.0 ] } },
{ "type": "Feature", "properties": { "DENOMINAZIONE": "Busà", "COD_CESPITI": "MSM_P02", "ANNO_C": null, "TIPOLOGIA_COSTR": null, "PORTATA_MEDIA": null, "VOL_ANNO_CIVILE_U": null, "PROF_PRELIEVO": null, "DIAMETRO": null, "N_POZZI": null, "CONCESSIONE": null, "CONCESS_STATO": null, "PORTATA_CONCESSA": null, "COD_BACINO_IDRO": null, "COD_ACQUIF": null, "ZONA_TUTELA": null, "ZONA_RISPETTO": null, "ACCESSIBILE": null, "STRUMENTI_M": null, "STRUMENTI_M_TIPO": null, "TELECONTROLLO": null, "N_POMPE": null, "NOTE": "mancano chiavi", "STATO_CONSERVAZIONE": null, "STATO_FUNZIONALITA": null, "COMUNE": null, "N_CIV": null, "UTENTE_CREAZIONE": null, "DATA_INS": null, "OPERATORE": null, "DATA_AGG": null, "D_STATO": "Attivo/In esercizio", "IDGIS": null, "PORTING_CLASSE": null, "PORTING_ID": null, "POINT_X": 544902.1422, "POINT_Y": 4219177.732, "ANGLE": null, "PRGA": null, "LINK": null, "PREVALENZA": null, "TIPO_DISINF": null, "VIA_DENOMINAZIONE": null, "PORTATA_MAX_P": null, "GlobalID": "{9879C7C1-F256-464A-B204-A8C004C7F08D}", "COD_PRGA": null, "COMPRENSOR": null, "COD_COMUNE": null, "COD_GESTOR": null, "name": null, "DENOMINAZI": null, "UBIC_COM": null, "POZZI_UBIC_LOC": null, "ALIMENTAZI": null, "Utenza": null, "Q_MED": null, "UTILIZZO": null, "VOLUME_MED": null, "ENTRATA_ES": null, "IN_ESERCIZ": null, "QUOTA_PREL": null, "PROFONDITA": null, "DIAMETRO_1": null, "N_DI_POZZI": null, "MIS_PORTAT": null, "STATO_CONS": null, "RECINZIONE": null, "RISPETTO": null, "CONC_DERIV": null, "AUT_SANITA": null, "FONTE_DATI": null, "ACCESSIBIL": null, "DISTRETTO": null, "SORGENTE_DATI": "RILIEVO" }, "geometry": { "type": "Point", "coordinates": [ 15.512258948019957, 38.119318784641209, 0.0 ] } },
{ "type": "Feature", "properties": { "DENOMINAZIONE": "Oteri", "COD_CESPITI": "MSM_P03", "ANNO_C": null, "TIPOLOGIA_COSTR": null, "PORTATA_MEDIA": null, "VOL_ANNO_CIVILE_U": null, "PROF_PRELIEVO": null, "DIAMETRO": null, "N_POZZI": null, "CONCESSIONE": null, "CONCESS_STATO": null, "PORTATA_CONCESSA": null, "COD_BACINO_IDRO": null, "COD_ACQUIF": null, "ZONA_TUTELA": null, "ZONA_RISPETTO": null, "ACCESSIBILE": null, "STRUMENTI_M": null, "STRUMENTI_M_TIPO": null, "TELECONTROLLO": null, "N_POMPE": null, "NOTE": "mancano chiavi", "STATO_CONSERVAZIONE": null, "STATO_FUNZIONALITA": null, "COMUNE": null, "N_CIV": null, "UTENTE_CREAZIONE": null, "DATA_INS": null, "OPERATORE": null, "DATA_AGG": null, "D_STATO": "Attivo/In esercizio", "IDGIS": null, "PORTING_CLASSE": null, "PORTING_ID": null, "POINT_X": 544681.3733, "POINT_Y": 4219118.9714000002, "ANGLE": null, "PRGA": null, "LINK": null, "PREVALENZA": null, "TIPO_DISINF": null, "VIA_DENOMINAZIONE": null, "PORTATA_MAX_P": null, "GlobalID": "{E9E5C248-08F5-416C-A29F-EF8D0BAEE83F}", "COD_PRGA": null, "COMPRENSOR": null, "COD_COMUNE": null, "COD_GESTOR": null, "name": null, "DENOMINAZI": null, "UBIC_COM": null, "POZZI_UBIC_LOC": null, "ALIMENTAZI": null, "Utenza": null, "Q_MED": null, "UTILIZZO": null, "VOLUME_MED": null, "ENTRATA_ES": null, "IN_ESERCIZ": null, "QUOTA_PREL": null, "PROFONDITA": null, "DIAMETRO_1": null, "N_DI_POZZI": null, "MIS_PORTAT": null, "STATO_CONS": null, "RECINZIONE": null, "RISPETTO": null, "CONC_DERIV": null, "AUT_SANITA": null, "FONTE_DATI": null, "ACCESSIBIL": null, "DISTRETTO": null, "SORGENTE_DATI": "RILIEVO" }, "geometry": { "type": "Point", "coordinates": [ 15.509736751825001, 38.118800167249923, 0.0 ] } },
{ "type": "Feature", "properties": { "DENOMINAZIONE": "Briga 1", "COD_CESPITI": null, "ANNO_C": null, "TIPOLOGIA_COSTR": null, "PORTATA_MEDIA": null, "VOL_ANNO_CIVILE_U": null, "PROF_PRELIEVO": null, "DIAMETRO": null, "N_POZZI": null, "CONCESSIONE": null, "CONCESS_STATO": null, "PORTATA_CONCESSA": null, "COD_BACINO_IDRO": null, "COD_ACQUIF": null, "ZONA_TUTELA": null, "ZONA_RISPETTO": null, "ACCESSIBILE": null, "STRUMENTI_M": null, "STRUMENTI_M_TIPO": null, "TELECONTROLLO": null, "N_POMPE": null, "NOTE": null, "STATO_CONSERVAZIONE": null, "STATO_FUNZIONALITA": null, "COMUNE": null, "N_CIV": null, "UTENTE_CREAZIONE": null, "DATA_INS": null, "OPERATORE": null, "DATA_AGG": null, "D_STATO": "Attivo/In esercizio", "IDGIS": null, "PORTING_CLASSE": null, "PORTING_ID": null, "POINT_X": 542468.0371, "POINT_Y": 4214093.2136000004, "ANGLE": null, "PRGA": null, "LINK": null, "PREVALENZA": null, "TIPO_DISINF": null, "VIA_DENOMINAZIONE": null, "PORTATA_MAX_P": null, "GlobalID": "{81A450B8-A61F-472A-A8EB-6BB849FCBC8F}", "COD_PRGA": null, "COMPRENSOR": null, "COD_COMUNE": null, "COD_GESTOR": null, "name": null, "DENOMINAZI": null, "UBIC_COM": null, "POZZI_UBIC_LOC": null, "ALIMENTAZI": null, "Utenza": null, "Q_MED": null, "UTILIZZO": null, "VOLUME_MED": null, "ENTRATA_ES": null, "IN_ESERCIZ": null, "QUOTA_PREL": null, "PROFONDITA": null, "DIAMETRO_1": null, "N_DI_POZZI": null, "MIS_PORTAT": null, "STATO_CONS": null, "RECINZIONE": null, "RISPETTO": null, "CONC_DERIV": null, "AUT_SANITA": null, "FONTE_DATI": null, "ACCESSIBIL": null, "DISTRETTO": null, "SORGENTE_DATI": "RILIEVO" }, "geometry": { "type": "Point", "coordinates": [ 15.484188350136161, 38.073612717358053, 71.100000000005821 ] } },
{ "type": "Feature", "properties": { "DENOMINAZIONE": "Briga 2", "COD_CESPITI": null, "ANNO_C": null, "TIPOLOGIA_COSTR": null, "PORTATA_MEDIA": null, "VOL_ANNO_CIVILE_U": null, "PROF_PRELIEVO": null, "DIAMETRO": null, "N_POZZI": null, "CONCESSIONE": null, "CONCESS_STATO": null, "PORTATA_CONCESSA": null, "COD_BACINO_IDRO": null, "COD_ACQUIF": null, "ZONA_TUTELA": null, "ZONA_RISPETTO": null, "ACCESSIBILE": null, "STRUMENTI_M": null, "STRUMENTI_M_TIPO": null, "TELECONTROLLO": null, "N_POMPE": null, "NOTE": null, "STATO_CONSERVAZIONE": null, "STATO_FUNZIONALITA": null, "COMUNE": null, "N_CIV": null, "UTENTE_CREAZIONE": null, "DATA_INS": null, "OPERATORE": null, "DATA_AGG": null, "D_STATO": "Attivo/In esercizio", "IDGIS": null, "PORTING_CLASSE": null, "PORTING_ID": null, "POINT_X": 542451.3185000001, "POINT_Y": 4214021.2132000001, "ANGLE": null, "PRGA": null, "LINK": null, "PREVALENZA": null, "TIPO_DISINF": null, "VIA_DENOMINAZIONE": null, "PORTATA_MAX_P": null, "GlobalID": "{C53139B0-B3AA-448C-9AD0-01A8EFFB43FC}", "COD_PRGA": null, "COMPRENSOR": null, "COD_COMUNE": null, "COD_GESTOR": null, "name": null, "DENOMINAZI": null, "UBIC_COM": null, "POZZI_UBIC_LOC": null, "ALIMENTAZI": null, "Utenza": null, "Q_MED": null, "UTILIZZO": null, "VOLUME_MED": null, "ENTRATA_ES": null, "IN_ESERCIZ": null, "QUOTA_PREL": null, "PROFONDITA": null, "DIAMETRO_1": null, "N_DI_POZZI": null, "MIS_PORTAT": null, "STATO_CONS": null, "RECINZIONE": null, "RISPETTO": null, "CONC_DERIV": null, "AUT_SANITA": null, "FONTE_DATI": null, "ACCESSIBIL": null, "DISTRETTO": null, "SORGENTE_DATI": "RILIEVO" }, "geometry": { "type": "Point", "coordinates": [ 15.483993467467693, 38.072964601348424, 78.399999999994179 ] } },
{ "type": "Feature", "properties": { "DENOMINAZIONE": "Torrerossa", "COD_CESPITI": null, "ANNO_C": null, "TIPOLOGIA_COSTR": null, "PORTATA_MEDIA": null, "VOL_ANNO_CIVILE_U": null, "PROF_PRELIEVO": null, "DIAMETRO": null, "N_POZZI": null, "CONCESSIONE": null, "CONCESS_STATO": null, "PORTATA_CONCESSA": null, "COD_BACINO_IDRO": null, "COD_ACQUIF": null, "ZONA_TUTELA": null, "ZONA_RISPETTO": null, "ACCESSIBILE": null, "STRUMENTI_M": null, "STRUMENTI_M_TIPO": null, "TELECONTROLLO": null, "N_POMPE": null, "NOTE": null, "STATO_CONSERVAZIONE": null, "STATO_FUNZIONALITA": null, "COMUNE": null, "N_CIV": null, "UTENTE_CREAZIONE": null, "DATA_INS": null, "OPERATORE": null, "DATA_AGG": null, "D_STATO": "Attivo/In esercizio", "IDGIS": null, "PORTING_CLASSE": null, "PORTING_ID": null, "POINT_X": 516977.0815, "POINT_Y": 4183425.607, "ANGLE": null, "PRGA": null, "LINK": null, "PREVALENZA": null, "TIPO_DISINF": null, "VIA_DENOMINAZIONE": null, "PORTATA_MAX_P": null, "GlobalID": "{88B0B65A-2D51-4E44-B9E2-3259DFD49A5E}", "COD_PRGA": null, "COMPRENSOR": null, "COD_COMUNE": null, "COD_GESTOR": null, "name": null, "DENOMINAZI": null, "UBIC_COM": null, "POZZI_UBIC_LOC": null, "ALIMENTAZI": null, "Utenza": null, "Q_MED": null, "UTILIZZO": null, "VOLUME_MED": null, "ENTRATA_ES": null, "IN_ESERCIZ": null, "QUOTA_PREL": null, "PROFONDITA": null, "DIAMETRO_1": null, "N_DI_POZZI": null, "MIS_PORTAT": null, "STATO_CONS": null, "RECINZIONE": null, "RISPETTO": null, "CONC_DERIV": null, "AUT_SANITA": null, "FONTE_DATI": null, "ACCESSIBIL": null, "DISTRETTO": null, "SORGENTE_DATI": "RILIEVO" }, "geometry": { "type": "Point", "coordinates": [ 15.192838995104148, 37.798045169031084, 0.0 ] } },
{ "type": "Feature", "properties": { "DENOMINAZIONE": null, "COD_CESPITI": null, "ANNO_C": null, "TIPOLOGIA_COSTR": null, "PORTATA_MEDIA": null, "VOL_ANNO_CIVILE_U": null, "PROF_PRELIEVO": null, "DIAMETRO": null, "N_POZZI": null, "CONCESSIONE": null, "CONCESS_STATO": null, "PORTATA_CONCESSA": null, "COD_BACINO_IDRO": null, "COD_ACQUIF": null, "ZONA_TUTELA": null, "ZONA_RISPETTO": null, "ACCESSIBILE": null, "STRUMENTI_M": null, "STRUMENTI_M_TIPO": null, "TELECONTROLLO": null, "N_POMPE": null, "NOTE": null, "STATO_CONSERVAZIONE": null, "STATO_FUNZIONALITA": null, "COMUNE": null, "N_CIV": null, "UTENTE_CREAZIONE": null, "DATA_INS": null, "OPERATORE": null, "DATA_AGG": null, "D_STATO": "Attivo/In esercizio", "IDGIS": null, "PORTING_CLASSE": null, "PORTING_ID": null, "POINT_X": 516705.9576, "POINT_Y": 4183191.8098, "ANGLE": null, "PRGA": null, "LINK": null, "PREVALENZA": null, "TIPO_DISINF": null, "VIA_DENOMINAZIONE": null, "PORTATA_MAX_P": null, "GlobalID": "{A26A3A7C-87DF-429F-9802-87F38CE19BE5}", "COD_PRGA": null, "COMPRENSOR": null, "COD_COMUNE": null, "COD_GESTOR": null, "name": null, "DENOMINAZI": null, "UBIC_COM": null, "POZZI_UBIC_LOC": null, "ALIMENTAZI": null, "Utenza": null, "Q_MED": null, "UTILIZZO": null, "VOLUME_MED": null, "ENTRATA_ES": null, "IN_ESERCIZ": null, "QUOTA_PREL": null, "PROFONDITA": null, "DIAMETRO_1": null, "N_DI_POZZI": null, "MIS_PORTAT": null, "STATO_CONS": null, "RECINZIONE": null, "RISPETTO": null, "CONC_DERIV": null, "AUT_SANITA": null, "FONTE_DATI": null, "ACCESSIBIL": null, "DISTRETTO": null, "SORGENTE_DATI": "RILIEVO" }, "geometry": { "type": "Point", "coordinates": [ 15.189753982846829, 37.795942917427375, 177.30000000000291 ] } },
{ "type": "Feature", "properties": { "DENOMINAZIONE": null, "COD_CESPITI": null, "ANNO_C": null, "TIPOLOGIA_COSTR": null, "PORTATA_MEDIA": null, "VOL_ANNO_CIVILE_U": null, "PROF_PRELIEVO": null, "DIAMETRO": null, "N_POZZI": null, "CONCESSIONE": null, "CONCESS_STATO": null, "PORTATA_CONCESSA": null, "COD_BACINO_IDRO": null, "COD_ACQUIF": null, "ZONA_TUTELA": null, "ZONA_RISPETTO": null, "ACCESSIBILE": null, "STRUMENTI_M": null, "STRUMENTI_M_TIPO": null, "TELECONTROLLO": null, "N_POMPE": null, "NOTE": "Dismesso", "STATO_CONSERVAZIONE": null, "STATO_FUNZIONALITA": null, "COMUNE": null, "N_CIV": null, "UTENTE_CREAZIONE": null, "DATA_INS": null, "OPERATORE": null, "DATA_AGG": null, "D_STATO": "Attivo/In esercizio", "IDGIS": null, "PORTING_CLASSE": null, "PORTING_ID": null, "POINT_X": 541655.7583, "POINT_Y": 4230995.8235, "ANGLE": null, "PRGA": null, "LINK": null, "PREVALENZA": null, "TIPO_DISINF": null, "VIA_DENOMINAZIONE": null, "PORTATA_MAX_P": null, "GlobalID": "{EFD05F95-0D5A-499E-A01E-4CB197B5FCAE}", "COD_PRGA": null, "COMPRENSOR": null, "COD_COMUNE": null, "COD_GESTOR": null, "name": null, "DENOMINAZI": null, "UBIC_COM": null, "POZZI_UBIC_LOC": null, "ALIMENTAZI": null, "Utenza": null, "Q_MED": null, "UTILIZZO": null, "VOLUME_MED": null, "ENTRATA_ES": null, "IN_ESERCIZ": null, "QUOTA_PREL": null, "PROFONDITA": null, "DIAMETRO_1": null, "N_DI_POZZI": null, "MIS_PORTAT": null, "STATO_CONS": null, "RECINZIONE": null, "RISPETTO": null, "CONC_DERIV": null, "AUT_SANITA": null, "FONTE_DATI": null, "ACCESSIBIL": null, "DISTRETTO": null, "SORGENTE_DATI": "RILIEVO" }, "geometry": { "type": "Point", "coordinates": [ 15.475916444666442, 38.225982887150728, 0.0 ] } }
]
}
