{
"type": "FeatureCollection",
"name": "SOLLEVAMENTO",
"crs": { "type": "name", "properties": { "name": "urn:ogc:def:crs:OGC:1.3:CRS84" } },
"features": [
{ "type": "Feature", "properties": { "COD_CESPITI": "GM_IS01", "DENOMINAZIONE": "Giampilieri", "VIA_LOCALITA": null, "A_INIZIO_ESERC": null, "STRUMENTI_M": null, "STRUMENTI_M_TIPO": null, "TELECONTROLLO": null, "PORTATA_MAX_P": null, "PORTATA_MEDIA_E": null, "PORTATA_MAX_E": null, "PROTEZ_C_ARIETE": null, "Q_PL_VASCA_CARICO": null, "CAPACITA_VASCA_C": null, "DISLIVELLO": null, "POTENZA_TOT_IMP": null, "TM_FUNZIONAMENTO": null, "CONSUMO_E": null, "NOTE": " ", "STATO_CONSERVAZIONE": null, "STATO_FUNZIONALITA": null, "COMUNE": "Messina", "N_CIV": null, "UTENTE_CREAZIONE": null, "DATA_INS": null, "OPERATORE": null, "DATA_AGG": null, "D_STATO": "Attivo/In esercizio", "IDGIS": null, "PORTING_CLASSE": null, "PORTING_ID": null, "POINT_X": 541045.6091, "POINT_Y": 4213656.1013000002, "ANGLE": null, "LINK": null, "VIA_DENOMINAZIONE": null, "GlobalID": "{6690300A-E4AD-40DD-B4F7-12E34EE2E44B}", "fid_1": 1.0, "DISTRETTO": "SI", "SORGENTE_DATI": "RILIEVO" }, "geometry": { "type": "Point", "coordinates": [ 15.467977269015794, 38.069754077239431, 0.0 ] } },
{ "type": "Feature", "properties": { "COD_CESPITI": "LA_IS01", "DENOMINAZIONE": "Larderia", "VIA_LOCALITA": null, "A_INIZIO_ESERC": null, "STRUMENTI_M": null, "STRUMENTI_M_TIPO": null, "TELECONTROLLO": null, "PORTATA_MAX_P": null, "PORTATA_MEDIA_E": null, "PORTATA_MAX_E": null, "PROTEZ_C_ARIETE": null, "Q_PL_VASCA_CARICO": null, "CAPACITA_VASCA_C": null, "DISLIVELLO": null, "POTENZA_TOT_IMP": null, "TM_FUNZIONAMENTO": null, "CONSUMO_E": null, "NOTE": " ", "STATO_CONSERVAZIONE": null, "STATO_FUNZIONALITA": null, "COMUNE": "Messina", "N_CIV": null, "UTENTE_CREAZIONE": null, "DATA_INS": null, "OPERATORE": null, "DATA_AGG": null, "D_STATO": "Attivo/In esercizio", "IDGIS": null, "PORTING_CLASSE": null, "PORTING_ID": null, "POINT_X": 544159.6882, "POINT_Y": 4221676.3532999996, "ANGLE": 360.0, "LINK": null, "VIA_DENOMINAZIONE": null, "GlobalID": "{3F2ED359-D00D-4FDD-85ED-1A81E99E5230}", "fid_1": 2.0, "DISTRETTO": null, "SORGENTE_DATI": "RILIEVO" }, "geometry": { "type": "Point", "coordinates": [ 15.503945025240602, 38.141873621810269, 0.0 ] } },
{ "type": "Feature", "properties": { "COD_CESPITI": "ZA_IS01", "DENOMINAZIONE": "Zafferia", "VIA_LOCALITA": null, "A_INIZIO_ESERC": null, "STRUMENTI_M": null, "STRUMENTI_M_TIPO": null, "TELECONTROLLO": null, "PORTATA_MAX_P": null, "PORTATA_MEDIA_E": null, "PORTATA_MAX_E": null, "PROTEZ_C_ARIETE": null, "Q_PL_VASCA_CARICO": null, "CAPACITA_VASCA_C": null, "DISLIVELLO": null, "POTENZA_TOT_IMP": null, "TM_FUNZIONAMENTO": null, "CONSUMO_E": null, "NOTE": " non accessibile ingresso coperto dalla vegetazione", "STATO_CONSERVAZIONE": null, "STATO_FUNZIONALITA": null, "COMUNE": "Messina", "N_CIV": null, "UTENTE_CREAZIONE": null, "DATA_INS": null, "OPERATORE": null, "DATA_AGG": null, "D_STATO": "Attivo/In esercizio", "IDGIS": null, "PORTING_CLASSE": null, "PORTING_ID": null, "POINT_X": 545781.6944, "POINT_Y": 4222096.34, "ANGLE": null, "LINK": null, "VIA_DENOMINAZIONE": null, "GlobalID": "{C6D4C4E8-CDE9-4FCC-92C9-8EA6ED24F88E}", "fid_1": 3.0, "DISTRETTO": null, "SORGENTE_DATI": "RILIEVO" }, "geometry": { "type": "Point", "coordinates": [ 15.522480282613518, 38.145578038569589, 0.0 ] } },
{ "type": "Feature", "properties": { "COD_CESPITI": null, "DENOMINAZIONE": "Gescal", "VIA_LOCALITA": null, "A_INIZIO_ESERC": null, "STRUMENTI_M": null, "STRUMENTI_M_TIPO": null, "TELECONTROLLO": null, "PORTATA_MAX_P": null, "PORTATA_MEDIA_E": null, "PORTATA_MAX_E": null, "PROTEZ_C_ARIETE": null, "Q_PL_VASCA_CARICO": null, "CAPACITA_VASCA_C": null, "DISLIVELLO": null, "POTENZA_TOT_IMP": null, "TM_FUNZIONAMENTO": null, "CONSUMO_E": null, "NOTE": " non rilevato causa camera di manovra  allagata", "STATO_CONSERVAZIONE": null, "STATO_FUNZIONALITA": null, "COMUNE": "Messina", "N_CIV": null, "UTENTE_CREAZIONE": null, "DATA_INS": null, "OPERATORE": null, "DATA_AGG": null, "D_STATO": "Attivo/In esercizio", "IDGIS": null, "PORTING_CLASSE": null, "PORTING_ID": null, "POINT_X": 545485.7199, "POINT_Y": 4225125.7778000003, "ANGLE": null, "LINK": null, "VIA_DENOMINAZIONE": null, "GlobalID": "{5A12A9A2-C75B-4C06-B1E2-3AC5F702AEEB}", "fid_1": 4.0, "DISTRETTO": null, "SORGENTE_DATI": "RILIEVO" }, "geometry": { "type": "Point", "coordinates": [ 15.519296225742719, 38.172895169224027, 0.0 ] } },
{ "type": "Feature", "properties": { "COD_CESPITI": null, "DENOMINAZIONE": "Camaro", "VIA_LOCALITA": null, "A_INIZIO_ESERC": null, "STRUMENTI_M": null, "STRUMENTI_M_TIPO": null, "TELECONTROLLO": null, "PORTATA_MAX_P": null, "PORTATA_MEDIA_E": null, "PORTATA_MAX_E": null, "PROTEZ_C_ARIETE": null, "Q_PL_VASCA_CARICO": null, "CAPACITA_VASCA_C": null, "DISLIVELLO": null, "POTENZA_TOT_IMP": null, "TM_FUNZIONAMENTO": null, "CONSUMO_E": null, "NOTE": " ", "STATO_CONSERVAZIONE": null, "STATO_FUNZIONALITA": null, "COMUNE": "Messina", "N_CIV": null, "UTENTE_CREAZIONE": null, "DATA_INS": null, "OPERATORE": null, "DATA_AGG": null, "D_STATO": "Attivo/In esercizio", "IDGIS": null, "PORTING_CLASSE": null, "PORTING_ID": null, "POINT_X": 546136.6036, "POINT_Y": 4226874.7322000004, "ANGLE": null, "LINK": null, "VIA_DENOMINAZIONE": null, "GlobalID": "{45359737-7040-429F-8EEF-ECF8C874843E}", "fid_1": 5.0, "DISTRETTO": null, "SORGENTE_DATI": "RILIEVO" }, "geometry": { "type": "Point", "coordinates": [ 15.526840364025411, 38.188624072356198, 0.0 ] } },
{ "type": "Feature", "properties": { "COD_CESPITI": null, "DENOMINAZIONE": "AUTOCLAVE CALAMONA", "VIA_LOCALITA": null, "A_INIZIO_ESERC": null, "STRUMENTI_M": null, "STRUMENTI_M_TIPO": null, "TELECONTROLLO": null, "PORTATA_MAX_P": null, "PORTATA_MEDIA_E": null, "PORTATA_MAX_E": null, "PROTEZ_C_ARIETE": null, "Q_PL_VASCA_CARICO": null, "CAPACITA_VASCA_C": null, "DISLIVELLO": null, "POTENZA_TOT_IMP": null, "TM_FUNZIONAMENTO": null, "CONSUMO_E": null, "NOTE": " ", "STATO_CONSERVAZIONE": null, "STATO_FUNZIONALITA": null, "COMUNE": "Messina", "N_CIV": null, "UTENTE_CREAZIONE": null, "DATA_INS": null, "OPERATORE": null, "DATA_AGG": null, "D_STATO": "Attivo/In esercizio", "IDGIS": null, "PORTING_CLASSE": null, "PORTING_ID": null, "POINT_X": 545149.2936, "POINT_Y": 4237399.9062000001, "ANGLE": 360.0, "LINK": null, "VIA_DENOMINAZIONE": null, "GlobalID": "{F791A118-BD31-4F5B-AC1D-4238F2FDAA09}", "fid_1": 8.0, "DISTRETTO": "SI", "SORGENTE_DATI": "RILIEVO" }, "geometry": { "type": "Point", "coordinates": [ 15.516236763458878, 38.283528780771896, 0.0 ] } },
{ "type": "Feature", "properties": { "COD_CESPITI": null, "DENOMINAZIONE": "SOLLEVAMENTO BONACCORSO", "VIA_LOCALITA": null, "A_INIZIO_ESERC": null, "STRUMENTI_M": null, "STRUMENTI_M_TIPO": null, "TELECONTROLLO": null, "PORTATA_MAX_P": null, "PORTATA_MEDIA_E": null, "PORTATA_MAX_E": null, "PROTEZ_C_ARIETE": null, "Q_PL_VASCA_CARICO": null, "CAPACITA_VASCA_C": null, "DISLIVELLO": null, "POTENZA_TOT_IMP": null, "TM_FUNZIONAMENTO": null, "CONSUMO_E": null, "NOTE": " lucchetto bloccato", "STATO_CONSERVAZIONE": null, "STATO_FUNZIONALITA": null, "COMUNE": "Messina", "N_CIV": null, "UTENTE_CREAZIONE": null, "DATA_INS": null, "OPERATORE": null, "DATA_AGG": null, "D_STATO": "Attivo/In esercizio", "IDGIS": null, "PORTING_CLASSE": null, "PORTING_ID": null, "POINT_X": 550190.0223, "POINT_Y": 4232582.9622, "ANGLE": null, "LINK": null, "VIA_DENOMINAZIONE": null, "GlobalID": "{C0685D52-19C2-48C4-A628-E22DA177D6FD}", "fid_1": 9.0, "DISTRETTO": null, "SORGENTE_DATI": "RILIEVO" }, "geometry": { "type": "Point", "coordinates": [ 15.57352848965424, 38.239850518643529, 0.0 ] } },
{ "type": "Feature", "properties": { "COD_CESPITI": null, "DENOMINAZIONE": "AUTOCLAVE CASTANEA SCUOLE", "VIA_LOCALITA": null, "A_INIZIO_ESERC": null, "STRUMENTI_M": null, "STRUMENTI_M_TIPO": null, "TELECONTROLLO": null, "PORTATA_MAX_P": null, "PORTATA_MEDIA_E": null, "PORTATA_MAX_E": null, "PROTEZ_C_ARIETE": null, "Q_PL_VASCA_CARICO": null, "CAPACITA_VASCA_C": 8000.0, "DISLIVELLO": null, "POTENZA_TOT_IMP": null, "TM_FUNZIONAMENTO": null, "CONSUMO_E": null, "NOTE": " ", "STATO_CONSERVAZIONE": null, "STATO_FUNZIONALITA": null, "COMUNE": "Messina", "N_CIV": null, "UTENTE_CREAZIONE": null, "DATA_INS": null, "OPERATORE": null, "DATA_AGG": null, "D_STATO": "Attivo/In esercizio", "IDGIS": null, "PORTING_CLASSE": null, "PORTING_ID": null, "POINT_X": 545661.7506, "POINT_Y": 4235284.4704999998, "ANGLE": 360.0, "LINK": null, "VIA_DENOMINAZIONE": null, "GlobalID": "{E2D486DE-A3B6-42DF-B670-FB66538073E0}", "fid_1": 10.0, "DISTRETTO": "SI", "SORGENTE_DATI": "RILIEVO" }, "geometry": { "type": "Point", "coordinates": [ 15.521959482367134, 38.26443832766288, 402.899999999994179 ] } },
{ "type": "Feature", "properties": { "COD_CESPITI": null, "DENOMINAZIONE": "URNI", "VIA_LOCALITA": null, "A_INIZIO_ESERC": null, "STRUMENTI_M": null, "STRUMENTI_M_TIPO": null, "TELECONTROLLO": null, "PORTATA_MAX_P": null, "PORTATA_MEDIA_E": null, "PORTATA_MAX_E": null, "PROTEZ_C_ARIETE": null, "Q_PL_VASCA_CARICO": null, "CAPACITA_VASCA_C": null, "DISLIVELLO": null, "POTENZA_TOT_IMP": null, "TM_FUNZIONAMENTO": null, "CONSUMO_E": null, "NOTE": "2 autoclavi che si alternano che spingono fino alla statua di padre pio", "STATO_CONSERVAZIONE": null, "STATO_FUNZIONALITA": null, "COMUNE": "Messina", "N_CIV": null, "UTENTE_CREAZIONE": null, "DATA_INS": null, "OPERATORE": null, "DATA_AGG": null, "D_STATO": "Attivo/In esercizio", "IDGIS": null, "PORTING_CLASSE": null, "PORTING_ID": null, "POINT_X": 543747.5537, "POINT_Y": 4232997.6211000001, "ANGLE": 360.0, "LINK": null, "VIA_DENOMINAZIONE": null, "GlobalID": "{6588A3D2-34C0-4AAD-85B3-6163D287411E}", "fid_1": 11.0, "DISTRETTO": "SI", "SORGENTE_DATI": "RILIEVO" }, "geometry": { "type": "Point", "coordinates": [ 15.499937859987529, 38.243924151081188, 0.0 ] } },
{ "type": "Feature", "properties": { "COD_CESPITI": null, "DENOMINAZIONE": "Grancabella", "VIA_LOCALITA": null, "A_INIZIO_ESERC": null, "STRUMENTI_M": null, "STRUMENTI_M_TIPO": null, "TELECONTROLLO": null, "PORTATA_MAX_P": null, "PORTATA_MEDIA_E": null, "PORTATA_MAX_E": null, "PROTEZ_C_ARIETE": null, "Q_PL_VASCA_CARICO": null, "CAPACITA_VASCA_C": null, "DISLIVELLO": null, "POTENZA_TOT_IMP": null, "TM_FUNZIONAMENTO": null, "CONSUMO_E": null, "NOTE": null, "STATO_CONSERVAZIONE": null, "STATO_FUNZIONALITA": null, "COMUNE": "Messina", "N_CIV": null, "UTENTE_CREAZIONE": null, "DATA_INS": null, "OPERATORE": null, "DATA_AGG": null, "D_STATO": "Attivo/In esercizio", "IDGIS": null, "PORTING_CLASSE": null, "PORTING_ID": null, "POINT_X": 542688.8506, "POINT_Y": 4235973.5412999997, "ANGLE": null, "LINK": null, "VIA_DENOMINAZIONE": null, "GlobalID": "{AE661BA5-FB3A-4B0F-8A93-AC1DE80E32BF}", "fid_1": null, "DISTRETTO": "SI", "SORGENTE_DATI": "RILIEVO" }, "geometry": { "type": "Point", "coordinates": [ 15.488018991710719, 38.270794581422088, 94.600000000005821 ] } },
{ "type": "Feature", "properties": { "COD_CESPITI": null, "DENOMINAZIONE": "AUTOCLAVE POLICARA-RODIA", "VIA_LOCALITA": null, "A_INIZIO_ESERC": null, "STRUMENTI_M": null, "STRUMENTI_M_TIPO": null, "TELECONTROLLO": null, "PORTATA_MAX_P": null, "PORTATA_MEDIA_E": null, "PORTATA_MAX_E": null, "PROTEZ_C_ARIETE": null, "Q_PL_VASCA_CARICO": null, "CAPACITA_VASCA_C": null, "DISLIVELLO": null, "POTENZA_TOT_IMP": null, "TM_FUNZIONAMENTO": null, "CONSUMO_E": null, "NOTE": " ", "STATO_CONSERVAZIONE": null, "STATO_FUNZIONALITA": null, "COMUNE": "Messina", "N_CIV": null, "UTENTE_CREAZIONE": null, "DATA_INS": null, "OPERATORE": null, "DATA_AGG": null, "D_STATO": "Attivo/In esercizio", "IDGIS": null, "PORTING_CLASSE": null, "PORTING_ID": null, "POINT_X": 542248.6558, "POINT_Y": 4235916.0761000002, "ANGLE": 360.0, "LINK": null, "VIA_DENOMINAZIONE": null, "GlobalID": "{544434A9-91DB-4AEA-BD08-7B224A9EEF69}", "fid_1": 7.0, "DISTRETTO": "SI", "SORGENTE_DATI": "RILIEVO" }, "geometry": { "type": "Point", "coordinates": [ 15.482983420372131, 38.270297517080628, 0.0 ] } },
{ "type": "Feature", "properties": { "COD_CESPITI": null, "DENOMINAZIONE": "GUARDIA", "VIA_LOCALITA": null, "A_INIZIO_ESERC": null, "STRUMENTI_M": null, "STRUMENTI_M_TIPO": null, "TELECONTROLLO": null, "PORTATA_MAX_P": null, "PORTATA_MEDIA_E": null, "PORTATA_MAX_E": null, "PROTEZ_C_ARIETE": null, "Q_PL_VASCA_CARICO": null, "CAPACITA_VASCA_C": null, "DISLIVELLO": null, "POTENZA_TOT_IMP": null, "TM_FUNZIONAMENTO": null, "CONSUMO_E": null, "NOTE": null, "STATO_CONSERVAZIONE": null, "STATO_FUNZIONALITA": null, "COMUNE": "Messina", "N_CIV": null, "UTENTE_CREAZIONE": null, "DATA_INS": null, "OPERATORE": null, "DATA_AGG": null, "D_STATO": "Attivo/In esercizio", "IDGIS": null, "PORTING_CLASSE": null, "PORTING_ID": null, "POINT_X": 551309.2075, "POINT_Y": 4233923.0734000001, "ANGLE": 360.0, "LINK": null, "VIA_DENOMINAZIONE": null, "GlobalID": "{C5D44BF9-17A3-4D08-85F5-FF637BA00744}", "fid_1": null, "DISTRETTO": null, "SORGENTE_DATI": "RILIEVO" }, "geometry": { "type": "Point", "coordinates": [ 15.586413987561802, 38.251864476360574, 0.0 ] } },
{ "type": "Feature", "properties": { "COD_CESPITI": null, "DENOMINAZIONE": "Papardo", "VIA_LOCALITA": null, "A_INIZIO_ESERC": null, "STRUMENTI_M": null, "STRUMENTI_M_TIPO": null, "TELECONTROLLO": null, "PORTATA_MAX_P": null, "PORTATA_MEDIA_E": null, "PORTATA_MAX_E": null, "PROTEZ_C_ARIETE": null, "Q_PL_VASCA_CARICO": null, "CAPACITA_VASCA_C": null, "DISLIVELLO": null, "POTENZA_TOT_IMP": null, "TM_FUNZIONAMENTO": null, "CONSUMO_E": null, "NOTE": null, "STATO_CONSERVAZIONE": null, "STATO_FUNZIONALITA": null, "COMUNE": "Messina", "N_CIV": null, "UTENTE_CREAZIONE": null, "DATA_INS": null, "OPERATORE": null, "DATA_AGG": null, "D_STATO": "Attivo/In esercizio", "IDGIS": null, "PORTING_CLASSE": null, "PORTING_ID": null, "POINT_X": 552319.0139, "POINT_Y": 4235062.6205000002, "ANGLE": null, "LINK": null, "VIA_DENOMINAZIONE": null, "GlobalID": "{FA14277D-2DBC-45CF-BDB2-EE4C09D02367}", "fid_1": null, "DISTRETTO": null, "SORGENTE_DATI": "RILIEVO" }, "geometry": { "type": "Point", "coordinates": [ 15.598038682048387, 38.262075854294473, 127.0 ] } },
{ "type": "Feature", "properties": { "COD_CESPITI": null, "DENOMINAZIONE": "Marotta", "VIA_LOCALITA": null, "A_INIZIO_ESERC": null, "STRUMENTI_M": null, "STRUMENTI_M_TIPO": null, "TELECONTROLLO": null, "PORTATA_MAX_P": null, "PORTATA_MEDIA_E": null, "PORTATA_MAX_E": null, "PROTEZ_C_ARIETE": null, "Q_PL_VASCA_CARICO": null, "CAPACITA_VASCA_C": null, "DISLIVELLO": null, "POTENZA_TOT_IMP": null, "TM_FUNZIONAMENTO": null, "CONSUMO_E": null, "NOTE": null, "STATO_CONSERVAZIONE": null, "STATO_FUNZIONALITA": null, "COMUNE": "Messina", "N_CIV": null, "UTENTE_CREAZIONE": null, "DATA_INS": null, "OPERATORE": null, "DATA_AGG": null, "D_STATO": "Attivo/In esercizio", "IDGIS": null, "PORTING_CLASSE": null, "PORTING_ID": null, "POINT_X": 549891.1747, "POINT_Y": 4233967.4182000002, "ANGLE": 360.0, "LINK": null, "VIA_DENOMINAZIONE": null, "GlobalID": "{D8B4669F-5C5D-41CC-B032-B7D662AE15F7}", "fid_1": null, "DISTRETTO": null, "SORGENTE_DATI": "RILIEVO" }, "geometry": { "type": "Point", "coordinates": [ 15.570212488529268, 38.252328344891673, 0.0 ] } },
{ "type": "Feature", "properties": { "COD_CESPITI": null, "DENOMINAZIONE": "Curcuraci", "VIA_LOCALITA": null, "A_INIZIO_ESERC": null, "STRUMENTI_M": null, "STRUMENTI_M_TIPO": null, "TELECONTROLLO": null, "PORTATA_MAX_P": null, "PORTATA_MEDIA_E": null, "PORTATA_MAX_E": null, "PROTEZ_C_ARIETE": null, "Q_PL_VASCA_CARICO": null, "CAPACITA_VASCA_C": null, "DISLIVELLO": null, "POTENZA_TOT_IMP": null, "TM_FUNZIONAMENTO": null, "CONSUMO_E": null, "NOTE": null, "STATO_CONSERVAZIONE": null, "STATO_FUNZIONALITA": null, "COMUNE": "Messina", "N_CIV": null, "UTENTE_CREAZIONE": null, "DATA_INS": null, "OPERATORE": null, "DATA_AGG": null, "D_STATO": "Attivo/In esercizio", "IDGIS": null, "PORTING_CLASSE": null, "PORTING_ID": null, "POINT_X": 549516.4967, "POINT_Y": 4235008.3350999998, "ANGLE": null, "LINK": null, "VIA_DENOMINAZIONE": null, "GlobalID": "{DB0BE78A-ADB8-4D95-B8AB-D8B6E6D6D996}", "fid_1": null, "DISTRETTO": null, "SORGENTE_DATI": "RILIEVO" }, "geometry": { "type": "Point", "coordinates": [ 15.566001866730344, 38.261745513808286, 0.0 ] } },
{ "type": "Feature", "properties": { "COD_CESPITI": null, "DENOMINAZIONE": "Portella", "VIA_LOCALITA": null, "A_INIZIO_ESERC": null, "STRUMENTI_M": null, "STRUMENTI_M_TIPO": null, "TELECONTROLLO": null, "PORTATA_MAX_P": null, "PORTATA_MEDIA_E": null, "PORTATA_MAX_E": null, "PROTEZ_C_ARIETE": null, "Q_PL_VASCA_CARICO": null, "CAPACITA_VASCA_C": null, "DISLIVELLO": null, "POTENZA_TOT_IMP": null, "TM_FUNZIONAMENTO": null, "CONSUMO_E": null, "NOTE": null, "STATO_CONSERVAZIONE": null, "STATO_FUNZIONALITA": null, "COMUNE": "Messina", "N_CIV": null, "UTENTE_CREAZIONE": null, "DATA_INS": null, "OPERATORE": null, "DATA_AGG": null, "D_STATO": "Attivo/In esercizio", "IDGIS": null, "PORTING_CLASSE": null, "PORTING_ID": null, "POINT_X": 546137.1864, "POINT_Y": 4232285.2794000003, "ANGLE": 360.0, "LINK": null, "VIA_DENOMINAZIONE": null, "GlobalID": "{F43AA47C-6365-4319-976D-78656B82CD1B}", "fid_1": null, "DISTRETTO": null, "SORGENTE_DATI": "RILIEVO" }, "geometry": { "type": "Point", "coordinates": [ 15.527198678268691, 38.237384923495021, 0.0 ] } },
{ "type": "Feature", "properties": { "COD_CESPITI": null, "DENOMINAZIONE": "Gonzaga", "VIA_LOCALITA": null, "A_INIZIO_ESERC": null, "STRUMENTI_M": null, "STRUMENTI_M_TIPO": null, "TELECONTROLLO": null, "PORTATA_MAX_P": null, "PORTATA_MEDIA_E": null, "PORTATA_MAX_E": null, "PROTEZ_C_ARIETE": null, "Q_PL_VASCA_CARICO": null, "CAPACITA_VASCA_C": null, "DISLIVELLO": null, "POTENZA_TOT_IMP": null, "TM_FUNZIONAMENTO": null, "CONSUMO_E": null, "NOTE": "da collegare alla normalizzata", "STATO_CONSERVAZIONE": null, "STATO_FUNZIONALITA": null, "COMUNE": "Messina", "N_CIV": null, "UTENTE_CREAZIONE": null, "DATA_INS": null, "OPERATORE": null, "DATA_AGG": null, "D_STATO": "Attivo/In esercizio", "IDGIS": null, "PORTING_CLASSE": null, "PORTING_ID": null, "POINT_X": 547408.5423, "POINT_Y": 4226713.1276000002, "ANGLE": null, "LINK": null, "VIA_DENOMINAZIONE": null, "GlobalID": "{E4196B66-4109-454F-9D43-CC5EC96B9CA6}", "fid_1": null, "DISTRETTO": null, "SORGENTE_DATI": "RILIEVO" }, "geometry": { "type": "Point", "coordinates": [ 15.541353440883443, 38.187101592125167, 0.0 ] } },
{ "type": "Feature", "properties": { "COD_CESPITI": null, "DENOMINAZIONE": "Galati S. Lucia", "VIA_LOCALITA": null, "A_INIZIO_ESERC": null, "STRUMENTI_M": null, "STRUMENTI_M_TIPO": null, "TELECONTROLLO": null, "PORTATA_MAX_P": null, "PORTATA_MEDIA_E": null, "PORTATA_MAX_E": null, "PROTEZ_C_ARIETE": null, "Q_PL_VASCA_CARICO": null, "CAPACITA_VASCA_C": null, "DISLIVELLO": null, "POTENZA_TOT_IMP": null, "TM_FUNZIONAMENTO": null, "CONSUMO_E": null, "NOTE": "Sollevamento all'interno del serbatoio", "STATO_CONSERVAZIONE": null, "STATO_FUNZIONALITA": null, "COMUNE": "Messina", "N_CIV": null, "UTENTE_CREAZIONE": null, "DATA_INS": null, "OPERATORE": null, "DATA_AGG": null, "D_STATO": "Attivo/In esercizio", "IDGIS": null, "PORTING_CLASSE": null, "PORTING_ID": null, "POINT_X": 543466.2106, "POINT_Y": 4218220.9474999998, "ANGLE": 360.0, "LINK": null, "VIA_DENOMINAZIONE": null, "GlobalID": "{A9FEA58B-7780-4F9F-9E1D-2538B3578461}", "fid_1": null, "DISTRETTO": "SI", "SORGENTE_DATI": "RILIEVO" }, "geometry": { "type": "Point", "coordinates": [ 15.495819623097105, 38.110766157168719, 0.0 ] } },
{ "type": "Feature", "properties": { "COD_CESPITI": null, "DENOMINAZIONE": "S. Saba S. Filippo", "VIA_LOCALITA": null, "A_INIZIO_ESERC": null, "STRUMENTI_M": null, "STRUMENTI_M_TIPO": null, "TELECONTROLLO": null, "PORTATA_MAX_P": null, "PORTATA_MEDIA_E": null, "PORTATA_MAX_E": null, "PROTEZ_C_ARIETE": null, "Q_PL_VASCA_CARICO": null, "CAPACITA_VASCA_C": null, "DISLIVELLO": null, "POTENZA_TOT_IMP": null, "TM_FUNZIONAMENTO": null, "CONSUMO_E": null, "NOTE": null, "STATO_CONSERVAZIONE": null, "STATO_FUNZIONALITA": null, "COMUNE": "Messina", "N_CIV": null, "UTENTE_CREAZIONE": null, "DATA_INS": null, "OPERATORE": null, "DATA_AGG": null, "D_STATO": "Attivo/In esercizio", "IDGIS": null, "PORTING_CLASSE": null, "PORTING_ID": null, "POINT_X": 543908.4747, "POINT_Y": 4237045.896, "ANGLE": 360.0, "LINK": null, "VIA_DENOMINAZIONE": null, "GlobalID": "{AA7E19AE-D7AD-48A6-9DA2-DE314B7199E0}", "fid_1": null, "DISTRETTO": "SI", "SORGENTE_DATI": "RILIEVO" }, "geometry": { "type": "Point", "coordinates": [ 15.502027785332352, 38.28039996480581, 0.0 ] } },
{ "type": "Feature", "properties": { "COD_CESPITI": null, "DENOMINAZIONE": "Corsari", "VIA_LOCALITA": null, "A_INIZIO_ESERC": null, "STRUMENTI_M": null, "STRUMENTI_M_TIPO": null, "TELECONTROLLO": null, "PORTATA_MAX_P": null, "PORTATA_MEDIA_E": null, "PORTATA_MAX_E": null, "PROTEZ_C_ARIETE": null, "Q_PL_VASCA_CARICO": null, "CAPACITA_VASCA_C": null, "DISLIVELLO": null, "POTENZA_TOT_IMP": null, "TM_FUNZIONAMENTO": null, "CONSUMO_E": null, "NOTE": null, "STATO_CONSERVAZIONE": null, "STATO_FUNZIONALITA": null, "COMUNE": "Messina", "N_CIV": null, "UTENTE_CREAZIONE": null, "DATA_INS": null, "OPERATORE": null, "DATA_AGG": null, "D_STATO": "Attivo/In esercizio", "IDGIS": null, "PORTING_CLASSE": null, "PORTING_ID": null, "POINT_X": 548321.0992000001, "POINT_Y": 4238119.0543999998, "ANGLE": 10.0, "LINK": null, "VIA_DENOMINAZIONE": null, "GlobalID": "{3D043B07-7436-475B-9785-30679436AFCD}", "fid_1": null, "DISTRETTO": "SI", "SORGENTE_DATI": "RILIEVO" }, "geometry": { "type": "Point", "coordinates": [ 15.552550795540231, 38.289844598867354, 0.0 ] } },
{ "type": "Feature", "properties": { "COD_CESPITI": null, "DENOMINAZIONE": null, "VIA_LOCALITA": null, "A_INIZIO_ESERC": null, "STRUMENTI_M": null, "STRUMENTI_M_TIPO": null, "TELECONTROLLO": null, "PORTATA_MAX_P": null, "PORTATA_MEDIA_E": null, "PORTATA_MAX_E": null, "PROTEZ_C_ARIETE": null, "Q_PL_VASCA_CARICO": null, "CAPACITA_VASCA_C": null, "DISLIVELLO": null, "POTENZA_TOT_IMP": null, "TM_FUNZIONAMENTO": null, "CONSUMO_E": null, "NOTE": null, "STATO_CONSERVAZIONE": null, "STATO_FUNZIONALITA": null, "COMUNE": "Messina", "N_CIV": null, "UTENTE_CREAZIONE": null, "DATA_INS": null, "OPERATORE": null, "DATA_AGG": null, "D_STATO": "Attivo/In esercizio", "IDGIS": null, "PORTING_CLASSE": null, "PORTING_ID": null, "POINT_X": 540930.1052, "POINT_Y": 4234650.0587, "ANGLE": null, "LINK": null, "VIA_DENOMINAZIONE": null, "GlobalID": "{943CE7C0-A6F9-439B-B8D0-EACDB71DBB0F}", "fid_1": null, "DISTRETTO": "SI", "SORGENTE_DATI": "RILIEVO" }, "geometry": { "type": "Point", "coordinates": [ 15.467837136634618, 38.258949001080467, 0.0 ] } },
{ "type": "Feature", "properties": { "COD_CESPITI": null, "DENOMINAZIONE": "Fondella e Canale ", "VIA_LOCALITA": null, "A_INIZIO_ESERC": null, "STRUMENTI_M": null, "STRUMENTI_M_TIPO": null, "TELECONTROLLO": null, "PORTATA_MAX_P": null, "PORTATA_MEDIA_E": null, "PORTATA_MAX_E": null, "PROTEZ_C_ARIETE": null, "Q_PL_VASCA_CARICO": null, "CAPACITA_VASCA_C": null, "DISLIVELLO": null, "POTENZA_TOT_IMP": null, "TM_FUNZIONAMENTO": null, "CONSUMO_E": null, "NOTE": null, "STATO_CONSERVAZIONE": null, "STATO_FUNZIONALITA": null, "COMUNE": "Messina", "N_CIV": null, "UTENTE_CREAZIONE": null, "DATA_INS": null, "OPERATORE": null, "DATA_AGG": null, "D_STATO": "Attivo/In esercizio", "IDGIS": null, "PORTING_CLASSE": null, "PORTING_ID": null, "POINT_X": 549699.3333000001, "POINT_Y": 4231623.6458000001, "ANGLE": null, "LINK": null, "VIA_DENOMINAZIONE": null, "GlobalID": "{F1D42656-F8FC-476B-BEF2-FDB986E0AAB4}", "fid_1": null, "DISTRETTO": null, "SORGENTE_DATI": "RILIEVO" }, "geometry": { "type": "Point", "coordinates": [ 15.567854332928755, 38.231232334300493, 90.100000000005821 ] } },
{ "type": "Feature", "properties": { "COD_CESPITI": null, "DENOMINAZIONE": null, "VIA_LOCALITA": null, "A_INIZIO_ESERC": null, "STRUMENTI_M": null, "STRUMENTI_M_TIPO": null, "TELECONTROLLO": null, "PORTATA_MAX_P": null, "PORTATA_MEDIA_E": null, "PORTATA_MAX_E": null, "PROTEZ_C_ARIETE": null, "Q_PL_VASCA_CARICO": null, "CAPACITA_VASCA_C": null, "DISLIVELLO": null, "POTENZA_TOT_IMP": null, "TM_FUNZIONAMENTO": null, "CONSUMO_E": null, "NOTE": null, "STATO_CONSERVAZIONE": null, "STATO_FUNZIONALITA": null, "COMUNE": "Messina", "N_CIV": null, "UTENTE_CREAZIONE": null, "DATA_INS": null, "OPERATORE": null, "DATA_AGG": null, "D_STATO": "Attivo/In esercizio", "IDGIS": null, "PORTING_CLASSE": null, "PORTING_ID": null, "POINT_X": 549290.5829, "POINT_Y": 4231078.1020999998, "ANGLE": null, "LINK": null, "VIA_DENOMINAZIONE": null, "GlobalID": "{CB1A076E-1E8F-4579-A937-F1CD74816C38}", "fid_1": null, "DISTRETTO": null, "SORGENTE_DATI": "RILIEVO" }, "geometry": { "type": "Point", "coordinates": [ 15.563146333694748, 38.226338334384657, 110.899999999994179 ] } },
{ "type": "Feature", "properties": { "COD_CESPITI": null, "DENOMINAZIONE": null, "VIA_LOCALITA": null, "A_INIZIO_ESERC": null, "STRUMENTI_M": null, "STRUMENTI_M_TIPO": null, "TELECONTROLLO": null, "PORTATA_MAX_P": null, "PORTATA_MEDIA_E": null, "PORTATA_MAX_E": null, "PROTEZ_C_ARIETE": null, "Q_PL_VASCA_CARICO": null, "CAPACITA_VASCA_C": null, "DISLIVELLO": null, "POTENZA_TOT_IMP": null, "TM_FUNZIONAMENTO": null, "CONSUMO_E": null, "NOTE": null, "STATO_CONSERVAZIONE": null, "STATO_FUNZIONALITA": null, "COMUNE": "Messina", "N_CIV": null, "UTENTE_CREAZIONE": null, "DATA_INS": null, "OPERATORE": null, "DATA_AGG": null, "D_STATO": "Attivo/In esercizio", "IDGIS": null, "PORTING_CLASSE": null, "PORTING_ID": null, "POINT_X": 545819.4145, "POINT_Y": 4238027.9940999998, "ANGLE": null, "LINK": null, "VIA_DENOMINAZIONE": null, "GlobalID": "{CB5BCE5A-504C-4D63-B6A5-CDD03604AF56}", "fid_1": null, "DISTRETTO": "SI", "SORGENTE_DATI": "RILIEVO" }, "geometry": { "type": "Point", "coordinates": [ 15.523939317136598, 38.289155197322025, 0.0 ] } },
{ "type": "Feature", "properties": { "COD_CESPITI": null, "DENOMINAZIONE": "LAM", "VIA_LOCALITA": null, "A_INIZIO_ESERC": null, "STRUMENTI_M": null, "STRUMENTI_M_TIPO": null, "TELECONTROLLO": null, "PORTATA_MAX_P": null, "PORTATA_MEDIA_E": null, "PORTATA_MAX_E": null, "PROTEZ_C_ARIETE": null, "Q_PL_VASCA_CARICO": null, "CAPACITA_VASCA_C": null, "DISLIVELLO": null, "POTENZA_TOT_IMP": null, "TM_FUNZIONAMENTO": null, "CONSUMO_E": null, "NOTE": null, "STATO_CONSERVAZIONE": null, "STATO_FUNZIONALITA": null, "COMUNE": "Messina", "N_CIV": null, "UTENTE_CREAZIONE": null, "DATA_INS": null, "OPERATORE": null, "DATA_AGG": null, "D_STATO": "Attivo/In esercizio", "IDGIS": null, "PORTING_CLASSE": null, "PORTING_ID": null, "POINT_X": 551879.1553, "POINT_Y": 4234711.5806999998, "ANGLE": null, "LINK": null, "VIA_DENOMINAZIONE": null, "GlobalID": "{736258F0-4E09-4B16-B162-DEA16CE6BF94}", "fid_1": null, "DISTRETTO": null, "SORGENTE_DATI": "RILIEVO" }, "geometry": { "type": "Point", "coordinates": [ 15.592985360379688, 38.258937793479575, 0.0 ] } },
{ "type": "Feature", "properties": { "COD_CESPITI": "ZA_IS01", "DENOMINAZIONE": "Zafferia", "VIA_LOCALITA": null, "A_INIZIO_ESERC": null, "STRUMENTI_M": null, "STRUMENTI_M_TIPO": null, "TELECONTROLLO": null, "PORTATA_MAX_P": null, "PORTATA_MEDIA_E": null, "PORTATA_MAX_E": null, "PROTEZ_C_ARIETE": null, "Q_PL_VASCA_CARICO": null, "CAPACITA_VASCA_C": null, "DISLIVELLO": null, "POTENZA_TOT_IMP": null, "TM_FUNZIONAMENTO": null, "CONSUMO_E": null, "NOTE": null, "STATO_CONSERVAZIONE": null, "STATO_FUNZIONALITA": null, "COMUNE": "Messina", "N_CIV": null, "UTENTE_CREAZIONE": null, "DATA_INS": null, "OPERATORE": null, "DATA_AGG": null, "D_STATO": "Attivo/In esercizio", "IDGIS": null, "PORTING_CLASSE": null, "PORTING_ID": null, "POINT_X": 544803.6196, "POINT_Y": 4222622.6174, "ANGLE": 336.0, "LINK": null, "VIA_DENOMINAZIONE": null, "GlobalID": "{8B5649E4-F650-4B4F-9534-94826D6F3CF3}", "fid_1": null, "DISTRETTO": "SI", "SORGENTE_DATI": "RILIEVO" }, "geometry": { "type": "Point", "coordinates": [ 15.51135159921941, 38.150370134630869, 0.0 ] } },
{ "type": "Feature", "properties": { "COD_CESPITI": null, "DENOMINAZIONE": null, "VIA_LOCALITA": null, "A_INIZIO_ESERC": null, "STRUMENTI_M": null, "STRUMENTI_M_TIPO": null, "TELECONTROLLO": null, "PORTATA_MAX_P": null, "PORTATA_MEDIA_E": null, "PORTATA_MAX_E": null, "PROTEZ_C_ARIETE": null, "Q_PL_VASCA_CARICO": null, "CAPACITA_VASCA_C": null, "DISLIVELLO": null, "POTENZA_TOT_IMP": null, "TM_FUNZIONAMENTO": null, "CONSUMO_E": null, "NOTE": "Sollevamento all'interno del serbatoio", "STATO_CONSERVAZIONE": null, "STATO_FUNZIONALITA": null, "COMUNE": "Messina", "N_CIV": null, "UTENTE_CREAZIONE": null, "DATA_INS": null, "OPERATORE": null, "DATA_AGG": null, "D_STATO": "Attivo/In esercizio", "IDGIS": null, "PORTING_CLASSE": null, "PORTING_ID": null, "POINT_X": 543466.2338, "POINT_Y": 4218220.8301, "ANGLE": null, "LINK": null, "VIA_DENOMINAZIONE": null, "GlobalID": "{DED2C954-2931-43AE-924C-455D6C073364}", "fid_1": null, "DISTRETTO": "SI", "SORGENTE_DATI": "RILIEVO" }, "geometry": { "type": "Point", "coordinates": [ 15.495819880578264, 38.110765097997209, 0.0 ] } },
{ "type": "Feature", "properties": { "COD_CESPITI": null, "DENOMINAZIONE": null, "VIA_LOCALITA": null, "A_INIZIO_ESERC": null, "STRUMENTI_M": null, "STRUMENTI_M_TIPO": null, "TELECONTROLLO": null, "PORTATA_MAX_P": null, "PORTATA_MEDIA_E": null, "PORTATA_MAX_E": null, "PROTEZ_C_ARIETE": null, "Q_PL_VASCA_CARICO": null, "CAPACITA_VASCA_C": null, "DISLIVELLO": null, "POTENZA_TOT_IMP": null, "TM_FUNZIONAMENTO": null, "CONSUMO_E": null, "NOTE": null, "STATO_CONSERVAZIONE": null, "STATO_FUNZIONALITA": null, "COMUNE": "Messina", "N_CIV": null, "UTENTE_CREAZIONE": null, "DATA_INS": null, "OPERATORE": null, "DATA_AGG": null, "D_STATO": "Attivo/In esercizio", "IDGIS": null, "PORTING_CLASSE": null, "PORTING_ID": null, "POINT_X": 551870.3575, "POINT_Y": 4234161.4774000002, "ANGLE": null, "LINK": null, "VIA_DENOMINAZIONE": null, "GlobalID": "{A23251A8-8E2D-471E-8E5C-F0B978BE7FB6}", "fid_1": null, "DISTRETTO": null, "SORGENTE_DATI": "RILIEVO" }, "geometry": { "type": "Point", "coordinates": [ 15.592844521961528, 38.253980758564268, 0.0 ] } }
]
}
