{
"type": "FeatureCollection",
"name": "SORGENTE",
"crs": { "type": "name", "properties": { "name": "urn:ogc:def:crs:OGC:1.3:CRS84" } },
"features": [
{ "type": "Feature", "properties": { "DENOMINAZIONE": "Sorgenti Bocche d'Acqua", "COD_CESPITI": null, "ANNO_C": null, "TIPOLOGIA_COSTR": "c.a.", "PORTATA_MEDIA": null, "VOL_ANNO_CIVILE_U": null, "CONCESSIONE": null, "CONCESS_STATO": null, "PORTATA_CONCESSA": null, "ZONA_TUTELA": null, "ZONA_RISPETTO": null, "ACCESSIBILE": null, "COD_BACINO_IDRO": null, "COD_ACQUIF": null, "STRUMENTI_M": "SI", "STRUMENTI_M_TIPO": null, "TELECONTROLLO": null, "NOTE": " ", "POINT_X": 532074.98230000027, "POINT_Y": 4215998.4055000003, "STATO_CONSERVAZIONE": 3, "STATO_FUNZIONALITA": 4, "COMUNE": "Messina", "N_CIV": null, "UTENTE_CREAZIONE": null, "DATA_INS": null, "OPERATORE": null, "DATA_AGG": null, "D_STATO": "Attivo/In esercizio", "IDGIS": null, "PORTING_CLASSE": null, "PORTING_ID": null, "ANGLE": null, "PRGA": null, "LINK": null, "TIPO_DISINF": null, "VIA_DENOMINAZIONE": null, "REGIME": null, "AREA_SORGIVA": null, "GlobalID": "{337795DA-E5CB-40F7-BCA1-2D2F6FBB84DE}", "fid_1": 1.0, "COD_PRGA": "19ME00G0049S0001", "COMPRENSOR": 8.0, "COD_COMUNE": 83048.0, "COD_GESTOR": "G0049", "name": "Messina S0001", "TIPOLOGIA": "Sorgente", "UBIC_COM": "Monforte  S. Pier Niceto", "ALIMENTAZI": "D: Acquedotto Santissima", "Utenza": "Centro Urbano e Villaggi zona Sud:Pezzolo, S. Stefano, Briga, S. Stefano Medio,S.Margherita Mili M., S. Lucia sopra Contesse, S. Filippo inf., S. Giovannello, Bordonaro e Tremestieri Basso", "Q_MED": 55.0, "VOLUME_MED": 1734480.0, "Q_MIN": 0.0, "ENTRATA_ES": 1910.0, "IN_ESERCIZ": "si", "QUOTA_PREL": 900.0, "OP_PRESA": 16.0, "MIS_PORTAT": "Si a stramazzo", "STATO_CONS": 3.0, "RECINZIONE": "no", "RISPETTO": " ", "CONC_DERIV": " ", "AUT_SANITA": "no", "FONTE_DATI": "Ricognizione 2021 Coordinate PRGA", "DISTRETTO": null, "SORGENTE_DATI": null }, "geometry": { "type": "Point", "coordinates": [ 15.365782740493874, 38.091211842936097, 0.0 ] } },
{ "type": "Feature", "properties": { "DENOMINAZIONE": "Sorgenti Ilici Lunga", "COD_CESPITI": null, "ANNO_C": null, "TIPOLOGIA_COSTR": "c.a.", "PORTATA_MEDIA": null, "VOL_ANNO_CIVILE_U": null, "CONCESSIONE": null, "CONCESS_STATO": null, "PORTATA_CONCESSA": null, "ZONA_TUTELA": null, "ZONA_RISPETTO": null, "ACCESSIBILE": null, "COD_BACINO_IDRO": null, "COD_ACQUIF": null, "STRUMENTI_M": "SI", "STRUMENTI_M_TIPO": null, "TELECONTROLLO": null, "NOTE": " ", "POINT_X": 534365.51329999976, "POINT_Y": 4215692.4124999996, "STATO_CONSERVAZIONE": 3, "STATO_FUNZIONALITA": 4, "COMUNE": "Messina", "N_CIV": null, "UTENTE_CREAZIONE": null, "DATA_INS": null, "OPERATORE": null, "DATA_AGG": null, "D_STATO": "Attivo/In esercizio", "IDGIS": null, "PORTING_CLASSE": null, "PORTING_ID": null, "ANGLE": null, "PRGA": null, "LINK": null, "TIPO_DISINF": null, "VIA_DENOMINAZIONE": null, "REGIME": null, "AREA_SORGIVA": null, "GlobalID": "{4F09DF71-A2B5-49EF-B42E-6E468A0A7625}", "fid_1": 2.0, "COD_PRGA": "19ME00G0049S0002", "COMPRENSOR": 8.0, "COD_COMUNE": 83048.0, "COD_GESTOR": "G0049", "name": "Messina S0002", "TIPOLOGIA": "Sorgente", "UBIC_COM": "S. Pier Niceto", "ALIMENTAZI": "D: Acquedotto Santissima", "Utenza": "Centro Urbano e Villaggi zona Sud:Pezzolo, S. Stefano, Briga, S. Stefano Medio,S.Margherita Mili M., S. Lucia sopra Contesse, S. Filippo inf., S. Giovannello, Bordonaro e Tremestieri Basso", "Q_MED": 16.0, "VOLUME_MED": 504576.0, "Q_MIN": 0.0, "ENTRATA_ES": 1910.0, "IN_ESERCIZ": "si", "QUOTA_PREL": 800.0, "OP_PRESA": 3.0, "MIS_PORTAT": "Si a stramazzo", "STATO_CONS": 3.0, "RECINZIONE": "no", "RISPETTO": " ", "CONC_DERIV": " ", "AUT_SANITA": "no", "FONTE_DATI": "Ricognizione 2021 Coordinate PRGA", "DISTRETTO": null, "SORGENTE_DATI": null }, "geometry": { "type": "Point", "coordinates": [ 15.391888662114598, 38.088369857622055, 0.0 ] } },
{ "type": "Feature", "properties": { "DENOMINAZIONE": "Sorgenti Santissima", "COD_CESPITI": null, "ANNO_C": null, "TIPOLOGIA_COSTR": "c.a.", "PORTATA_MEDIA": null, "VOL_ANNO_CIVILE_U": null, "CONCESSIONE": null, "CONCESS_STATO": null, "PORTATA_CONCESSA": null, "ZONA_TUTELA": null, "ZONA_RISPETTO": null, "ACCESSIBILE": null, "COD_BACINO_IDRO": null, "COD_ACQUIF": null, "STRUMENTI_M": "SI", "STRUMENTI_M_TIPO": null, "TELECONTROLLO": null, "NOTE": " ", "POINT_X": 533536.9581000004, "POINT_Y": 4214511.0702, "STATO_CONSERVAZIONE": 3, "STATO_FUNZIONALITA": 4, "COMUNE": "Messina", "N_CIV": null, "UTENTE_CREAZIONE": null, "DATA_INS": null, "OPERATORE": null, "DATA_AGG": null, "D_STATO": "Attivo/In esercizio", "IDGIS": null, "PORTING_CLASSE": null, "PORTING_ID": null, "ANGLE": null, "PRGA": null, "LINK": null, "TIPO_DISINF": null, "VIA_DENOMINAZIONE": null, "REGIME": null, "AREA_SORGIVA": null, "GlobalID": "{414B58CB-C92D-47A2-95C8-C1C8DB43FDC0}", "fid_1": 3.0, "COD_PRGA": "19ME00G0049S0003", "COMPRENSOR": 8.0, "COD_COMUNE": 83048.0, "COD_GESTOR": "G0049", "name": "Messina S0003", "TIPOLOGIA": "Sorgente", "UBIC_COM": "Fiumedinisi", "ALIMENTAZI": "D: Acquedotto Santissima", "Utenza": "Centro Urbano e Villaggi zona Sud:Pezzolo, S. Stefano, Briga, S. Stefano Medio,S.Margherita Mili M., S. Lucia sopra Contesse, S. Filippo inf., S. Giovannello, Bordonaro e Tremestieri Basso", "Q_MED": 75.0, "VOLUME_MED": 2365200.0, "Q_MIN": 0.0, "ENTRATA_ES": 1910.0, "IN_ESERCIZ": "si", "QUOTA_PREL": 800.0, "OP_PRESA": 17.0, "MIS_PORTAT": "Si a stramazzo", "STATO_CONS": 3.0, "RECINZIONE": "no", "RISPETTO": " ", "CONC_DERIV": " ", "AUT_SANITA": "no", "FONTE_DATI": "Ricognizione 2021 Coordinate PRGA", "DISTRETTO": null, "SORGENTE_DATI": null }, "geometry": { "type": "Point", "coordinates": [ 15.382384937754729, 38.077754053771862, 0.0 ] } },
{ "type": "Feature", "properties": { "DENOMINAZIONE": "Sorgente Rigula'", "COD_CESPITI": null, "ANNO_C": null, "TIPOLOGIA_COSTR": "c.a.", "PORTATA_MEDIA": null, "VOL_ANNO_CIVILE_U": null, "CONCESSIONE": null, "CONCESS_STATO": null, "PORTATA_CONCESSA": null, "ZONA_TUTELA": null, "ZONA_RISPETTO": null, "ACCESSIBILE": null, "COD_BACINO_IDRO": null, "COD_ACQUIF": null, "STRUMENTI_M": "SI", "STRUMENTI_M_TIPO": null, "TELECONTROLLO": null, "NOTE": " ", "POINT_X": 540974.44730000012, "POINT_Y": 4227669.8169, "STATO_CONSERVAZIONE": 3, "STATO_FUNZIONALITA": 4, "COMUNE": "Messina", "N_CIV": null, "UTENTE_CREAZIONE": null, "DATA_INS": null, "OPERATORE": null, "DATA_AGG": null, "D_STATO": "Attivo/In esercizio", "IDGIS": null, "PORTING_CLASSE": null, "PORTING_ID": null, "ANGLE": null, "PRGA": null, "LINK": null, "TIPO_DISINF": null, "VIA_DENOMINAZIONE": null, "REGIME": null, "AREA_SORGIVA": null, "GlobalID": "{FCD72BDE-6075-4499-AB26-2355C848DF70}", "fid_1": 9.0, "COD_PRGA": "19ME00G0049S0009", "COMPRENSOR": 8.0, "COD_COMUNE": 83048.0, "COD_GESTOR": "G0049", "name": "Messina S0014", "TIPOLOGIA": "Sorgente", "UBIC_COM": "Saponara", "ALIMENTAZI": "D: Messina", "Utenza": "Frazioni zona Nord:  S. Rizzo, S.S. 113 da km. 7 a km. 11, Reginalla 1, Reginella 2", "Q_MED": 0.5, "VOLUME_MED": 15768.0, "Q_MIN": 0.1, "ENTRATA_ES": 0.0, "IN_ESERCIZ": "si", "QUOTA_PREL": 560.0, "OP_PRESA": 3.0, "MIS_PORTAT": "Si Magnetico Al serbatoio S.Rizzo", "STATO_CONS": 3.0, "RECINZIONE": "no", "RISPETTO": " ", "CONC_DERIV": " ", "AUT_SANITA": "no", "FONTE_DATI": "Ricognizione 2021 Coordinate PRGA", "DISTRETTO": null, "SORGENTE_DATI": null }, "geometry": { "type": "Point", "coordinates": [ 15.467940751801958, 38.196039304781877, 0.0 ] } },
{ "type": "Feature", "properties": { "DENOMINAZIONE": "Sorgenti Bocche d'Acqua", "COD_CESPITI": null, "ANNO_C": null, "TIPOLOGIA_COSTR": "c.a.", "PORTATA_MEDIA": null, "VOL_ANNO_CIVILE_U": null, "CONCESSIONE": null, "CONCESS_STATO": null, "PORTATA_CONCESSA": null, "ZONA_TUTELA": null, "ZONA_RISPETTO": null, "ACCESSIBILE": null, "COD_BACINO_IDRO": null, "COD_ACQUIF": null, "STRUMENTI_M": "SI", "STRUMENTI_M_TIPO": null, "TELECONTROLLO": null, "NOTE": " ", "POINT_X": 532540.858, "POINT_Y": 4216314.1561999992, "STATO_CONSERVAZIONE": 3, "STATO_FUNZIONALITA": 4, "COMUNE": "Messina", "N_CIV": null, "UTENTE_CREAZIONE": null, "DATA_INS": null, "OPERATORE": null, "DATA_AGG": null, "D_STATO": "Attivo/In esercizio", "IDGIS": null, "PORTING_CLASSE": null, "PORTING_ID": null, "ANGLE": null, "PRGA": null, "LINK": null, "TIPO_DISINF": null, "VIA_DENOMINAZIONE": null, "REGIME": null, "AREA_SORGIVA": null, "GlobalID": "{1EDF5894-47F9-48E4-BA47-38C630C7D36D}", "fid_1": 25.0, "COD_PRGA": "19ME00G0049S0025", "COMPRENSOR": 8.0, "COD_COMUNE": 83048.0, "COD_GESTOR": "G0049", "name": "Messina S0004", "TIPOLOGIA": "Sorgente", "UBIC_COM": "Messina", "ALIMENTAZI": "D: Acquedotto Santissima", "Utenza": "Centro Urbano e Villaggi zona Sud:Pezzolo, S. Stefano, Briga, S. Stefano Medio,S.Margherita Mili M., S. Lucia sopra Contesse, S. Filippo inf., S. Giovannello, Bordonaro e Tremestieri Basso", "Q_MED": 15.0, "VOLUME_MED": 473040.0, "Q_MIN": 0.0, "ENTRATA_ES": 1910.0, "IN_ESERCIZ": "si", "QUOTA_PREL": 800.0, "OP_PRESA": 8.0, "MIS_PORTAT": "Si a stramazzo", "STATO_CONS": 2.0, "RECINZIONE": "no", "RISPETTO": " ", "CONC_DERIV": " ", "AUT_SANITA": "no", "FONTE_DATI": "Ricognizione 2021 Coordinate PRGA", "DISTRETTO": null, "SORGENTE_DATI": null }, "geometry": { "type": "Point", "coordinates": [ 15.371109868331052, 38.09404091079724, 0.0 ] } },
{ "type": "Feature", "properties": { "DENOMINAZIONE": "Galleria Subalvea Corsari", "COD_CESPITI": null, "ANNO_C": null, "TIPOLOGIA_COSTR": "c.a.", "PORTATA_MEDIA": null, "VOL_ANNO_CIVILE_U": null, "CONCESSIONE": null, "CONCESS_STATO": null, "PORTATA_CONCESSA": null, "ZONA_TUTELA": null, "ZONA_RISPETTO": null, "ACCESSIBILE": null, "COD_BACINO_IDRO": null, "COD_ACQUIF": null, "STRUMENTI_M": "SI", "STRUMENTI_M_TIPO": null, "TELECONTROLLO": null, "NOTE": " ", "POINT_X": 547843.64290000033, "POINT_Y": 4237113.1872000005, "STATO_CONSERVAZIONE": 3, "STATO_FUNZIONALITA": 4, "COMUNE": "Messina", "N_CIV": null, "UTENTE_CREAZIONE": null, "DATA_INS": null, "OPERATORE": null, "DATA_AGG": null, "D_STATO": "Attivo/In esercizio", "IDGIS": null, "PORTING_CLASSE": null, "PORTING_ID": null, "ANGLE": null, "PRGA": null, "LINK": null, "TIPO_DISINF": null, "VIA_DENOMINAZIONE": null, "REGIME": null, "AREA_SORGIVA": null, "GlobalID": "{64AE270E-37E8-4DD6-8BDD-9A1216104055}", "fid_1": 28.0, "COD_PRGA": "19ME00G0049S0028", "COMPRENSOR": 8.0, "COD_COMUNE": 83048.0, "COD_GESTOR": "G0049", "name": "Messina S0028", "TIPOLOGIA": "Galleria Subalvea", "UBIC_COM": "Messina", "ALIMENTAZI": "D.Messina", "Utenza": "Frazioni zona nord : Acqualadroni, Sparta', Piano Torre", "Q_MED": 4.0, "VOLUME_MED": 126144.0, "Q_MIN": 3.0, "ENTRATA_ES": 1950.0, "IN_ESERCIZ": "si", "QUOTA_PREL": 250.0, "OP_PRESA": 1.0, "MIS_PORTAT": "Si magnetico al serbatoio Corsari", "STATO_CONS": 3.0, "RECINZIONE": "no", "RISPETTO": " ", "CONC_DERIV": " ", "AUT_SANITA": "no", "FONTE_DATI": "Ricognizione 2021 Coordinate PRGA", "DISTRETTO": null, "SORGENTE_DATI": null }, "geometry": { "type": "Point", "coordinates": [ 15.547023285739591, 38.280805260404136, 0.0 ] } },
{ "type": "Feature", "properties": { "DENOMINAZIONE": "Galleria Subalvea Rodia", "COD_CESPITI": null, "ANNO_C": null, "TIPOLOGIA_COSTR": "c.a.", "PORTATA_MEDIA": null, "VOL_ANNO_CIVILE_U": null, "CONCESSIONE": null, "CONCESS_STATO": null, "PORTATA_CONCESSA": null, "ZONA_TUTELA": null, "ZONA_RISPETTO": null, "ACCESSIBILE": null, "COD_BACINO_IDRO": null, "COD_ACQUIF": null, "STRUMENTI_M": "SI", "STRUMENTI_M_TIPO": null, "TELECONTROLLO": null, "NOTE": " ", "POINT_X": 543241.5636, "POINT_Y": 4235565.6135000009, "STATO_CONSERVAZIONE": 3, "STATO_FUNZIONALITA": 4, "COMUNE": "Messina", "N_CIV": null, "UTENTE_CREAZIONE": null, "DATA_INS": null, "OPERATORE": null, "DATA_AGG": null, "D_STATO": "Attivo/In esercizio", "IDGIS": null, "PORTING_CLASSE": null, "PORTING_ID": null, "ANGLE": null, "PRGA": null, "LINK": null, "TIPO_DISINF": null, "VIA_DENOMINAZIONE": null, "REGIME": null, "AREA_SORGIVA": null, "GlobalID": "{898BEDD4-3134-434A-B9C6-839BB888C4CD}", "fid_1": 29.0, "COD_PRGA": "19ME00G0049S0029", "COMPRENSOR": 8.0, "COD_COMUNE": 83048.0, "COD_GESTOR": "G0049", "name": "Messina S0029", "TIPOLOGIA": "Galleria Subalvea", "UBIC_COM": "Messina", "ALIMENTAZI": "D.Messina", "Utenza": "Frazioni zona Nord:  Rodia, S. Saba", "Q_MED": 3.0, "VOLUME_MED": 94608.0, "Q_MIN": 1.0, "ENTRATA_ES": 1950.0, "IN_ESERCIZ": "si", "QUOTA_PREL": 190.0, "OP_PRESA": 1.0, "MIS_PORTAT": "Al Serbatoio Rodia", "STATO_CONS": 3.0, "RECINZIONE": "no", "RISPETTO": " ", "CONC_DERIV": " ", "AUT_SANITA": "no", "FONTE_DATI": "Ricognizione 2021 Coordinate PRGA", "DISTRETTO": null, "SORGENTE_DATI": null }, "geometry": { "type": "Point", "coordinates": [ 15.494312473132609, 38.267091825690166, 119.5 ] } },
{ "type": "Feature", "properties": { "DENOMINAZIONE": "Subalvea Larderia", "COD_CESPITI": null, "ANNO_C": null, "TIPOLOGIA_COSTR": "c.a.", "PORTATA_MEDIA": null, "VOL_ANNO_CIVILE_U": null, "CONCESSIONE": null, "CONCESS_STATO": null, "PORTATA_CONCESSA": null, "ZONA_TUTELA": null, "ZONA_RISPETTO": null, "ACCESSIBILE": null, "COD_BACINO_IDRO": null, "COD_ACQUIF": null, "STRUMENTI_M": "SI", "STRUMENTI_M_TIPO": null, "TELECONTROLLO": null, "NOTE": " ", "POINT_X": 543562.6782, "POINT_Y": 4221718.5448000003, "STATO_CONSERVAZIONE": 3, "STATO_FUNZIONALITA": 4, "COMUNE": "Messina", "N_CIV": null, "UTENTE_CREAZIONE": null, "DATA_INS": null, "OPERATORE": null, "DATA_AGG": null, "D_STATO": "Attivo/In esercizio", "IDGIS": null, "PORTING_CLASSE": null, "PORTING_ID": null, "ANGLE": null, "PRGA": null, "LINK": null, "TIPO_DISINF": null, "VIA_DENOMINAZIONE": null, "REGIME": null, "AREA_SORGIVA": null, "GlobalID": "{D656DD22-23E8-4B37-ABE4-7A5DC7835E68}", "fid_1": 30.0, "COD_PRGA": " ", "COMPRENSOR": 0.0, "COD_COMUNE": 0.0, "COD_GESTOR": " ", "name": " ", "TIPOLOGIA": "Galleria Subalvea", "UBIC_COM": " ", "ALIMENTAZI": " ", "Utenza": " ", "Q_MED": 0.0, "VOLUME_MED": 0.0, "Q_MIN": 0.0, "ENTRATA_ES": 0.0, "IN_ESERCIZ": " ", "QUOTA_PREL": 0.0, "OP_PRESA": 0.0, "MIS_PORTAT": " ", "STATO_CONS": 0.0, "RECINZIONE": " ", "RISPETTO": " ", "CONC_DERIV": " ", "AUT_SANITA": " ", "FONTE_DATI": " ", "DISTRETTO": null, "SORGENTE_DATI": null }, "geometry": { "type": "Point", "coordinates": [ 15.497133716897622, 38.14228313423213, 246.5 ] } },
{ "type": "Feature", "properties": { "DENOMINAZIONE": "Galleria Subalvea Rodia 2", "COD_CESPITI": null, "ANNO_C": null, "TIPOLOGIA_COSTR": "c.a.", "PORTATA_MEDIA": null, "VOL_ANNO_CIVILE_U": null, "CONCESSIONE": null, "CONCESS_STATO": null, "PORTATA_CONCESSA": null, "ZONA_TUTELA": null, "ZONA_RISPETTO": null, "ACCESSIBILE": null, "COD_BACINO_IDRO": null, "COD_ACQUIF": null, "STRUMENTI_M": "SI", "STRUMENTI_M_TIPO": null, "TELECONTROLLO": null, "NOTE": " ", "POINT_X": 543261.5472, "POINT_Y": 4235546.197000001, "STATO_CONSERVAZIONE": 3, "STATO_FUNZIONALITA": 4, "COMUNE": "Messina", "N_CIV": null, "UTENTE_CREAZIONE": null, "DATA_INS": null, "OPERATORE": null, "DATA_AGG": null, "D_STATO": "Attivo/In esercizio", "IDGIS": null, "PORTING_CLASSE": null, "PORTING_ID": null, "ANGLE": null, "PRGA": null, "LINK": null, "TIPO_DISINF": null, "VIA_DENOMINAZIONE": null, "REGIME": null, "AREA_SORGIVA": null, "GlobalID": "{FCDBB529-E001-4FE2-9683-93DA3DE03226}", "fid_1": 29.0, "COD_PRGA": "19ME00G0049S0029", "COMPRENSOR": 8.0, "COD_COMUNE": 83048.0, "COD_GESTOR": "G0049", "name": "Messina S0029", "TIPOLOGIA": "Galleria Subalvea", "UBIC_COM": "Messina", "ALIMENTAZI": "D.Messina", "Utenza": "Frazioni zona Nord:  Rodia, S. Saba", "Q_MED": 3.0, "VOLUME_MED": 94608.0, "Q_MIN": 1.0, "ENTRATA_ES": 1950.0, "IN_ESERCIZ": "si", "QUOTA_PREL": 190.0, "OP_PRESA": 1.0, "MIS_PORTAT": "Al Serbatoio Rodia", "STATO_CONS": 3.0, "RECINZIONE": "no", "RISPETTO": " ", "CONC_DERIV": " ", "AUT_SANITA": "no", "FONTE_DATI": "Ricognizione 2021 Coordinate PRGA", "DISTRETTO": null, "SORGENTE_DATI": null }, "geometry": { "type": "Point", "coordinates": [ 15.494539719700709, 38.266915878696949, 120.5 ] } },
{ "type": "Feature", "properties": { "DENOMINAZIONE": "Sorgente San Placido", "COD_CESPITI": null, "ANNO_C": null, "TIPOLOGIA_COSTR": "c.a.", "PORTATA_MEDIA": null, "VOL_ANNO_CIVILE_U": null, "CONCESSIONE": null, "CONCESS_STATO": null, "PORTATA_CONCESSA": null, "ZONA_TUTELA": null, "ZONA_RISPETTO": null, "ACCESSIBILE": null, "COD_BACINO_IDRO": null, "COD_ACQUIF": null, "STRUMENTI_M": "SI", "STRUMENTI_M_TIPO": null, "TELECONTROLLO": null, "NOTE": "Sorgente San Placido", "POINT_X": 539062.946, "POINT_Y": 4215435.872, "STATO_CONSERVAZIONE": 3, "STATO_FUNZIONALITA": 4, "COMUNE": "Messina", "N_CIV": null, "UTENTE_CREAZIONE": null, "DATA_INS": null, "OPERATORE": null, "DATA_AGG": null, "D_STATO": "Attivo/In esercizio", "IDGIS": null, "PORTING_CLASSE": null, "PORTING_ID": null, "ANGLE": null, "PRGA": null, "LINK": null, "TIPO_DISINF": null, "VIA_DENOMINAZIONE": null, "REGIME": null, "AREA_SORGIVA": null, "GlobalID": "{B9C1B2BE-2544-4EBC-BB70-8A306D5EFC62}", "fid_1": null, "COD_PRGA": null, "COMPRENSOR": null, "COD_COMUNE": null, "COD_GESTOR": null, "name": null, "TIPOLOGIA": null, "UBIC_COM": null, "ALIMENTAZI": null, "Utenza": null, "Q_MED": null, "VOLUME_MED": null, "Q_MIN": null, "ENTRATA_ES": null, "IN_ESERCIZ": null, "QUOTA_PREL": null, "OP_PRESA": null, "MIS_PORTAT": null, "STATO_CONS": null, "RECINZIONE": null, "RISPETTO": null, "CONC_DERIV": null, "AUT_SANITA": null, "FONTE_DATI": null, "DISTRETTO": null, "SORGENTE_DATI": null }, "geometry": { "type": "Point", "coordinates": [ 15.445440612631575, 38.085866951014317, 0.0 ] } },
{ "type": "Feature", "properties": { "DENOMINAZIONE": null, "COD_CESPITI": null, "ANNO_C": null, "TIPOLOGIA_COSTR": "c.a.", "PORTATA_MEDIA": null, "VOL_ANNO_CIVILE_U": null, "CONCESSIONE": null, "CONCESS_STATO": null, "PORTATA_CONCESSA": null, "ZONA_TUTELA": null, "ZONA_RISPETTO": null, "ACCESSIBILE": null, "COD_BACINO_IDRO": null, "COD_ACQUIF": null, "STRUMENTI_M": "SI", "STRUMENTI_M_TIPO": null, "TELECONTROLLO": null, "NOTE": null, "POINT_X": 543356.97840000037, "POINT_Y": 4222724.9951000009, "STATO_CONSERVAZIONE": 3, "STATO_FUNZIONALITA": 4, "COMUNE": "Messina", "N_CIV": null, "UTENTE_CREAZIONE": null, "DATA_INS": null, "OPERATORE": null, "DATA_AGG": null, "D_STATO": "Attivo/In esercizio", "IDGIS": null, "PORTING_CLASSE": null, "PORTING_ID": null, "ANGLE": null, "PRGA": null, "LINK": null, "TIPO_DISINF": null, "VIA_DENOMINAZIONE": null, "REGIME": null, "AREA_SORGIVA": null, "GlobalID": "{962C2F86-9E34-4EE2-8A98-91F26E04AC15}", "fid_1": null, "COD_PRGA": null, "COMPRENSOR": null, "COD_COMUNE": null, "COD_GESTOR": null, "name": null, "TIPOLOGIA": null, "UBIC_COM": null, "ALIMENTAZI": null, "Utenza": null, "Q_MED": null, "VOLUME_MED": null, "Q_MIN": null, "ENTRATA_ES": null, "IN_ESERCIZ": null, "QUOTA_PREL": null, "OP_PRESA": null, "MIS_PORTAT": null, "STATO_CONS": null, "RECINZIONE": null, "RISPETTO": null, "CONC_DERIV": null, "AUT_SANITA": null, "FONTE_DATI": null, "DISTRETTO": "SI", "SORGENTE_DATI": null }, "geometry": { "type": "Point", "coordinates": [ 15.494847640084867, 38.151363515119655, 0.0 ] } },
{ "type": "Feature", "properties": { "DENOMINAZIONE": "Sorgenti Bocche d'Acqua", "COD_CESPITI": null, "ANNO_C": null, "TIPOLOGIA_COSTR": "c.a.", "PORTATA_MEDIA": null, "VOL_ANNO_CIVILE_U": null, "CONCESSIONE": null, "CONCESS_STATO": null, "PORTATA_CONCESSA": null, "ZONA_TUTELA": null, "ZONA_RISPETTO": null, "ACCESSIBILE": null, "COD_BACINO_IDRO": null, "COD_ACQUIF": null, "STRUMENTI_M": "SI", "STRUMENTI_M_TIPO": null, "TELECONTROLLO": null, "NOTE": null, "POINT_X": 532089.437, "POINT_Y": 4216293.0537, "STATO_CONSERVAZIONE": 3, "STATO_FUNZIONALITA": 4, "COMUNE": "Messina", "N_CIV": null, "UTENTE_CREAZIONE": null, "DATA_INS": null, "OPERATORE": null, "DATA_AGG": null, "D_STATO": "Attivo/In esercizio", "IDGIS": null, "PORTING_CLASSE": null, "PORTING_ID": null, "ANGLE": null, "PRGA": null, "LINK": null, "TIPO_DISINF": null, "VIA_DENOMINAZIONE": null, "REGIME": null, "AREA_SORGIVA": null, "GlobalID": "{56EAE4E1-5FCB-4DC6-9579-A21F702A8827}", "fid_1": null, "COD_PRGA": null, "COMPRENSOR": null, "COD_COMUNE": null, "COD_GESTOR": null, "name": null, "TIPOLOGIA": null, "UBIC_COM": null, "ALIMENTAZI": null, "Utenza": null, "Q_MED": null, "VOLUME_MED": null, "Q_MIN": null, "ENTRATA_ES": null, "IN_ESERCIZ": null, "QUOTA_PREL": null, "OP_PRESA": null, "MIS_PORTAT": null, "STATO_CONS": null, "RECINZIONE": null, "RISPETTO": null, "CONC_DERIV": null, "AUT_SANITA": null, "FONTE_DATI": null, "DISTRETTO": null, "SORGENTE_DATI": null }, "geometry": { "type": "Point", "coordinates": [ 15.365960819260176, 38.093866868317505, 0.0 ] } },
{ "type": "Feature", "properties": { "DENOMINAZIONE": "Sorgive Petroiene", "COD_CESPITI": null, "ANNO_C": 0.0, "TIPOLOGIA_COSTR": "c.a.", "PORTATA_MEDIA": null, "VOL_ANNO_CIVILE_U": null, "CONCESSIONE": null, "CONCESS_STATO": null, "PORTATA_CONCESSA": null, "ZONA_TUTELA": null, "ZONA_RISPETTO": null, "ACCESSIBILE": null, "COD_BACINO_IDRO": null, "COD_ACQUIF": null, "STRUMENTI_M": "SI", "STRUMENTI_M_TIPO": null, "TELECONTROLLO": null, "NOTE": null, "POINT_X": 540809.39979999978, "POINT_Y": 4219118.078, "STATO_CONSERVAZIONE": 3, "STATO_FUNZIONALITA": 4, "COMUNE": "Messina", "N_CIV": null, "UTENTE_CREAZIONE": null, "DATA_INS": null, "OPERATORE": null, "DATA_AGG": null, "D_STATO": "Attivo/In esercizio", "IDGIS": null, "PORTING_CLASSE": null, "PORTING_ID": null, "ANGLE": null, "PRGA": null, "LINK": null, "TIPO_DISINF": null, "VIA_DENOMINAZIONE": null, "REGIME": null, "AREA_SORGIVA": null, "GlobalID": "{9076D7A1-BDB2-4BB3-8A75-85DD18D487A5}", "fid_1": null, "COD_PRGA": null, "COMPRENSOR": null, "COD_COMUNE": null, "COD_GESTOR": null, "name": null, "TIPOLOGIA": null, "UBIC_COM": null, "ALIMENTAZI": null, "Utenza": null, "Q_MED": null, "VOLUME_MED": null, "Q_MIN": null, "ENTRATA_ES": null, "IN_ESERCIZ": null, "QUOTA_PREL": null, "OP_PRESA": null, "MIS_PORTAT": null, "STATO_CONS": null, "RECINZIONE": null, "RISPETTO": null, "CONC_DERIV": null, "AUT_SANITA": null, "FONTE_DATI": null, "DISTRETTO": null, "SORGENTE_DATI": null }, "geometry": { "type": "Point", "coordinates": [ 15.465565626823922, 38.118975457824298, 0.0 ] } },
{ "type": "Feature", "properties": { "DENOMINAZIONE": "Sorgente Corvo", "COD_CESPITI": null, "ANNO_C": null, "TIPOLOGIA_COSTR": "c.a.", "PORTATA_MEDIA": null, "VOL_ANNO_CIVILE_U": null, "CONCESSIONE": null, "CONCESS_STATO": null, "PORTATA_CONCESSA": null, "ZONA_TUTELA": null, "ZONA_RISPETTO": null, "ACCESSIBILE": null, "COD_BACINO_IDRO": null, "COD_ACQUIF": null, "STRUMENTI_M": "SI", "STRUMENTI_M_TIPO": null, "TELECONTROLLO": null, "NOTE": null, "POINT_X": 536946.5214, "POINT_Y": 4215951.7487000003, "STATO_CONSERVAZIONE": 3, "STATO_FUNZIONALITA": 4, "COMUNE": "Messina", "N_CIV": null, "UTENTE_CREAZIONE": null, "DATA_INS": null, "OPERATORE": null, "DATA_AGG": null, "D_STATO": "Attivo/In esercizio", "IDGIS": null, "PORTING_CLASSE": null, "PORTING_ID": null, "ANGLE": null, "PRGA": null, "LINK": null, "TIPO_DISINF": null, "VIA_DENOMINAZIONE": null, "REGIME": null, "AREA_SORGIVA": null, "GlobalID": "{5009743D-15E4-46DD-ACAA-B856CBC34B46}", "fid_1": null, "COD_PRGA": null, "COMPRENSOR": null, "COD_COMUNE": null, "COD_GESTOR": null, "name": null, "TIPOLOGIA": null, "UBIC_COM": null, "ALIMENTAZI": null, "Utenza": null, "Q_MED": null, "VOLUME_MED": null, "Q_MIN": null, "ENTRATA_ES": null, "IN_ESERCIZ": null, "QUOTA_PREL": null, "OP_PRESA": null, "MIS_PORTAT": null, "STATO_CONS": null, "RECINZIONE": null, "RISPETTO": null, "CONC_DERIV": null, "AUT_SANITA": null, "FONTE_DATI": null, "DISTRETTO": null, "SORGENTE_DATI": null }, "geometry": { "type": "Point", "coordinates": [ 15.421334010504598, 38.090605296322806, 0.0 ] } },
{ "type": "Feature", "properties": { "DENOMINAZIONE": "Sorgente Grioli", "COD_CESPITI": null, "ANNO_C": null, "TIPOLOGIA_COSTR": "c.a.", "PORTATA_MEDIA": null, "VOL_ANNO_CIVILE_U": null, "CONCESSIONE": null, "CONCESS_STATO": null, "PORTATA_CONCESSA": null, "ZONA_TUTELA": null, "ZONA_RISPETTO": null, "ACCESSIBILE": null, "COD_BACINO_IDRO": null, "COD_ACQUIF": null, "STRUMENTI_M": "SI", "STRUMENTI_M_TIPO": null, "TELECONTROLLO": null, "NOTE": null, "POINT_X": 537365.476, "POINT_Y": 4215943.567, "STATO_CONSERVAZIONE": 3, "STATO_FUNZIONALITA": 4, "COMUNE": "Messina", "N_CIV": null, "UTENTE_CREAZIONE": null, "DATA_INS": null, "OPERATORE": null, "DATA_AGG": null, "D_STATO": "Attivo/In esercizio", "IDGIS": null, "PORTING_CLASSE": null, "PORTING_ID": null, "ANGLE": null, "PRGA": null, "LINK": null, "TIPO_DISINF": null, "VIA_DENOMINAZIONE": null, "REGIME": null, "AREA_SORGIVA": null, "GlobalID": "{9977135D-D9FD-4152-845D-6304D37E79FA}", "fid_1": null, "COD_PRGA": null, "COMPRENSOR": null, "COD_COMUNE": null, "COD_GESTOR": null, "name": null, "TIPOLOGIA": null, "UBIC_COM": null, "ALIMENTAZI": null, "Utenza": null, "Q_MED": null, "VOLUME_MED": null, "Q_MIN": null, "ENTRATA_ES": null, "IN_ESERCIZ": null, "QUOTA_PREL": null, "OP_PRESA": null, "MIS_PORTAT": null, "STATO_CONS": null, "RECINZIONE": null, "RISPETTO": null, "CONC_DERIV": null, "AUT_SANITA": null, "FONTE_DATI": null, "DISTRETTO": null, "SORGENTE_DATI": null }, "geometry": { "type": "Point", "coordinates": [ 15.426111172829495, 38.090514332060266, 0.0 ] } },
{ "type": "Feature", "properties": { "DENOMINAZIONE": "Sorgente Ferri", "COD_CESPITI": null, "ANNO_C": null, "TIPOLOGIA_COSTR": "c.a.", "PORTATA_MEDIA": null, "VOL_ANNO_CIVILE_U": null, "CONCESSIONE": null, "CONCESS_STATO": null, "PORTATA_CONCESSA": null, "ZONA_TUTELA": null, "ZONA_RISPETTO": null, "ACCESSIBILE": null, "COD_BACINO_IDRO": null, "COD_ACQUIF": null, "STRUMENTI_M": "SI", "STRUMENTI_M_TIPO": null, "TELECONTROLLO": null, "NOTE": null, "POINT_X": 538219.0598, "POINT_Y": 4216998.2651000004, "STATO_CONSERVAZIONE": 3, "STATO_FUNZIONALITA": 4, "COMUNE": "Messina", "N_CIV": null, "UTENTE_CREAZIONE": null, "DATA_INS": null, "OPERATORE": null, "DATA_AGG": null, "D_STATO": "Attivo/In esercizio", "IDGIS": null, "PORTING_CLASSE": null, "PORTING_ID": null, "ANGLE": null, "PRGA": null, "LINK": null, "TIPO_DISINF": null, "VIA_DENOMINAZIONE": null, "REGIME": null, "AREA_SORGIVA": null, "GlobalID": "{789D4F8D-2F65-48DE-80B2-BF7E3E2A558D}", "fid_1": null, "COD_PRGA": null, "COMPRENSOR": null, "COD_COMUNE": null, "COD_GESTOR": null, "name": null, "TIPOLOGIA": null, "UBIC_COM": null, "ALIMENTAZI": null, "Utenza": null, "Q_MED": null, "VOLUME_MED": null, "Q_MIN": null, "ENTRATA_ES": null, "IN_ESERCIZ": null, "QUOTA_PREL": null, "OP_PRESA": null, "MIS_PORTAT": null, "STATO_CONS": null, "RECINZIONE": null, "RISPETTO": null, "CONC_DERIV": null, "AUT_SANITA": null, "FONTE_DATI": null, "DISTRETTO": null, "SORGENTE_DATI": null }, "geometry": { "type": "Point", "coordinates": [ 15.435901533593738, 38.099984091955797, 0.0 ] } },
{ "type": "Feature", "properties": { "DENOMINAZIONE": null, "COD_CESPITI": null, "ANNO_C": null, "TIPOLOGIA_COSTR": "c.a.", "PORTATA_MEDIA": null, "VOL_ANNO_CIVILE_U": null, "CONCESSIONE": null, "CONCESS_STATO": null, "PORTATA_CONCESSA": null, "ZONA_TUTELA": null, "ZONA_RISPETTO": null, "ACCESSIBILE": null, "COD_BACINO_IDRO": null, "COD_ACQUIF": null, "STRUMENTI_M": "SI", "STRUMENTI_M_TIPO": null, "TELECONTROLLO": null, "NOTE": null, "POINT_X": 542716.74959999975, "POINT_Y": 4225636.6251999997, "STATO_CONSERVAZIONE": 3, "STATO_FUNZIONALITA": 4, "COMUNE": "Messina", "N_CIV": null, "UTENTE_CREAZIONE": null, "DATA_INS": null, "OPERATORE": null, "DATA_AGG": null, "D_STATO": "Attivo/In esercizio", "IDGIS": null, "PORTING_CLASSE": null, "PORTING_ID": null, "ANGLE": null, "PRGA": null, "LINK": null, "TIPO_DISINF": null, "VIA_DENOMINAZIONE": null, "REGIME": null, "AREA_SORGIVA": null, "GlobalID": "{00B061AD-BE6B-4CA3-B759-AB82E16227CE}", "fid_1": null, "COD_PRGA": null, "COMPRENSOR": null, "COD_COMUNE": null, "COD_GESTOR": null, "name": null, "TIPOLOGIA": null, "UBIC_COM": null, "ALIMENTAZI": null, "Utenza": null, "Q_MED": null, "VOLUME_MED": null, "Q_MIN": null, "ENTRATA_ES": null, "IN_ESERCIZ": null, "QUOTA_PREL": null, "OP_PRESA": null, "MIS_PORTAT": null, "STATO_CONS": null, "RECINZIONE": null, "RISPETTO": null, "CONC_DERIV": null, "AUT_SANITA": null, "FONTE_DATI": null, "DISTRETTO": null, "SORGENTE_DATI": null }, "geometry": { "type": "Point", "coordinates": [ 15.48771553371345, 38.177634614799963, 0.0 ] } },
{ "type": "Feature", "properties": { "DENOMINAZIONE": "Favarella", "COD_CESPITI": null, "ANNO_C": null, "TIPOLOGIA_COSTR": "c.a.", "PORTATA_MEDIA": null, "VOL_ANNO_CIVILE_U": null, "CONCESSIONE": null, "CONCESS_STATO": null, "PORTATA_CONCESSA": null, "ZONA_TUTELA": null, "ZONA_RISPETTO": null, "ACCESSIBILE": null, "COD_BACINO_IDRO": null, "COD_ACQUIF": null, "STRUMENTI_M": "SI", "STRUMENTI_M_TIPO": null, "TELECONTROLLO": null, "NOTE": null, "POINT_X": 541865.33320000023, "POINT_Y": 4227474.6704999991, "STATO_CONSERVAZIONE": 3, "STATO_FUNZIONALITA": 4, "COMUNE": "Messina", "N_CIV": null, "UTENTE_CREAZIONE": null, "DATA_INS": null, "OPERATORE": null, "DATA_AGG": null, "D_STATO": "Attivo/In esercizio", "IDGIS": null, "PORTING_CLASSE": null, "PORTING_ID": null, "ANGLE": null, "PRGA": null, "LINK": null, "TIPO_DISINF": null, "VIA_DENOMINAZIONE": null, "REGIME": null, "AREA_SORGIVA": null, "GlobalID": "{54CD9594-5368-44B5-A397-48908ABB36B9}", "fid_1": null, "COD_PRGA": null, "COMPRENSOR": null, "COD_COMUNE": null, "COD_GESTOR": null, "name": null, "TIPOLOGIA": null, "UBIC_COM": null, "ALIMENTAZI": null, "Utenza": null, "Q_MED": null, "VOLUME_MED": null, "Q_MIN": null, "ENTRATA_ES": null, "IN_ESERCIZ": null, "QUOTA_PREL": null, "OP_PRESA": null, "MIS_PORTAT": null, "STATO_CONS": null, "RECINZIONE": null, "RISPETTO": null, "CONC_DERIV": null, "AUT_SANITA": null, "FONTE_DATI": null, "DISTRETTO": null, "SORGENTE_DATI": null }, "geometry": { "type": "Point", "coordinates": [ 15.478103119327423, 38.194239600631747, 0.0 ] } }
]
}
