{"type":"FeatureCollection","name":"condotte","crs":{"type":"name","properties":{"name":"urn:ogc:def:crs:EPSG::32632"}},"features":[{"type":"Feature","properties":{"materiale":"PE","dn":"DN50","classe_pre":null,"lunghezza":280,"comune":"Novi Ligure","localita":null,"via":"Strada vicinale Sant'Angelo","tipologia":"DISTRIBUZIONE","tip_rete":"DISTRIBUZIONE","distretto_modello":"DNL08.2"},"geometry":{"type":"LineString","coordinates":[[8.838927087859796,44.764898185205574],[8.83903667489437,44.76470097704208],[8.841002334069637,44.76301341011775],[8.841102778161718,44.762948762043756],[8.841127819880155,44.76294176158559]]}},{"type":"Feature","properties":{"materiale":"PVC","dn":"DN25","classe_pre":null,"lunghezza":2.9,"comune":"Novi Ligure","localita":null,"via":"Strada di Cassano","tipologia":"DISTRIBUZIONE","tip_rete":"DISTRIBUZIONE","distretto_modello":"DNL08.2"},"geometry":{"type":"LineString","coordinates":[[8.838927087859796,44.764898185205574],[8.83891106876406,44.76487473840267]]}},{"type":"Feature","properties":{"materiale":"PE","dn":"DE63","classe_pre":null,"lunghezza":6.22,"comune":"Novi Ligure","localita":null,"via":"Strada di Cassano","tipologia":"DISTRIBUZIONE","tip_rete":"DISTRIBUZIONE","distretto_modello":"DNL08.2"},"geometry":{"type":"LineString","coordinates":[[8.838681327358476,44.76592508662971],[8.838681522231328,44.76591363573504],[8.838685435640533,44.765869150057256]]}},{"type":"Feature","properties":{"materiale":"PVC","dn":"DN25","classe_pre":null,"lunghezza":73.11,"comune":"Novi Ligure","localita":null,"via":"Strada di Cassano","tipologia":"DISTRIBUZIONE","tip_rete":"DISTRIBUZIONE","distretto_modello":"DNL08.2"},"geometry":{"type":"LineString","coordinates":[[8.83891106876406,44.76487473840267],[8.838887899573164,44.76483637579093],[8.83898163679163,44.764443277415204],[8.839033416306188,44.76422877844487]]}},{"type":"Feature","properties":{"materiale":"PVC","dn":"DN75","classe_pre":null,"lunghezza":197.99,"comune":"Serravalle Scrivia","localita":null,"via":"Strada Grande","tipologia":"DISTRIBUZIONE","tip_rete":"DISTRIBUZIONE","distretto_modello":"DNL08.2"},"geometry":{"type":"LineString","coordinates":[[8.84376758496562,44.75545570168046],[8.842916247195715,44.75526726582414],[8.842418700801694,44.75516964163024],[8.842055420000763,44.75515922561118],[8.841581778941102,44.755208470760095],[8.841564255712402,44.755209061513725],[8.841562409955444,44.7552062857556],[8.84156056203361,44.75520430233661],[8.841550745856846,44.75520191169176],[8.841541659105387,44.75520387994],[8.841535900776456,44.75520862600332],[8.841338964709792,44.755221859302246]]}},{"type":"Feature","properties":{"materiale":"FE","dn":"DN100","classe_pre":null,"lunghezza":8.23,"comune":"Novi Ligure","localita":null,"via":"Strada di Cassano","tipologia":"DISTRIBUZIONE","tip_rete":"DISTRIBUZIONE","distretto_modello":"DNL08.2"},"geometry":{"type":"LineString","coordinates":[[8.841411830063382,44.75532577343188],[8.841445040850347,44.75525552679477]]}},{"type":"Feature","properties":{"materiale":"PVC","dn":"DN50","classe_pre":null,"lunghezza":11.15,"comune":"Serravalle Scrivia","localita":null,"via":"Via Napoleonica","tipologia":"DISTRIBUZIONE","tip_rete":"DISTRIBUZIONE","distretto_modello":"DNL08.2"},"geometry":{"type":"LineString","coordinates":[[8.844967007465058,44.743812738924845],[8.844940191737043,44.74391125040993]]}},{"type":"Feature","properties":{"materiale":"PE","dn":"DN110","classe_pre":null,"lunghezza":66.36,"comune":"Serravalle Scrivia","localita":null,"via":"Via Napoleonica","tipologia":"DISTRIBUZIONE","tip_rete":"DISTRIBUZIONE","distretto_modello":"DNL08.2"},"geometry":{"type":"LineString","coordinates":[[8.843402641043772,44.74769682640884],[8.843301405903963,44.74797056417784],[8.843187797459098,44.748274281353886]]}},{"type":"Feature","properties":{"materiale":"GS","dn":"DN100","classe_pre":null,"lunghezza":1.85,"comune":"Serravalle Scrivia","localita":null,"via":null,"tipologia":"DISTRIBUZIONE","tip_rete":"DISTRIBUZIONE","distretto_modello":"DNL08.2"},"geometry":{"type":"LineString","coordinates":[[8.846709854977284,44.74787381558162],[8.84670810366349,44.7478904390376]]}},{"type":"Feature","properties":{"materiale":"GS","dn":"DN100","classe_pre":null,"lunghezza":3.77,"comune":"Serravalle Scrivia","localita":null,"via":null,"tipologia":"DISTRIBUZIONE","tip_rete":"DISTRIBUZIONE","distretto_modello":"DNL08.2"},"geometry":{"type":"LineString","coordinates":[[8.843402641043772,44.74769682640884],[8.843450071355594,44.747699383830245]]}},{"type":"Feature","properties":{"materiale":"GS","dn":"DN100","classe_pre":null,"lunghezza":31.6,"comune":"Serravalle Scrivia","localita":null,"via":null,"tipologia":"DISTRIBUZIONE","tip_rete":"DISTRIBUZIONE","distretto_modello":"DNL08.2"},"geometry":{"type":"LineString","coordinates":[[8.846311788575528,44.747852517749244],[8.84648477876154,44.7478617734527],[8.846709854977284,44.74787381558162]]}},{"type":"Feature","properties":{"materiale":"GS","dn":"DN100","classe_pre":null,"lunghezza":3.17,"comune":"Serravalle Scrivia","localita":null,"via":null,"tipologia":"DISTRIBUZIONE","tip_rete":"DISTRIBUZIONE","distretto_modello":"DNL08.2"},"geometry":{"type":"LineString","coordinates":[[8.84627175783771,44.74785085915886],[8.846311788575528,44.747852517749244]]}},{"type":"Feature","properties":{"materiale":"GS","dn":"DN100","classe_pre":null,"lunghezza":52.92,"comune":"Serravalle Scrivia","localita":null,"via":null,"tipologia":"DISTRIBUZIONE","tip_rete":"DISTRIBUZIONE","distretto_modello":"DNL08.2"},"geometry":{"type":"LineString","coordinates":[[8.8462707308015,44.74786753756446],[8.846267358922816,44.747887848198644],[8.846248832884342,44.74791084402555],[8.846131163252343,44.748302480519754],[8.846170348655113,44.74831009156719]]}},{"type":"Feature","properties":{"materiale":"GS","dn":"DN100","classe_pre":null,"lunghezza":1.85,"comune":"Serravalle Scrivia","localita":null,"via":null,"tipologia":"DISTRIBUZIONE","tip_rete":"DISTRIBUZIONE","distretto_modello":"DNL08.2"},"geometry":{"type":"LineString","coordinates":[[8.84627175783771,44.74785085915886],[8.8462707308015,44.74786753756446]]}},{"type":"Feature","properties":{"materiale":"GS","dn":"DN100","classe_pre":null,"lunghezza":3.11,"comune":"Serravalle Scrivia","localita":null,"via":null,"tipologia":"DISTRIBUZIONE","tip_rete":"DISTRIBUZIONE","distretto_modello":"DNL08.2"},"geometry":{"type":"LineString","coordinates":[[8.846232574468774,44.747849380303286],[8.84627175783771,44.74785085915886]]}},{"type":"Feature","properties":{"materiale":"GS","dn":"DN100","classe_pre":null,"lunghezza":142.85,"comune":"Serravalle Scrivia","localita":null,"via":null,"tipologia":"DISTRIBUZIONE","tip_rete":"DISTRIBUZIONE","distretto_modello":"DNL08.2"},"geometry":{"type":"LineString","coordinates":[[8.846170348655113,44.74831009156719],[8.847625129923715,44.748577066354756],[8.847667862823641,44.74859635909354],[8.847704811718236,44.748620981352936],[8.847734685982088,44.748650073082594],[8.84775644210053,44.748682618113016],[8.847773156540065,44.74873833654248],[8.847770901916027,44.748752565052094]]}},{"type":"Feature","properties":{"materiale":"GS","dn":"DN100","classe_pre":null,"lunghezza":171.81,"comune":"Serravalle Scrivia","localita":null,"via":null,"tipologia":"DISTRIBUZIONE","tip_rete":"DISTRIBUZIONE","distretto_modello":"DNL08.2"},"geometry":{"type":"LineString","coordinates":[[8.847770901916027,44.748752565052094],[8.847768510268551,44.74876765828326],[8.847391279777549,44.74982219419771],[8.847994052143205,44.74993168342787]]}},{"type":"Feature","properties":{"materiale":"GS","dn":"DN100","classe_pre":null,"lunghezza":98.25,"comune":"Serravalle Scrivia","localita":null,"via":null,"tipologia":"DISTRIBUZIONE","tip_rete":"DISTRIBUZIONE","distretto_modello":"DNL08.2"},"geometry":{"type":"LineString","coordinates":[[8.847994052143205,44.74993168342787],[8.848055259752227,44.74994280114516],[8.848119830088699,44.75019149504262],[8.847919261868862,44.75076035219617]]}},{"type":"Feature","properties":{"materiale":"GS","dn":"DN100","classe_pre":null,"lunghezza":1.86,"comune":"Serravalle Scrivia","localita":null,"via":null,"tipologia":"DISTRIBUZIONE","tip_rete":"DISTRIBUZIONE","distretto_modello":"DNL08.2"},"geometry":{"type":"LineString","coordinates":[[8.847994052143205,44.74993168342787],[8.84799001630319,44.749948209641424]]}},{"type":"Feature","properties":{"materiale":"GS","dn":"DN100","classe_pre":null,"lunghezza":2.4,"comune":"Serravalle Scrivia","localita":null,"via":null,"tipologia":"DISTRIBUZIONE","tip_rete":"DISTRIBUZIONE","distretto_modello":"DNL08.2"},"geometry":{"type":"LineString","coordinates":[[8.846131163252343,44.748302480519754],[8.846124826257274,44.748323571605454]]}},{"type":"Feature","properties":{"materiale":"GS","dn":"DN100","classe_pre":null,"lunghezza":15.17,"comune":"Serravalle Scrivia","localita":null,"via":null,"tipologia":"DISTRIBUZIONE","tip_rete":"DISTRIBUZIONE","distretto_modello":"DNL08.2"},"geometry":{"type":"LineString","coordinates":[[8.843450071355594,44.747699383830245],[8.843641209507313,44.74770968971299]]}},{"type":"Feature","properties":{"materiale":"PE","dn":"DN110","classe_pre":null,"lunghezza":3.85,"comune":"Serravalle Scrivia","localita":null,"via":"Via Napoleonica","tipologia":"DISTRIBUZIONE","tip_rete":"DISTRIBUZIONE","distretto_modello":"DNL08.2"},"geometry":{"type":"LineString","coordinates":[[8.843700684840778,44.746863827633504],[8.843690971790226,44.74689774573582]]}},{"type":"Feature","properties":{"materiale":"PVC","dn":"DN50","classe_pre":null,"lunghezza":1.63,"comune":"Serravalle Scrivia","localita":null,"via":"Via Napoleonica","tipologia":"DISTRIBUZIONE","tip_rete":"DISTRIBUZIONE","distretto_modello":"DNL08.2"},"geometry":{"type":"LineString","coordinates":[[8.84367057371115,44.746894508806584],[8.843690676889562,44.74689770284762]]}},{"type":"Feature","properties":{"materiale":"GS","dn":"DN100","classe_pre":null,"lunghezza":29.43,"comune":"Serravalle Scrivia","localita":null,"via":null,"tipologia":"DISTRIBUZIONE","tip_rete":"DISTRIBUZIONE","distretto_modello":"DNL08.2"},"geometry":{"type":"LineString","coordinates":[[8.845861907755555,44.747829402720846],[8.846232574468774,44.747849380303286]]}},{"type":"Feature","properties":{"materiale":"GS","dn":"DN100","classe_pre":null,"lunghezza":100.44,"comune":"Serravalle Scrivia","localita":null,"via":null,"tipologia":"DISTRIBUZIONE","tip_rete":"DISTRIBUZIONE","distretto_modello":"DNL08.2"},"geometry":{"type":"LineString","coordinates":[[8.844596736921874,44.74776120546841],[8.845861907755555,44.747829402720846]]}},{"type":"Feature","properties":{"materiale":"GS","dn":"DN100","classe_pre":null,"lunghezza":53.12,"comune":"Serravalle Scrivia","localita":null,"via":null,"tipologia":"DISTRIBUZIONE","tip_rete":"DISTRIBUZIONE","distretto_modello":"DNL08.2"},"geometry":{"type":"LineString","coordinates":[[8.844648823171777,44.74725937673839],[8.844599321058858,44.74773630862348]]}},{"type":"Feature","properties":{"materiale":"GS","dn":"DN100","classe_pre":null,"lunghezza":2.84,"comune":"Serravalle Scrivia","localita":null,"via":null,"tipologia":"DISTRIBUZIONE","tip_rete":"DISTRIBUZIONE","distretto_modello":"DNL08.2"},"geometry":{"type":"LineString","coordinates":[[8.845861907755555,44.747829402720846],[8.845864619626683,44.74780387270985]]}},{"type":"Feature","properties":{"materiale":"GS","dn":"DN100","classe_pre":null,"lunghezza":100.53,"comune":"Serravalle Scrivia","localita":null,"via":null,"tipologia":"DISTRIBUZIONE","tip_rete":"DISTRIBUZIONE","distretto_modello":"DNL08.2"},"geometry":{"type":"LineString","coordinates":[[8.84591533081179,44.747326464857316],[8.844648823171777,44.74725937673839]]}},{"type":"Feature","properties":{"materiale":"GS","dn":"DN100","classe_pre":null,"lunghezza":7.25,"comune":"Serravalle Scrivia","localita":null,"via":null,"tipologia":"DISTRIBUZIONE","tip_rete":"DISTRIBUZIONE","distretto_modello":"DNL08.2"},"geometry":{"type":"LineString","coordinates":[[8.84591533081179,44.747326464857316],[8.846006671891972,44.74733130273277]]}},{"type":"Feature","properties":{"materiale":"GS","dn":"DN100","classe_pre":null,"lunghezza":53.18,"comune":"Serravalle Scrivia","localita":null,"via":null,"tipologia":"DISTRIBUZIONE","tip_rete":"DISTRIBUZIONE","distretto_modello":"DNL08.2"},"geometry":{"type":"LineString","coordinates":[[8.845864619626683,44.74780387270985],[8.84591533081179,44.747326464857316]]}},{"type":"Feature","properties":{"materiale":"GS","dn":"DN100","classe_pre":null,"lunghezza":2.77,"comune":"Serravalle Scrivia","localita":null,"via":null,"tipologia":"DISTRIBUZIONE","tip_rete":"DISTRIBUZIONE","distretto_modello":"DNL08.2"},"geometry":{"type":"LineString","coordinates":[[8.844599321058858,44.74773630862348],[8.844596736921874,44.74776120546841]]}},{"type":"Feature","properties":{"materiale":"GS","dn":"DN100","classe_pre":null,"lunghezza":60.75,"comune":"Serravalle Scrivia","localita":null,"via":null,"tipologia":"DISTRIBUZIONE","tip_rete":"DISTRIBUZIONE","distretto_modello":"DNL08.2"},"geometry":{"type":"LineString","coordinates":[[8.846006671891972,44.74733130273277],[8.84677197021157,44.747371833814675]]}},{"type":"Feature","properties":{"materiale":"GS","dn":"DN100","classe_pre":null,"lunghezza":2.16,"comune":"Serravalle Scrivia","localita":null,"via":null,"tipologia":"DISTRIBUZIONE","tip_rete":"DISTRIBUZIONE","distretto_modello":"DNL08.2"},"geometry":{"type":"LineString","coordinates":[[8.846006671891972,44.74733130273277],[8.846004652702556,44.74735066351754]]}},{"type":"Feature","properties":{"materiale":"GS","dn":"DN100","classe_pre":null,"lunghezza":4.12,"comune":"Serravalle Scrivia","localita":null,"via":null,"tipologia":"DISTRIBUZIONE","tip_rete":"DISTRIBUZIONE","distretto_modello":"DNL08.2"},"geometry":{"type":"LineString","coordinates":[[8.846004652702556,44.74735066351754],[8.846000792322153,44.74738767833134]]}},{"type":"Feature","properties":{"materiale":"GS","dn":"DN100","classe_pre":null,"lunghezza":2.33,"comune":"Serravalle Scrivia","localita":null,"via":null,"tipologia":"DISTRIBUZIONE","tip_rete":"DISTRIBUZIONE","distretto_modello":"DNL08.2"},"geometry":{"type":"LineString","coordinates":[[8.843641209507313,44.74770968971299],[8.843643433672394,44.747688740789464]]}},{"type":"Feature","properties":{"materiale":"GS","dn":"DN100","classe_pre":null,"lunghezza":75.86,"comune":"Serravalle Scrivia","localita":null,"via":null,"tipologia":"DISTRIBUZIONE","tip_rete":"DISTRIBUZIONE","distretto_modello":"DNL08.2"},"geometry":{"type":"LineString","coordinates":[[8.843641209507313,44.74770968971299],[8.844596736921874,44.74776120546841]]}},{"type":"Feature","properties":{"materiale":"GS","dn":"DN100","classe_pre":null,"lunghezza":2.07,"comune":"Serravalle Scrivia","localita":null,"via":null,"tipologia":"DISTRIBUZIONE","tip_rete":"DISTRIBUZIONE","distretto_modello":"DNL08.2"},"geometry":{"type":"LineString","coordinates":[[8.843643433672394,44.747688740789464],[8.843645409206573,44.74767013365287]]}},{"type":"Feature","properties":{"materiale":"GS","dn":"DN100","classe_pre":null,"lunghezza":3.95,"comune":"Serravalle Scrivia","localita":null,"via":null,"tipologia":"DISTRIBUZIONE","tip_rete":"DISTRIBUZIONE","distretto_modello":"DNL08.2"},"geometry":{"type":"LineString","coordinates":[[8.84799001630319,44.749948209641424],[8.847981453330737,44.7499832738122]]}},{"type":"Feature","properties":{"materiale":"GS","dn":"DN100","classe_pre":null,"lunghezza":4.1,"comune":"Serravalle Scrivia","localita":null,"via":null,"tipologia":"DISTRIBUZIONE","tip_rete":"DISTRIBUZIONE","distretto_modello":"DNL08.2"},"geometry":{"type":"LineString","coordinates":[[8.84670810366349,44.7478904390376],[8.846704227207546,44.74792723429022]]}},{"type":"Feature","properties":{"materiale":"GS","dn":"DN100","classe_pre":null,"lunghezza":4.4,"comune":"Serravalle Scrivia","localita":null,"via":null,"tipologia":"DISTRIBUZIONE","tip_rete":"DISTRIBUZIONE","distretto_modello":"DNL08.2"},"geometry":{"type":"LineString","coordinates":[[8.846709854977284,44.74787381558162],[8.8467652819681,44.74787678099259]]}},{"type":"Feature","properties":{"materiale":"PE","dn":"DN110","classe_pre":null,"lunghezza":7.02,"comune":"Novi Ligure","localita":null,"via":"Strada di Cassano","tipologia":"DISTRIBUZIONE","tip_rete":"DISTRIBUZIONE","distretto_modello":"DNL08.2"},"geometry":{"type":"LineString","coordinates":[[8.841377089624826,44.7552676300379],[8.841411830063382,44.75532577343188]]}},{"type":"Feature","properties":{"materiale":"PE","dn":"DN32","classe_pre":null,"lunghezza":59,"comune":"Serravalle Scrivia","localita":null,"via":"Via Pieve","tipologia":"DISTRIBUZIONE","tip_rete":"DISTRIBUZIONE","distretto_modello":"DNL08.2"},"geometry":{"type":"LineString","coordinates":[[8.849196894378377,44.75561066780932],[8.849127911648825,44.755689876854355],[8.849053085074424,44.7557663452223],[8.848972628601086,44.75583985425008],[8.84888677227619,44.75591019373586],[8.848715486624425,44.75601088462094]]}},{"type":"Feature","properties":{"materiale":"FE","dn":"DN100","classe_pre":null,"lunghezza":55.71,"comune":"Serravalle Scrivia","localita":null,"via":"Strada Grande","tipologia":"DISTRIBUZIONE","tip_rete":"DISTRIBUZIONE","distretto_modello":"DNL08.2"},"geometry":{"type":"LineString","coordinates":[[8.841445040850434,44.75525552393554],[8.841494953010187,44.75523043255232],[8.841513571679892,44.75522230610575],[8.84153648914834,44.75521163757599],[8.842050532722391,44.75500016177893]]}},{"type":"Feature","properties":{"materiale":"PE","dn":"DN110","classe_pre":null,"lunghezza":2.61,"comune":"Novi Ligure","localita":null,"via":"Strada di Cassano","tipologia":"DISTRIBUZIONE","tip_rete":"DISTRIBUZIONE","distretto_modello":"DNL08.2"},"geometry":{"type":"LineString","coordinates":[[8.841360277646544,44.755247447746534],[8.841377089624826,44.7552676300379]]}},{"type":"Feature","properties":{"materiale":"PE","dn":"DN110","classe_pre":null,"lunghezza":3.31,"comune":"Serravalle Scrivia","localita":null,"via":"Via Napoleonica","tipologia":"DISTRIBUZIONE","tip_rete":"DISTRIBUZIONE","distretto_modello":"DNL08.2"},"geometry":{"type":"LineString","coordinates":[[8.841338964709792,44.755221859302246],[8.841360277646626,44.75524744488725]]}},{"type":"Feature","properties":{"materiale":"PE","dn":"DN110","classe_pre":null,"lunghezza":6,"comune":"Serravalle Scrivia","localita":null,"via":"Via Napoleonica","tipologia":"DISTRIBUZIONE","tip_rete":"DISTRIBUZIONE","distretto_modello":"DNL08.2"},"geometry":{"type":"LineString","coordinates":[[8.843700684840778,44.746863827633504],[8.84371348432927,44.746810589931535]]}},{"type":"Feature","properties":{"materiale":"PVC","dn":"DN50","classe_pre":null,"lunghezza":2.55,"comune":"Serravalle Scrivia","localita":null,"via":null,"tipologia":"DISTRIBUZIONE","tip_rete":"DISTRIBUZIONE","distretto_modello":"DNL08.2"},"geometry":{"type":"LineString","coordinates":[[8.843187797459098,44.748274281353886],[8.843156832608829,44.74826802517474]]}},{"type":"Feature","properties":{"materiale":"PE","dn":"DN50","classe_pre":null,"lunghezza":1.99,"comune":"Serravalle Scrivia","localita":null,"via":"Via Cassano","tipologia":"DISTRIBUZIONE","tip_rete":"DISTRIBUZIONE","distretto_modello":"DNL08.2"},"geometry":{"type":"LineString","coordinates":[[8.84645983385026,44.743044934330584],[8.846463333464039,44.74306263158981]]}},{"type":"Feature","properties":{"materiale":"PE","dn":"DN50","classe_pre":null,"lunghezza":387.99,"comune":"Serravalle Scrivia","localita":null,"via":"Via Cassano","tipologia":"DISTRIBUZIONE","tip_rete":"DISTRIBUZIONE","distretto_modello":"DNL08.2"},"geometry":{"type":"LineString","coordinates":[[8.846463333464039,44.74306263158981],[8.847306114914424,44.74650343888413]]}},{"type":"Feature","properties":{"materiale":"PE","dn":"DN32","classe_pre":null,"lunghezza":79.24,"comune":"Serravalle Scrivia","localita":null,"via":"Via Pieve","tipologia":"DISTRIBUZIONE","tip_rete":"DISTRIBUZIONE","distretto_modello":"DNL08.2"},"geometry":{"type":"LineString","coordinates":[[8.849498143828143,44.754930427768485],[8.849281691239025,44.75540992942218],[8.849196894378377,44.75561066780932]]}},{"type":"Feature","properties":{"materiale":"PVC","dn":"DN50","classe_pre":null,"lunghezza":2.15,"comune":"Serravalle Scrivia","localita":null,"via":"Cascina San Bartolomeo","tipologia":"DISTRIBUZIONE","tip_rete":"DISTRIBUZIONE","distretto_modello":"DNL08.2"},"geometry":{"type":"LineString","coordinates":[[8.849498143828143,44.754930427768485],[8.849525008045905,44.75493333078166]]}},{"type":"Feature","properties":{"materiale":"PVC","dn":"DN32","classe_pre":null,"lunghezza":34.27,"comune":"Serravalle Scrivia","localita":null,"via":"Cascina San Bartolomeo","tipologia":"DISTRIBUZIONE","tip_rete":"DISTRIBUZIONE","distretto_modello":"DNL08.2"},"geometry":{"type":"LineString","coordinates":[[8.850521719742984,44.755038717005164],[8.850301289760216,44.75503945820862],[8.85009176835957,44.75501395029164]]}},{"type":"Feature","properties":{"materiale":"PVC","dn":"DN32","classe_pre":null,"lunghezza":19.49,"comune":"Serravalle Scrivia","localita":null,"via":"Cascina San Bartolomeo","tipologia":"DISTRIBUZIONE","tip_rete":"DISTRIBUZIONE","distretto_modello":"DNL08.2"},"geometry":{"type":"LineString","coordinates":[[8.850138707793853,44.75480160991394],[8.850067284942368,44.754969556001434]]}},{"type":"Feature","properties":{"materiale":"PVC","dn":"DN32","classe_pre":null,"lunghezza":8.61,"comune":"Serravalle Scrivia","localita":null,"via":"Cascina San Bartolomeo","tipologia":"DISTRIBUZIONE","tip_rete":"DISTRIBUZIONE","distretto_modello":"DNL08.2"},"geometry":{"type":"LineString","coordinates":[[8.850138707793853,44.75480160991394],[8.850247224018306,44.75480754506826]]}},{"type":"Feature","properties":{"materiale":"PVC","dn":"DN32","classe_pre":null,"lunghezza":43.11,"comune":"Serravalle Scrivia","localita":null,"via":"Cascina San Bartolomeo","tipologia":"DISTRIBUZIONE","tip_rete":"DISTRIBUZIONE","distretto_modello":"DNL08.2"},"geometry":{"type":"LineString","coordinates":[[8.850296646500178,44.75443022390234],[8.850138707793853,44.75480160991394]]}},{"type":"Feature","properties":{"materiale":"PVC","dn":"DN32","classe_pre":null,"lunghezza":65.4,"comune":"Serravalle Scrivia","localita":null,"via":"Cascina San Bartolomeo","tipologia":"DISTRIBUZIONE","tip_rete":"DISTRIBUZIONE","distretto_modello":"DNL08.2"},"geometry":{"type":"LineString","coordinates":[[8.85029664650019,44.75443022390234],[8.85077378506796,44.754616536578034],[8.850926851890724,44.754785474926315]]}},{"type":"Feature","properties":{"materiale":"PVC","dn":"DN50","classe_pre":null,"lunghezza":42.55,"comune":"Serravalle Scrivia","localita":null,"via":"Cascina San Bartolomeo","tipologia":"DISTRIBUZIONE","tip_rete":"DISTRIBUZIONE","distretto_modello":"DNL08.2"},"geometry":{"type":"LineString","coordinates":[[8.849525008045905,44.75493333078166],[8.850054221281894,44.755000769494174]]}},{"type":"Feature","properties":{"materiale":"PVC","dn":"DN32","classe_pre":null,"lunghezza":4.1,"comune":"Serravalle Scrivia","localita":null,"via":"Cascina San Bartolomeo","tipologia":"DISTRIBUZIONE","tip_rete":"DISTRIBUZIONE","distretto_modello":"DNL08.2"},"geometry":{"type":"LineString","coordinates":[[8.85009176835957,44.75501395029164],[8.850053113909345,44.75500977985889],[8.850054221281894,44.755000769494174]]}},{"type":"Feature","properties":{"materiale":"PVC","dn":"DN32","classe_pre":null,"lunghezza":3.62,"comune":"Serravalle Scrivia","localita":null,"via":"Cascina San Bartolomeo","tipologia":"DISTRIBUZIONE","tip_rete":"DISTRIBUZIONE","distretto_modello":"DNL08.2"},"geometry":{"type":"LineString","coordinates":[[8.850067284942368,44.754969556001434],[8.850054221281894,44.755000769494174]]}},{"type":"Feature","properties":{"materiale":"PE","dn":"DN32","classe_pre":null,"lunghezza":140.71,"comune":"Serravalle Scrivia","localita":null,"via":"Via Pieve","tipologia":"DISTRIBUZIONE","tip_rete":"DISTRIBUZIONE","distretto_modello":"DNL08.2"},"geometry":{"type":"LineString","coordinates":[[8.848715486624425,44.75601088462094],[8.848631558791585,44.75595410595211],[8.848461290178228,44.75603319368391],[8.848320478978604,44.75608037456043],[8.848209119729384,44.75609785183774],[8.847989562375496,44.756106372431226],[8.847861274836959,44.75609408426329],[8.847581109071026,44.756049582982996],[8.847037552159046,44.75597786921386]]}},{"type":"Feature","properties":{"materiale":"PVC","dn":"DN63","classe_pre":null,"lunghezza":265.45,"comune":"Serravalle Scrivia","localita":null,"via":"Via Pieve","tipologia":"DISTRIBUZIONE","tip_rete":"DISTRIBUZIONE","distretto_modello":"DNL08.2"},"geometry":{"type":"LineString","coordinates":[[8.847037552159046,44.75597786921386],[8.845605750470257,44.7557638788768],[8.844920298797904,44.75568199442785],[8.844425819719042,44.75559099261126],[8.84376758496562,44.75545570168046]]}},{"type":"Feature","properties":{"materiale":"PE","dn":"DN32","classe_pre":null,"lunghezza":52.14,"comune":"Serravalle Scrivia","localita":null,"via":"Via Pieve","tipologia":"DISTRIBUZIONE","tip_rete":"DISTRIBUZIONE","distretto_modello":"DNL08.2"},"geometry":{"type":"LineString","coordinates":[[8.848715486624425,44.75601088462094],[8.848217716474448,44.75631829474302]]}},{"type":"Feature","properties":{"materiale":"PE","dn":"DN50","classe_pre":null,"lunghezza":102.54,"comune":"Serravalle Scrivia","localita":null,"via":"Via Napoleonica","tipologia":"DISTRIBUZIONE","tip_rete":"DISTRIBUZIONE","distretto_modello":"DNL08.2"},"geometry":{"type":"LineString","coordinates":[[8.84551313001457,44.74297717972902],[8.845434637389658,44.74309705288473],[8.845127017388576,44.743514723057956],[8.844967007465058,44.743812738924845]]}},{"type":"Feature","properties":{"materiale":"PE","dn":"DN50","classe_pre":null,"lunghezza":45,"comune":"Serravalle Scrivia","localita":null,"via":"Via Cassano","tipologia":"DISTRIBUZIONE","tip_rete":"DISTRIBUZIONE","distretto_modello":"DNL08.2"},"geometry":{"type":"LineString","coordinates":[[8.846399005366656,44.74267439209902],[8.846355423592707,44.74267866634711],[8.84645983385026,44.743044934330584]]}},{"type":"Feature","properties":{"materiale":"PE","dn":"DN50","classe_pre":null,"lunghezza":76.49,"comune":"Serravalle Scrivia","localita":"CAPOLUOGO","via":null,"tipologia":"DISTRIBUZIONE","tip_rete":"DISTRIBUZIONE","distretto_modello":"DNL08.2"},"geometry":{"type":"LineString","coordinates":[[8.84645983385026,44.743044934330584],[8.846412726391712,44.7430412602644],[8.845524296102445,44.742962431444084],[8.84551313001457,44.74297717972902]]}},{"type":"Feature","properties":{"materiale":"PVC","dn":"DN50","classe_pre":null,"lunghezza":3.19,"comune":"Serravalle Scrivia","localita":null,"via":"Via Napoleonica","tipologia":"DISTRIBUZIONE","tip_rete":"DISTRIBUZIONE","distretto_modello":"DNL08.2"},"geometry":{"type":"LineString","coordinates":[[8.844934237124361,44.74393312550071],[8.84497412636074,44.743937314422574]]}},{"type":"Feature","properties":{"materiale":"PVC","dn":"DN50","classe_pre":null,"lunghezza":3.86,"comune":"Serravalle Scrivia","localita":null,"via":"Via Napoleonica","tipologia":"DISTRIBUZIONE","tip_rete":"DISTRIBUZIONE","distretto_modello":"DNL08.2"},"geometry":{"type":"LineString","coordinates":[[8.843669362997066,44.74683174311004],[8.843661015694632,44.746850918349075],[8.843655043119474,44.74686496571316]]}},{"type":"Feature","properties":{"materiale":"PE","dn":"DN32","classe_pre":null,"lunghezza":10.04,"comune":"Serravalle Scrivia","localita":"CAPOLUOGO","via":null,"tipologia":"DISTRIBUZIONE","tip_rete":"DISTRIBUZIONE","distretto_modello":"DNL08.2"},"geometry":{"type":"LineString","coordinates":[[8.843780439924135,44.74684721443346],[8.843719123704739,44.746840435306716],[8.843714098094122,44.74684632141995],[8.843704704027171,44.74684795106665],[8.843696444422646,44.74684436962141],[8.843694157645759,44.74683767504702],[8.843669362997066,44.74683174311004]]}},{"type":"Feature","properties":{"materiale":"PVC","dn":"DN50","classe_pre":null,"lunghezza":2.75,"comune":"Serravalle Scrivia","localita":null,"via":"Via Napoleonica","tipologia":"DISTRIBUZIONE","tip_rete":"DISTRIBUZIONE","distretto_modello":"DNL08.2"},"geometry":{"type":"LineString","coordinates":[[8.844934237124361,44.74393312550071],[8.844927627113202,44.74395740826831]]}},{"type":"Feature","properties":{"materiale":"PVC","dn":"DN50","classe_pre":null,"lunghezza":2.48,"comune":"Serravalle Scrivia","localita":null,"via":"Via Napoleonica","tipologia":"DISTRIBUZIONE","tip_rete":"DISTRIBUZIONE","distretto_modello":"DNL08.2"},"geometry":{"type":"LineString","coordinates":[[8.844940191737043,44.74391125040993],[8.844934237124361,44.74393312550071]]}},{"type":"Feature","properties":{"materiale":"PVC","dn":"DN50","classe_pre":null,"lunghezza":335.45,"comune":"Serravalle Scrivia","localita":null,"via":"Via Napoleonica","tipologia":"DISTRIBUZIONE","tip_rete":"DISTRIBUZIONE","distretto_modello":"DNL08.2"},"geometry":{"type":"LineString","coordinates":[[8.844927627113202,44.74395740826831],[8.844801987546235,44.74444285518395],[8.844788062708563,44.744501705653846],[8.844714738537586,44.74473947197874],[8.844624653951662,44.74498971625111],[8.844530810687642,44.74522067488363],[8.844201190858808,44.74586931778447],[8.844028435742697,44.7461932165035],[8.843669362997066,44.74683174311004]]}},{"type":"Feature","properties":{"materiale":"PVC","dn":"DN50","classe_pre":null,"lunghezza":5.07,"comune":"Serravalle Scrivia","localita":null,"via":"Via Napoleonica","tipologia":"DISTRIBUZIONE","tip_rete":"DISTRIBUZIONE","distretto_modello":"DNL08.2"},"geometry":{"type":"LineString","coordinates":[[8.843655043119474,44.74686496571316],[8.843645129023617,44.746891241323674],[8.84367057371115,44.746894508806584]]}},{"type":"Feature","properties":{"materiale":"PE","dn":"DN110","classe_pre":null,"lunghezza":91.69,"comune":"Serravalle Scrivia","localita":null,"via":"Via Napoleonica","tipologia":"DISTRIBUZIONE","tip_rete":"DISTRIBUZIONE","distretto_modello":"DNL08.2"},"geometry":{"type":"LineString","coordinates":[[8.843690971790226,44.74689774573582],[8.843640920596952,44.74707252452308],[8.843520336872507,44.747378575879466],[8.843402641043772,44.74769682640884]]}},{"type":"Feature","properties":{"materiale":"PE","dn":"DN110","classe_pre":null,"lunghezza":804.88,"comune":"Serravalle Scrivia","localita":null,"via":"Via Napoleonica","tipologia":"DISTRIBUZIONE","tip_rete":"DISTRIBUZIONE","distretto_modello":"DNL08.2"},"geometry":{"type":"LineString","coordinates":[[8.843187797459098,44.748274281353886],[8.843170596842048,44.74832026464267],[8.8429442575726,44.748961407002575],[8.84254194393842,44.750101187027965],[8.842381035206005,44.75058042743567],[8.842086731473023,44.75141525307015],[8.841980541483618,44.75167443887444],[8.84189639359867,44.7519693942963],[8.841816112876993,44.752264896578744],[8.841739706372591,44.752560919974364],[8.841664354867408,44.75309484838241],[8.841533652568017,44.75421864679875],[8.841464755199047,44.75445914175665],[8.841120410662402,44.75518409115237],[8.84133896470971,44.755221862161534]]}},{"type":"Feature","properties":{"materiale":"PE","dn":"DN75","classe_pre":null,"lunghezza":13.82,"comune":"Novi Ligure","localita":null,"via":"Strada vicinale Sant'Angelo","tipologia":"DISTRIBUZIONE","tip_rete":"DISTRIBUZIONE","distretto_modello":"DNL08.2"},"geometry":{"type":"LineString","coordinates":[[8.841127819880155,44.76294176158559],[8.84130066429062,44.762924241032074]]}},{"type":"Feature","properties":{"materiale":"PE","dn":"DN75","classe_pre":null,"lunghezza":191.35,"comune":"Novi Ligure","localita":null,"via":"Strada vicinale Sant'Angelo","tipologia":"DISTRIBUZIONE","tip_rete":"DISTRIBUZIONE","distretto_modello":"DNL08.2"},"geometry":{"type":"LineString","coordinates":[[8.842404581518265,44.762293217031946],[8.842576390717827,44.762121391140305],[8.8426952013192,44.76200014699306],[8.842831195515982,44.761851501861884],[8.843063269172793,44.761657058673116],[8.84339902878826,44.761437963712794],[8.843667081336179,44.761248476560205],[8.843977334174259,44.76099318859881]]}},{"type":"Feature","properties":{"materiale":"GH","dn":"DN75","classe_pre":null,"lunghezza":113.99,"comune":"Novi Ligure","localita":"Localita' Bettole","via":"Strada Vicinale Sant'angelo","tipologia":"DISTRIBUZIONE","tip_rete":"DISTRIBUZIONE","distretto_modello":"DNL08.2"},"geometry":{"type":"LineString","coordinates":[[8.84130066429062,44.762924241032074],[8.841348907624198,44.76291829114316],[8.841502113673593,44.76285948604813],[8.841677014513253,44.76279125097489],[8.841836636182151,44.76272760314311],[8.84204208273872,44.76259160347645],[8.842114316072404,44.762541615254186],[8.842269323962045,44.76241612125416],[8.842404581518265,44.76229321703192]]}},{"type":"Feature","properties":{"materiale":"PE","dn":"DE110","classe_pre":null,"lunghezza":4.86,"comune":"Novi Ligure","localita":"Bettole di Novi","via":"S.P. 151","tipologia":"DISTRIBUZIONE","tip_rete":"DISTRIBUZIONE","distretto_modello":"DNL08.2"},"geometry":{"type":"LineString","coordinates":[[8.838669358829229,44.76592127153736],[8.838681327358476,44.76592508662971],[8.838725435065445,44.76593914640182]]}},{"type":"Feature","properties":{"materiale":"FE","dn":"DN100","classe_pre":null,"lunghezza":1204.02,"comune":"Novi Ligure","localita":null,"via":"Strada di Cassano","tipologia":"DISTRIBUZIONE","tip_rete":"DISTRIBUZIONE","distretto_modello":"DNL08.2"},"geometry":{"type":"LineString","coordinates":[[8.8385949909219,44.76588649096123],[8.838605176679108,44.76583803606086],[8.8386145540104,44.765802248128175],[8.838682566523191,44.765533009146615],[8.838740483275389,44.765279728694644],[8.839288298867755,44.76289118421248],[8.839394606078306,44.7624705319152],[8.839488719252724,44.761985970963785],[8.839818206369808,44.76025255324247],[8.839891640943273,44.7599750590624],[8.840077908070542,44.759149137959035],[8.840366921269448,44.757503787229],[8.84079473812697,44.75597539601081],[8.8408771680174,44.75579650465524],[8.841032345589506,44.75558631957581],[8.841261618266207,44.75541699563352],[8.841411830063382,44.75532577343188]]}},{"type":"Feature","properties":{"materiale":"PE","dn":"DE110","classe_pre":null,"lunghezza":7.04,"comune":"Novi Ligure","localita":"Bettole di Novi","via":"S.P. 151","tipologia":"DISTRIBUZIONE","tip_rete":"DISTRIBUZIONE","distretto_modello":"DNL08.2"},"geometry":{"type":"LineString","coordinates":[[8.8385949909219,44.76588649096123],[8.838669358829229,44.76592127153736]]}},{"type":"Feature","properties":{"materiale":"PE","dn":"DN75","classe_pre":null,"lunghezza":109.78,"comune":"Novi Ligure","localita":null,"via":"Strada di Cassano","tipologia":"DISTRIBUZIONE","tip_rete":"DISTRIBUZIONE","distretto_modello":"DNL08.2"},"geometry":{"type":"LineString","coordinates":[[8.838685435640533,44.765869150057256],[8.838839099731779,44.76519261021592],[8.83887581763273,44.76499273611504],[8.838927087859796,44.764898185205574]]}}]}