{
  "type": "FeatureCollection",
  "name": "misuratore_portata",
  "crs": {
    "type": "name",
    "properties": {
      "name": "urn:ogc:def:crs:EPSG::32632"
    }
  },
  "features": [
    {
      "type": "Feature",
      "properties": {
        "tipo": "PORTATA",
        "prex_eser": null,
        "x": 482903,
        "y": 4957256,
        "codice": "MIS10",
        "comune": null,
        "localita": null,
        "via": null,
        "doc": null,
        "id": 1,
        "rot": 0
      },
      "geometry": {
        "type": "Point",
        "coordinates": [
          8.783949575994397,
          44.76848943099143
        ]
      }
    },
    {
      "type": "Feature",
      "properties": {
        "tipo": "PORTATA",
        "prex_eser": null,
        "x": 481788,
        "y": 4952691,
        "codice": "MIS05",
        "comune": "Tassarolo",
        "localita": null,
        "via": "Via Giuseppe Garibaldi",
        "doc": null,
        "id": 28,
        "rot": 120
      },
      "geometry": {
        "type": "Point",
        "coordinates": [
          8.770021502920766,
          44.727369248033426
        ]
      }
    },
    {
      "type": "Feature",
      "properties": {
        "tipo": "PORTATA",
        "prex_eser": null,
        "x": 483396,
        "y": 4957170,
        "codice": "MIS08",
        "comune": null,
        "localita": null,
        "via": null,
        "doc": null,
        "id": 3,
        "rot": 0
      },
      "geometry": {
        "type": "Point",
        "coordinates": [
          8.79018204838763,
          44.76772521899823
        ]
      }
    },
    {
      "type": "Feature",
      "properties": {
        "tipo": "PORTATA",
        "prex_eser": null,
        "x": 482747,
        "y": 4956978,
        "codice": "NL24",
        "comune": null,
        "localita": null,
        "via": null,
        "doc": null,
        "id": 4,
        "rot": 0
      },
      "geometry": {
        "type": "Point",
        "coordinates": [
          8.78198421080599,
          44.76598128253658
        ]
      }
    },
    {
      "type": "Feature",
      "properties": {
        "tipo": "PORTATA",
        "prex_eser": null,
        "x": 481850,
        "y": 4952563,
        "codice": "MIS06",
        "comune": "Tassarolo",
        "localita": null,
        "via": "Via Campolasso",
        "doc": null,
        "id": 27,
        "rot": 45
      },
      "geometry": {
        "type": "Point",
        "coordinates": [
          8.770806973566529,
          44.72621813183203
        ]
      }
    },
    {
      "type": "Feature",
      "properties": {
        "tipo": "PORTATA",
        "prex_eser": null,
        "x": 481700,
        "y": 4952814,
        "codice": "MIS03",
        "comune": "Tassarolo",
        "localita": null,
        "via": "strada Francavilla",
        "doc": null,
        "id": 24,
        "rot": 255
      },
      "geometry": {
        "type": "Point",
        "coordinates": [
          8.768900135802095,
          44.728478246137726
        ]
      }
    },
    {
      "type": "Feature",
      "properties": {
        "tipo": "PORTATA",
        "prex_eser": null,
        "x": 484569,
        "y": 4956953,
        "codice": "MIS06",
        "comune": "Novi Ligure",
        "localita": "CAPOLUOGO",
        "via": "Via Montesanto",
        "doc": null,
        "id": 5,
        "rot": 0
      },
      "geometry": {
        "type": "Point",
        "coordinates": [
          8.80501215565952,
          44.76580433636295
        ]
      }
    },
    {
      "type": "Feature",
      "properties": {
        "tipo": "PORTATA",
        "prex_eser": null,
        "x": 481742,
        "y": 4952873,
        "codice": "MIS01",
        "comune": "Tassarolo",
        "localita": null,
        "via": "Via Vecchia Novi Ligure",
        "doc": null,
        "id": 25,
        "rot": 330
      },
      "geometry": {
        "type": "Point",
        "coordinates": [
          8.769434547300587,
          44.729008060374234
        ]
      }
    },
    {
      "type": "Feature",
      "properties": {
        "tipo": "PORTATA",
        "prex_eser": null,
        "x": 484145,
        "y": 4957343,
        "codice": "MIS09",
        "comune": null,
        "localita": null,
        "via": "Via Manzoni",
        "doc": null,
        "id": 6,
        "rot": 0
      },
      "geometry": {
        "type": "Point",
        "coordinates": [
          8.79964025420791,
          44.769299761418786
        ]
      }
    },
    {
      "type": "Feature",
      "properties": {
        "tipo": "PORTATA",
        "prex_eser": null,
        "x": 483669,
        "y": 4956301,
        "codice": "MIS07",
        "comune": null,
        "localita": null,
        "via": null,
        "doc": null,
        "id": 7,
        "rot": 0
      },
      "geometry": {
        "type": "Point",
        "coordinates": [
          8.793653560451427,
          44.75991036971484
        ]
      }
    },
    {
      "type": "Feature",
      "properties": {
        "tipo": "PORTATA",
        "prex_eser": null,
        "x": 483581,
        "y": 4956385,
        "codice": "NL27",
        "comune": null,
        "localita": null,
        "via": null,
        "doc": null,
        "id": 8,
        "rot": 0
      },
      "geometry": {
        "type": "Point",
        "coordinates": [
          8.792536568345664,
          44.760665751689686
        ]
      }
    },
    {
      "type": "Feature",
      "properties": {
        "tipo": "PORTATA",
        "prex_eser": null,
        "x": 483320,
        "y": 4958759,
        "codice": "NL23",
        "comune": null,
        "localita": null,
        "via": null,
        "doc": null,
        "id": 9,
        "rot": 0
      },
      "geometry": {
        "type": "Point",
        "coordinates": [
          8.789167413932203,
          44.78203566650722
        ]
      }
    },
    {
      "type": "Feature",
      "properties": {
        "tipo": "PORTATA",
        "prex_eser": null,
        "x": 482071,
        "y": 4959348,
        "codice": "NL21",
        "comune": "Novi Ligure",
        "localita": null,
        "via": null,
        "doc": null,
        "id": 10,
        "rot": 0
      },
      "geometry": {
        "type": "Point",
        "coordinates": [
          8.773352151036619,
          44.787302891786766
        ]
      }
    },
    {
      "type": "Feature",
      "properties": {
        "tipo": "PORTATA",
        "prex_eser": "10",
        "x": 485727,
        "y": 4957086,
        "codice": "NL34",
        "comune": null,
        "localita": null,
        "via": null,
        "doc": null,
        "id": 11,
        "rot": 0
      },
      "geometry": {
        "type": "Point",
        "coordinates": [
          8.819637727961343,
          44.76702570650797
        ]
      }
    },
    {
      "type": "Feature",
      "properties": {
        "tipo": "PORTATA",
        "prex_eser": null,
        "x": 485747,
        "y": 4957054,
        "codice": "MIS05",
        "comune": null,
        "localita": null,
        "via": null,
        "doc": null,
        "id": 12,
        "rot": 0
      },
      "geometry": {
        "type": "Point",
        "coordinates": [
          8.819886222543156,
          44.76673768992583
        ]
      }
    },
    {
      "type": "Feature",
      "properties": {
        "tipo": "PORTATA",
        "prex_eser": null,
        "x": 485712,
        "y": 4955259,
        "codice": "NL28",
        "comune": null,
        "localita": null,
        "via": null,
        "doc": null,
        "id": 13,
        "rot": 0
      },
      "geometry": {
        "type": "Point",
        "coordinates": [
          8.819495331440457,
          44.75057805372536
        ]
      }
    },
    {
      "type": "Feature",
      "properties": {
        "tipo": "PORTATA",
        "prex_eser": null,
        "x": 484864,
        "y": 4955445,
        "codice": "MIS03",
        "comune": null,
        "localita": null,
        "via": null,
        "doc": null,
        "id": 14,
        "rot": 0
      },
      "geometry": {
        "type": "Point",
        "coordinates": [
          8.80877620717225,
          44.752236232275536
        ]
      }
    },
    {
      "type": "Feature",
      "properties": {
        "tipo": "PORTATA",
        "prex_eser": null,
        "x": 484841,
        "y": 4956141,
        "codice": "MIS04",
        "comune": null,
        "localita": null,
        "via": null,
        "doc": null,
        "id": 15,
        "rot": 0
      },
      "geometry": {
        "type": "Point",
        "coordinates": [
          8.808467751816039,
          44.758493907651264
        ]
      }
    },
    {
      "type": "Feature",
      "properties": {
        "tipo": "PORTATA",
        "prex_eser": null,
        "x": 487238,
        "y": 4956972,
        "codice": "NL33",
        "comune": null,
        "localita": null,
        "via": null,
        "doc": null,
        "id": 16,
        "rot": 0
      },
      "geometry": {
        "type": "Point",
        "coordinates": [
          8.838726759230436,
          44.76602282926901
        ]
      }
    },
    {
      "type": "Feature",
      "properties": {
        "tipo": "PORTATA",
        "prex_eser": null,
        "x": 487237,
        "y": 4956962,
        "codice": "MIS01",
        "comune": null,
        "localita": null,
        "via": null,
        "doc": null,
        "id": 17,
        "rot": 0
      },
      "geometry": {
        "type": "Point",
        "coordinates": [
          8.838725435337098,
          44.76593914704441
        ]
      }
    },
    {
      "type": "Feature",
      "properties": {
        "tipo": "PORTATA",
        "prex_eser": null,
        "x": 487435,
        "y": 4957043,
        "codice": "NL01.01",
        "comune": "Novi Ligure",
        "localita": "Bettole di Novi",
        "via": null,
        "doc": null,
        "id": 18,
        "rot": 0
      },
      "geometry": {
        "type": "Point",
        "coordinates": [
          8.841220821085,
          44.76666855075911
        ]
      }
    },
    {
      "type": "Feature",
      "properties": {
        "tipo": "PORTATA",
        "prex_eser": null,
        "x": 487437,
        "y": 4957042,
        "codice": "NL01.2",
        "comune": "Novi Ligure",
        "localita": "Bettole di Novi",
        "via": null,
        "doc": null,
        "id": 19,
        "rot": 0
      },
      "geometry": {
        "type": "Point",
        "coordinates": [
          8.841246998074965,
          44.766655979659376
        ]
      }
    },
    {
      "type": "Feature",
      "properties": {
        "tipo": "PORTATA",
        "prex_eser": "25",
        "x": 486064,
        "y": 4954120,
        "codice": "NL16",
        "comune": "Novi Ligure",
        "localita": "Villa Capitania",
        "via": "S.S. 35 dei Giovi",
        "doc": null,
        "id": 20,
        "rot": 0
      },
      "geometry": {
        "type": "Point",
        "coordinates": [
          8.823968709167529,
          44.74032726098259
        ]
      }
    },
    {
      "type": "Feature",
      "properties": {
        "tipo": "PORTATA",
        "prex_eser": null,
        "x": 486395,
        "y": 4953858,
        "codice": "NL15",
        "comune": null,
        "localita": null,
        "via": null,
        "doc": null,
        "id": 21,
        "rot": 0
      },
      "geometry": {
        "type": "Point",
        "coordinates": [
          8.828157333685107,
          44.737975914417454
        ]
      }
    },
    {
      "type": "Feature",
      "properties": {
        "tipo": "PORTATA",
        "prex_eser": null,
        "x": null,
        "y": null,
        "codice": "PZ02 FUORI ESERCIZIO",
        "comune": "Pozzolo Formigaro",
        "localita": "CAPOLUOGO",
        "via": "Via Fossato Vignale",
        "doc": null,
        "id": 44,
        "rot": null
      },
      "geometry": {
        "type": "Point",
        "coordinates": [
          8.7809567196991,
          44.791383713691
        ]
      }
    },
    {
      "type": "Feature",
      "properties": {
        "tipo": "PORTATA",
        "prex_eser": null,
        "x": 484167,
        "y": 4957235,
        "codice": "MIS11",
        "comune": "Novi Ligure",
        "localita": "CAPOLUOGO",
        "via": "Via Robotti",
        "doc": null,
        "id": 45,
        "rot": null
      },
      "geometry": {
        "type": "Point",
        "coordinates": [
          8.799920866304852,
          44.76833587949606
        ]
      }
    },
    {
      "type": "Feature",
      "properties": {
        "tipo": "PORTATA",
        "prex_eser": null,
        "x": 482141,
        "y": 4956193,
        "codice": "NL13",
        "comune": "Novi Ligure",
        "localita": "G3",
        "via": "S.P. 156 Novi - Francavilla",
        "doc": null,
        "id": 29,
        "rot": 0
      },
      "geometry": {
        "type": "Point",
        "coordinates": [
          8.77435372529051,
          44.75890605102239
        ]
      }
    },
    {
      "type": "Feature",
      "properties": {
        "tipo": "PORTATA",
        "prex_eser": null,
        "x": 482019,
        "y": 4957574,
        "codice": "NL32",
        "comune": "Novi Ligure",
        "localita": "ILVA",
        "via": "Via Pietro Isola",
        "doc": null,
        "id": 31,
        "rot": 0
      },
      "geometry": {
        "type": "Point",
        "coordinates": [
          8.77275625817113,
          44.77132909540529
        ]
      }
    },
    {
      "type": "Feature",
      "properties": {
        "tipo": "PORTATA",
        "prex_eser": null,
        "x": 482228,
        "y": 4958492,
        "codice": "NL22",
        "comune": "Novi Ligure",
        "localita": "San Bovo",
        "via": "Strada San Marziano",
        "doc": null,
        "id": 32,
        "rot": 0
      },
      "geometry": {
        "type": "Point",
        "coordinates": [
          8.775368656327867,
          44.779604893362034
        ]
      }
    },
    {
      "type": "Feature",
      "properties": {
        "tipo": "PORTATA",
        "prex_eser": null,
        "x": 481863,
        "y": 4952828,
        "codice": "MIS02",
        "comune": "Tassarolo",
        "localita": null,
        "via": "Via Crosa",
        "doc": null,
        "id": 26,
        "rot": 0
      },
      "geometry": {
        "type": "Point",
        "coordinates": [
          8.770963711983867,
          44.728599741719975
        ]
      }
    },
    {
      "type": "Feature",
      "properties": {
        "tipo": "PORTATA",
        "prex_eser": null,
        "x": 481303,
        "y": 4952144,
        "codice": "MIS04",
        "comune": "Tassarolo",
        "localita": null,
        "via": "Strada Comunale Cavallari",
        "doc": null,
        "id": 23,
        "rot": 280
      },
      "geometry": {
        "type": "Point",
        "coordinates": [
          8.763915171579544,
          44.72243115232143
        ]
      }
    },
    {
      "type": "Feature",
      "properties": {
        "tipo": "PORTATA",
        "prex_eser": null,
        "x": 478784,
        "y": 4952743,
        "codice": "MIS07",
        "comune": "Tassarolo",
        "localita": "Pozzo Biuta (comune di Francavilla Bisio)",
        "via": null,
        "doc": null,
        "id": 22,
        "rot": 270
      },
      "geometry": {
        "type": "Point",
        "coordinates": [
          8.732083686537516,
          44.7277550414847
        ]
      }
    },
    {
      "type": "Feature",
      "properties": {
        "tipo": null,
        "prex_eser": null,
        "x": null,
        "y": null,
        "codice": "NL35",
        "comune": "Novi Ligure",
        "localita": "Bettole di Pozzolo",
        "via": "S.P. 151",
        "doc": null,
        "id": 33,
        "rot": null
      },
      "geometry": {
        "type": "Point",
        "coordinates": [
          8.823482646057883,
          44.801770802279734
        ]
      }
    },
    {
      "type": "Feature",
      "properties": {
        "tipo": "PORTATA",
        "prex_eser": null,
        "x": null,
        "y": null,
        "codice": "NL09",
        "comune": "Novi Ligure",
        "localita": "Bricchetta",
        "via": null,
        "doc": null,
        "id": 35,
        "rot": null
      },
      "geometry": {
        "type": "Point",
        "coordinates": [
          8.787790686836605,
          44.75679365823091
        ]
      }
    },
    {
      "type": "Feature",
      "properties": {
        "tipo": "PORTATA",
        "prex_eser": null,
        "x": null,
        "y": null,
        "codice": "NL07",
        "comune": "Novi Ligure",
        "localita": "Costa Vecchio",
        "via": null,
        "doc": null,
        "id": 36,
        "rot": null
      },
      "geometry": {
        "type": "Point",
        "coordinates": [
          8.789652178734153,
          44.75698668854858
        ]
      }
    },
    {
      "type": "Feature",
      "properties": {
        "tipo": "PORTATA",
        "prex_eser": null,
        "x": null,
        "y": null,
        "codice": "NL06.02",
        "comune": "Novi Ligure",
        "localita": "Costa Nuovo",
        "via": null,
        "doc": null,
        "id": 37,
        "rot": null
      },
      "geometry": {
        "type": "Point",
        "coordinates": [
          8.789246103221812,
          44.756875356853975
        ]
      }
    },
    {
      "type": "Feature",
      "properties": {
        "tipo": "PORTATA",
        "prex_eser": null,
        "x": null,
        "y": null,
        "codice": "NL06.01",
        "comune": "Novi Ligure",
        "localita": "Costa Nuovo",
        "via": null,
        "doc": null,
        "id": 38,
        "rot": null
      },
      "geometry": {
        "type": "Point",
        "coordinates": [
          8.789292742728428,
          44.756863159719295
        ]
      }
    },
    {
      "type": "Feature",
      "properties": {
        "tipo": null,
        "prex_eser": null,
        "x": null,
        "y": null,
        "codice": "NL05",
        "comune": "Novi Ligure",
        "localita": "Castello",
        "via": null,
        "doc": null,
        "id": 39,
        "rot": null
      },
      "geometry": {
        "type": "Point",
        "coordinates": [
          8.787224721593832,
          44.75790146043782
        ]
      }
    },
    {
      "type": "Feature",
      "properties": {
        "tipo": null,
        "prex_eser": null,
        "x": null,
        "y": null,
        "codice": "NL03",
        "comune": "Novi Ligure",
        "localita": "Castello",
        "via": null,
        "doc": null,
        "id": 40,
        "rot": null
      },
      "geometry": {
        "type": "Point",
        "coordinates": [
          8.787273306893802,
          44.75789653584132
        ]
      }
    },
    {
      "type": "Feature",
      "properties": {
        "tipo": null,
        "prex_eser": null,
        "x": null,
        "y": null,
        "codice": "NL04",
        "comune": "Novi Ligure",
        "localita": "Castello",
        "via": null,
        "doc": null,
        "id": 41,
        "rot": null
      },
      "geometry": {
        "type": "Point",
        "coordinates": [
          8.787328232516296,
          44.75789011849985
        ]
      }
    },
    {
      "type": "Feature",
      "properties": {
        "tipo": "PORTATA",
        "prex_eser": null,
        "x": null,
        "y": null,
        "codice": "NL10",
        "comune": "Novi Ligure",
        "localita": "Norese",
        "via": null,
        "doc": null,
        "id": 34,
        "rot": null
      },
      "geometry": {
        "type": "Point",
        "coordinates": [
          8.791655773968131,
          44.730591618194254
        ]
      }
    },
    {
      "type": "Feature",
      "properties": {
        "tipo": "PORTATA",
        "prex_eser": null,
        "x": 482897,
        "y": 4957213,
        "codice": "NL25",
        "comune": null,
        "localita": null,
        "via": null,
        "doc": null,
        "id": 2,
        "rot": 0
      },
      "geometry": {
        "type": "Point",
        "coordinates": [
          8.783863157800267,
          44.76810444800001
        ]
      }
    },
    {
      "type": "Feature",
      "properties": {
        "tipo": "PORTATA",
        "prex_eser": null,
        "x": 486837,
        "y": 4961216,
        "codice": "PZ05",
        "comune": "Pozzolo Formigaro",
        "localita": "Bettole di Pozzolo",
        "via": "Strada Imperatore",
        "doc": null,
        "id": 42,
        "rot": null
      },
      "geometry": {
        "type": "Point",
        "coordinates": [
          8.833551483660957,
          44.80422011011902
        ]
      }
    },
    {
      "type": "Feature",
      "properties": {
        "tipo": "PORTATA",
        "prex_eser": null,
        "x": 483339,
        "y": 4960228,
        "codice": "PZ04",
        "comune": "Pozzolo Formigaro",
        "localita": "CAPOLUOGO",
        "via": "S.P. Pozzolo Villalvernia",
        "doc": null,
        "id": 30,
        "rot": 0
      },
      "geometry": {
        "type": "Point",
        "coordinates": [
          8.789356217775213,
          44.795258697146345
        ]
      }
    },
    {
      "type": "Feature",
      "properties": {
        "tipo": "PORTATA",
        "prex_eser": null,
        "x": 483339,
        "y": 4960228,
        "codice": "PZ01",
        "comune": "Pozzolo Formigaro",
        "localita": "CAPOLUOGO",
        "via": "S.P. Pozzolo Villalvernia",
        "doc": null,
        "id": 43,
        "rot": 0
      },
      "geometry": {
        "type": "Point",
        "coordinates": [
          8.787919319019007,
          44.79258796716305
        ]
      }
    }
  ]
}