{
  "type": "FeatureCollection",
  "name": "valvole_distrettuali",
  "crs": {
    "type": "name",
    "properties": {
      "name": "urn:ogc:def:crs:EPSG::32632"
    }
  },
  "features": [
    {
      "type": "Feature",
      "properties": {
        "stato": "CHIUSA",
        "tipologia": "Valvola a 2 vie",
        "id": 4,
        "codice": null,
        "comune": "Novi Ligure",
        "distretto": "DNL09"
      },
      "geometry": {
        "type": "Point",
        "coordinates": [
          8.755877941632418,
          44.77167489464338
        ]
      }
    },
    {
      "type": "Feature",
      "properties": {
        "stato": "CHIUSA",
        "tipologia": "Valvola a 2 vie",
        "id": 19,
        "codice": null,
        "comune": "Novi Ligure",
        "distretto": "DNL02"
      },
      "geometry": {
        "type": "Point",
        "coordinates": [
          8.769681831780233,
          44.764480120920055
        ]
      }
    },
    {
      "type": "Feature",
      "properties": {
        "stato": "CHIUSA",
        "tipologia": "Valvola a 2 vie",
        "id": 20,
        "codice": null,
        "comune": "Novi Ligure",
        "distretto": "DNL07"
      },
      "geometry": {
        "type": "Point",
        "coordinates": [
          8.770847528842364,
          44.763882834522974
        ]
      }
    },
    {
      "type": "Feature",
      "properties": {
        "stato": "CHIUSA",
        "tipologia": "Valvola a 2 vie",
        "id": 23,
        "codice": null,
        "comune": "Novi Ligure",
        "distretto": "DNL07"
      },
      "geometry": {
        "type": "Point",
        "coordinates": [
          8.771784896983824,
          44.76345509107236
        ]
      }
    },
    {
      "type": "Feature",
      "properties": {
        "stato": "CHIUSA",
        "tipologia": "Valvola a 2 vie",
        "id": 29,
        "codice": null,
        "comune": "Novi Ligure",
        "distretto": "DNL07"
      },
      "geometry": {
        "type": "Point",
        "coordinates": [
          8.774465493792658,
          44.762517104666955
        ]
      }
    },
    {
      "type": "Feature",
      "properties": {
        "stato": "CHIUSA",
        "tipologia": "Valvola a 2 vie",
        "id": 48,
        "codice": null,
        "comune": "Novi Ligure",
        "distretto": "DNL07"
      },
      "geometry": {
        "type": "Point",
        "coordinates": [
          8.773986133665963,
          44.7583870943489
        ]
      }
    },
    {
      "type": "Feature",
      "properties": {
        "stato": "CHIUSA",
        "tipologia": "Valvola a 2 vie",
        "id": 51,
        "codice": null,
        "comune": "Novi Ligure",
        "distretto": "DNL06"
      },
      "geometry": {
        "type": "Point",
        "coordinates": [
          8.773607671081544,
          44.75764569711825
        ]
      }
    },
    {
      "type": "Feature",
      "properties": {
        "stato": "CHIUSA",
        "tipologia": "Valvola a 2 vie",
        "id": 128,
        "codice": null,
        "comune": "Novi Ligure",
        "distretto": "DNL06"
      },
      "geometry": {
        "type": "Point",
        "coordinates": [
          8.784117778158478,
          44.75782853580951
        ]
      }
    },
    {
      "type": "Feature",
      "properties": {
        "stato": "APERTA",
        "tipologia": "Valvola a 2 vie",
        "id": 231,
        "codice": null,
        "comune": "Novi Ligure",
        "distretto": "DNL01.2"
      },
      "geometry": {
        "type": "Point",
        "coordinates": [
          8.797545410929747,
          44.76570455585606
        ]
      }
    },
    {
      "type": "Feature",
      "properties": {
        "stato": "CHIUSA",
        "tipologia": "Valvola a 2 vie",
        "id": 234,
        "codice": null,
        "comune": "Novi Ligure",
        "distretto": "DNL01.2"
      },
      "geometry": {
        "type": "Point",
        "coordinates": [
          8.794343188090284,
          44.7663571877394
        ]
      }
    },
    {
      "type": "Feature",
      "properties": {
        "stato": "APERTA",
        "tipologia": "Valvola a 2 vie",
        "id": 237,
        "codice": null,
        "comune": "Novi Ligure",
        "distretto": "DNL01.2"
      },
      "geometry": {
        "type": "Point",
        "coordinates": [
          8.795724815613923,
          44.766085119085446
        ]
      }
    },
    {
      "type": "Feature",
      "properties": {
        "stato": "CHIUSA",
        "tipologia": "Valvola a 2 vie",
        "id": 238,
        "codice": null,
        "comune": "Novi Ligure",
        "distretto": "DNL01.2"
      },
      "geometry": {
        "type": "Point",
        "coordinates": [
          8.79594962524115,
          44.766854239857565
        ]
      }
    },
    {
      "type": "Feature",
      "properties": {
        "stato": "CHIUSA",
        "tipologia": "Valvola a 2 vie",
        "id": 250,
        "codice": null,
        "comune": "Novi Ligure",
        "distretto": "DNL01.2"
      },
      "geometry": {
        "type": "Point",
        "coordinates": [
          8.797806828427726,
          44.76678033155416
        ]
      }
    },
    {
      "type": "Feature",
      "properties": {
        "stato": "CHIUSA",
        "tipologia": "Valvola a 2 vie",
        "id": 279,
        "codice": null,
        "comune": "Novi Ligure",
        "distretto": "DNL01.2"
      },
      "geometry": {
        "type": "Point",
        "coordinates": [
          8.788991948995891,
          44.769935144060085
        ]
      }
    },
    {
      "type": "Feature",
      "properties": {
        "stato": "CHIUSA",
        "tipologia": "Valvola a 2 vie",
        "id": 285,
        "codice": null,
        "comune": "Novi Ligure",
        "distretto": "DNL01"
      },
      "geometry": {
        "type": "Point",
        "coordinates": [
          8.79217121908416,
          44.7723939944976
        ]
      }
    },
    {
      "type": "Feature",
      "properties": {
        "stato": "CHIUSA",
        "tipologia": "Valvola a 2 vie",
        "id": 290,
        "codice": null,
        "comune": "Novi Ligure",
        "distretto": "DNL01.2"
      },
      "geometry": {
        "type": "Point",
        "coordinates": [
          8.789237342688923,
          44.770581595565375
        ]
      }
    },
    {
      "type": "Feature",
      "properties": {
        "stato": "CHIUSA",
        "tipologia": "Valvola a 2 vie",
        "id": 295,
        "codice": null,
        "comune": "Novi Ligure",
        "distretto": "DNL01.2"
      },
      "geometry": {
        "type": "Point",
        "coordinates": [
          8.78847802584301,
          44.76858004127509
        ]
      }
    },
    {
      "type": "Feature",
      "properties": {
        "stato": "CHIUSA",
        "tipologia": "Valvola a 2 vie",
        "id": 316,
        "codice": null,
        "comune": "Novi Ligure",
        "distretto": "DNL02"
      },
      "geometry": {
        "type": "Point",
        "coordinates": [
          8.78584972012044,
          44.76214731585008
        ]
      }
    },
    {
      "type": "Feature",
      "properties": {
        "stato": "CHIUSA",
        "tipologia": "Valvola a 2 vie",
        "id": 414,
        "codice": null,
        "comune": "Novi Ligure",
        "distretto": "DNL01"
      },
      "geometry": {
        "type": "Point",
        "coordinates": [
          8.794134929769847,
          44.77204754089891
        ]
      }
    },
    {
      "type": "Feature",
      "properties": {
        "stato": "CHIUSA",
        "tipologia": "Valvola a 2 vie",
        "id": 458,
        "codice": null,
        "comune": "Novi Ligure",
        "distretto": "DNL09"
      },
      "geometry": {
        "type": "Point",
        "coordinates": [
          8.765529798933043,
          44.76958815234619
        ]
      }
    },
    {
      "type": "Feature",
      "properties": {
        "stato": "CHIUSA",
        "tipologia": "Valvola a 2 vie",
        "id": 553,
        "codice": null,
        "comune": "Novi Ligure",
        "distretto": "DNL01.3"
      },
      "geometry": {
        "type": "Point",
        "coordinates": [
          8.803648711387428,
          44.7644148075027
        ]
      }
    },
    {
      "type": "Feature",
      "properties": {
        "stato": "APERTA",
        "tipologia": "Valvola a 2 vie",
        "id": 554,
        "codice": null,
        "comune": "Novi Ligure",
        "distretto": "DNL01"
      },
      "geometry": {
        "type": "Point",
        "coordinates": [
          8.803554318281925,
          44.766104180422346
        ]
      }
    },
    {
      "type": "Feature",
      "properties": {
        "stato": "CHIUSA",
        "tipologia": "Valvola a 2 vie",
        "id": 559,
        "codice": null,
        "comune": "Novi Ligure",
        "distretto": "DNL01"
      },
      "geometry": {
        "type": "Point",
        "coordinates": [
          8.798434902838702,
          44.763902146001186
        ]
      }
    },
    {
      "type": "Feature",
      "properties": {
        "stato": "CHIUSA",
        "tipologia": "Valvola a 2 vie",
        "id": 560,
        "codice": null,
        "comune": "Novi Ligure",
        "distretto": "DNL01"
      },
      "geometry": {
        "type": "Point",
        "coordinates": [
          8.798430595722623,
          44.76389935389561
        ]
      }
    },
    {
      "type": "Feature",
      "properties": {
        "stato": "CHIUSA",
        "tipologia": "Valvola a 2 vie",
        "id": 745,
        "codice": "VA02",
        "comune": "Novi Ligure",
        "distretto": "DNL08.1"
      },
      "geometry": {
        "type": "Point",
        "coordinates": [
          8.818238922480644,
          44.76681447882191
        ]
      }
    },
    {
      "type": "Feature",
      "properties": {
        "stato": "CHIUSA",
        "tipologia": "Valvola a 2 vie",
        "id": 906,
        "codice": null,
        "comune": "Novi Ligure",
        "distretto": "DNL02"
      },
      "geometry": {
        "type": "Point",
        "coordinates": [
          8.793399589403426,
          44.75867506165154
        ]
      }
    },
    {
      "type": "Feature",
      "properties": {
        "stato": "CHIUSA",
        "tipologia": "Valvola a 2 vie",
        "id": 943,
        "codice": null,
        "comune": "Novi Ligure",
        "distretto": "DNL01"
      },
      "geometry": {
        "type": "Point",
        "coordinates": [
          8.78909523798819,
          44.76332190289513
        ]
      }
    },
    {
      "type": "Feature",
      "properties": {
        "stato": "CHIUSA",
        "tipologia": "Valvola a 2 vie",
        "id": 955,
        "codice": null,
        "comune": "Novi Ligure",
        "distretto": "DNL01.2"
      },
      "geometry": {
        "type": "Point",
        "coordinates": [
          8.78861547784375,
          44.76902094479271
        ]
      }
    },
    {
      "type": "Feature",
      "properties": {
        "stato": "CHIUSA",
        "tipologia": "Valvola a 2 vie",
        "id": 1024,
        "codice": null,
        "comune": "Novi Ligure",
        "distretto": "DNL01.2"
      },
      "geometry": {
        "type": "Point",
        "coordinates": [
          8.801771361818155,
          44.765899423507676
        ]
      }
    },
    {
      "type": "Feature",
      "properties": {
        "stato": "APERTA",
        "tipologia": "Valvola a 2 vie",
        "id": 1025,
        "codice": null,
        "comune": "Novi Ligure",
        "distretto": "DNL01.2"
      },
      "geometry": {
        "type": "Point",
        "coordinates": [
          8.801804182150397,
          44.765903716690154
        ]
      }
    },
    {
      "type": "Feature",
      "properties": {
        "stato": "APERTA",
        "tipologia": "Valvola a 2 vie",
        "id": 1027,
        "codice": null,
        "comune": "Novi Ligure",
        "distretto": "DNL01"
      },
      "geometry": {
        "type": "Point",
        "coordinates": [
          8.80094067570794,
          44.768635716554456
        ]
      }
    },
    {
      "type": "Feature",
      "properties": {
        "stato": "CHIUSA",
        "tipologia": "Valvola a 2 vie",
        "id": 1050,
        "codice": null,
        "comune": "Novi Ligure",
        "distretto": "DNL02"
      },
      "geometry": {
        "type": "Point",
        "coordinates": [
          8.77395299350619,
          44.77036948788796
        ]
      }
    },
    {
      "type": "Feature",
      "properties": {
        "stato": "CHIUSA",
        "tipologia": "Valvola a 2 vie",
        "id": 1065,
        "codice": null,
        "comune": "Novi Ligure",
        "distretto": "DNL09"
      },
      "geometry": {
        "type": "Point",
        "coordinates": [
          8.755583396489754,
          44.76907063049996
        ]
      }
    },
    {
      "type": "Feature",
      "properties": {
        "stato": "CHIUSA",
        "tipologia": "Valvola a 2 vie",
        "id": 1417,
        "codice": null,
        "comune": "Novi Ligure",
        "distretto": "DNL01.3"
      },
      "geometry": {
        "type": "Point",
        "coordinates": [
          8.795158921469804,
          44.76250453542868
        ]
      }
    },
    {
      "type": "Feature",
      "properties": {
        "stato": "CHIUSA",
        "tipologia": "Valvola a 2 vie",
        "id": 5741,
        "codice": null,
        "comune": "Novi Ligure",
        "distretto": "DNL09"
      },
      "geometry": {
        "type": "Point",
        "coordinates": [
          8.76338966598678,
          44.7682689119413
        ]
      }
    },
    {
      "type": "Feature",
      "properties": {
        "stato": "APERTA",
        "tipologia": "Valvola a 2 vie",
        "id": 6120,
        "codice": null,
        "comune": "Novi Ligure",
        "distretto": "DNL01.2"
      },
      "geometry": {
        "type": "Point",
        "coordinates": [
          8.78794317263584,
          44.76760358664112
        ]
      }
    },
    {
      "type": "Feature",
      "properties": {
        "stato": "APERTA",
        "tipologia": "Valvola a 2 vie",
        "id": 7060,
        "codice": null,
        "comune": "Novi Ligure",
        "distretto": "DNL01.3"
      },
      "geometry": {
        "type": "Point",
        "coordinates": [
          8.806039643214755,
          44.76197308334095
        ]
      }
    },
    {
      "type": "Feature",
      "properties": {
        "stato": "CHIUSA",
        "tipologia": "Valvola a 2 vie",
        "id": 7574,
        "codice": null,
        "comune": "Novi Ligure",
        "distretto": "DNL03"
      },
      "geometry": {
        "type": "Point",
        "coordinates": [
          8.809833152763932,
          44.77716353986301
        ]
      }
    },
    {
      "type": "Feature",
      "properties": {
        "stato": "CHIUSA",
        "tipologia": "Valvola a 2 vie",
        "id": 7966,
        "codice": null,
        "comune": "Novi Ligure",
        "distretto": "DNL04"
      },
      "geometry": {
        "type": "Point",
        "coordinates": [
          8.805940867242834,
          44.74536955678146
        ]
      }
    },
    {
      "type": "Feature",
      "properties": {
        "stato": "CHIUSA",
        "tipologia": "Valvola a 2 vie",
        "id": 7990,
        "codice": null,
        "comune": "Novi Ligure",
        "distretto": "DNL01"
      },
      "geometry": {
        "type": "Point",
        "coordinates": [
          8.800173361327438,
          44.76522636308692
        ]
      }
    },
    {
      "type": "Feature",
      "properties": {
        "stato": "CHIUSA",
        "tipologia": "Valvola a 2 vie",
        "id": 8152,
        "codice": null,
        "comune": "Novi Ligure",
        "distretto": "DNL01.3"
      },
      "geometry": {
        "type": "Point",
        "coordinates": [
          8.794235256407685,
          44.76213298921197
        ]
      }
    },
    {
      "type": "Feature",
      "properties": {
        "stato": "CHIUSA",
        "tipologia": "Valvola a 2 vie",
        "id": 8156,
        "codice": null,
        "comune": "Novi Ligure",
        "distretto": "DNL01"
      },
      "geometry": {
        "type": "Point",
        "coordinates": [
          8.792934668953212,
          44.761141693587696
        ]
      }
    },
    {
      "type": "Feature",
      "properties": {
        "stato": "APERTA",
        "tipologia": "Valvola a 2 vie",
        "id": 8157,
        "codice": null,
        "comune": "Novi Ligure",
        "distretto": "DNL01"
      },
      "geometry": {
        "type": "Point",
        "coordinates": [
          8.794945505425632,
          44.762630585928584
        ]
      }
    },
    {
      "type": "Feature",
      "properties": {
        "stato": "CHIUSA",
        "tipologia": "Valvola a 2 vie",
        "id": 8675,
        "codice": null,
        "comune": "Novi Ligure",
        "distretto": "DNL02"
      },
      "geometry": {
        "type": "Point",
        "coordinates": [
          8.781872283146933,
          44.765934514926315
        ]
      }
    },
    {
      "type": "Feature",
      "properties": {
        "stato": "CHIUSA",
        "tipologia": "Valvola a 2 vie",
        "id": 9316,
        "codice": null,
        "comune": "Novi Ligure",
        "distretto": null
      },
      "geometry": {
        "type": "Point",
        "coordinates": [
          8.789316711057312,
          44.77096819393993
        ]
      }
    }
  ]
}
