{"type":"FeatureCollection","name":"utenze","crs":{"type":"name","properties":{"name":"urn:ogc:def:crs:EPSG::32632"}},"features":[{"type":"Feature","properties":{"POF":"00100018109","LATITUDINE":44.76097,"LONGITUDINE":8.83998,"ALTITUDINE":183,"LOCALITA":"NOVI LIGURE","VIA":"STRADA ANTICA DI CASSANO","CIVICO":155,"distretto_modello":"DNL08.2"},"geometry":{"type":"Point","coordinates":[8.839979999728465,44.76097000158715]}},{"type":"Feature","properties":{"POF":"00100034185","LATITUDINE":44.756375,"LONGITUDINE":8.84582,"ALTITUDINE":179.2,"LOCALITA":"SERRAVALLE SCRIVIA","VIA":"VIA PIEVE","CIVICO":22,"distretto_modello":"DNL08.2"},"geometry":{"type":"Point","coordinates":[8.845819999756763,44.75637500158625]}},{"type":"Feature","properties":{"POF":"00100033182","LATITUDINE":44.746638333333294,"LONGITUDINE":8.84739,"ALTITUDINE":188.6,"LOCALITA":"SERRAVALLE SCRIVIA","VIA":"VIA CASSANO","CIVICO":101,"distretto_modello":"DNL08.2"},"geometry":{"type":"Point","coordinates":[8.847389999763893,44.746638334917485]}},{"type":"Feature","properties":{"POF":"00100053755","LATITUDINE":44.744125,"LONGITUDINE":8.84656833333333,"ALTITUDINE":199.4,"LOCALITA":"SERRAVALLE SCRIVIA","VIA":"VIA CASSANO","CIVICO":93,"distretto_modello":"DNL08.2"},"geometry":{"type":"Point","coordinates":[8.846568333093392,44.7441250015836]}},{"type":"Feature","properties":{"POF":"00100033180","LATITUDINE":44.745563333333294,"LONGITUDINE":8.84695166666667,"ALTITUDINE":198.2,"LOCALITA":"SERRAVALLE SCRIVIA","VIA":"VIA CASSANO","CIVICO":97,"distretto_modello":"DNL08.2"},"geometry":{"type":"Point","coordinates":[8.846951666428529,44.74556333491723]}},{"type":"Feature","properties":{"POF":"00100033183","LATITUDINE":44.75500833333329,"LONGITUDINE":8.85076333333333,"ALTITUDINE":185.8,"LOCALITA":"SERRAVALLE SCRIVIA","VIA":"VIA CASSANO","CIVICO":102,"distretto_modello":"DNL08.2"},"geometry":{"type":"Point","coordinates":[8.85076333311246,44.75500833491936]}},{"type":"Feature","properties":{"POF":"00100034182","LATITUDINE":44.75500333333329,"LONGITUDINE":8.85046,"ALTITUDINE":179.5,"LOCALITA":"SERRAVALLE SCRIVIA","VIA":"VIA PIEVE","CIVICO":2,"distretto_modello":"DNL08.2"},"geometry":{"type":"Point","coordinates":[8.850459999777803,44.75500333491938]}},{"type":"Feature","properties":{"POF":"00100018470","LATITUDINE":44.76507833333329,"LONGITUDINE":8.84000666666667,"ALTITUDINE":166.8,"LOCALITA":"NOVI LIGURE","VIA":"STRADA DI CASSANO","CIVICO":145,"distretto_modello":"DNL08.2"},"geometry":{"type":"Point","coordinates":[8.84000666639532,44.76507833492137]}},{"type":"Feature","properties":{"POF":"00100018481","LATITUDINE":44.761935,"LONGITUDINE":8.84277833333333,"ALTITUDINE":181.8,"LOCALITA":"NOVI LIGURE","VIA":"STRADA DI CASSANO","CIVICO":153,"distretto_modello":"DNL08.2"},"geometry":{"type":"Point","coordinates":[8.84277833307564,44.76193500158744]}},{"type":"Feature","properties":{"POF":"00100018493","LATITUDINE":44.75625,"LONGITUDINE":8.84075166666667,"ALTITUDINE":195.8,"LOCALITA":"NOVI LIGURE","VIA":"STRADA DI CASSANO","CIVICO":179,"distretto_modello":"DNL08.2"},"geometry":{"type":"Point","coordinates":[8.840751666398871,44.75625000158617]}},{"type":"Feature","properties":{"POF":"00100033890","LATITUDINE":44.752965,"LONGITUDINE":8.84175666666667,"ALTITUDINE":194.6,"LOCALITA":"SERRAVALLE SCRIVIA","VIA":"VIA NAPOLEONICA","CIVICO":99999,"distretto_modello":"DNL08.2"},"geometry":{"type":"Point","coordinates":[8.841756666403834,44.75296500158541]}},{"type":"Feature","properties":{"POF":"00100033193","LATITUDINE":44.754455,"LONGITUDINE":8.85058833333333,"ALTITUDINE":182.9,"LOCALITA":"SERRAVALLE SCRIVIA","VIA":"VIA CASSANO","CIVICO":117,"distretto_modello":"DNL08.2"},"geometry":{"type":"Point","coordinates":[8.850588333111688,44.754455001585924]}},{"type":"Feature","properties":{"POF":"00100051978","LATITUDINE":44.7623316666667,"LONGITUDINE":8.83913666666667,"ALTITUDINE":202.7,"LOCALITA":"CASSANO SPINOLA","VIA":"VIA GARIGLIANO","CIVICO":37,"distretto_modello":"DNL08.2"},"geometry":{"type":"Point","coordinates":[8.839136666390834,44.7623316682541]}},{"type":"Feature","properties":{"POF":"00100018485","LATITUDINE":44.75983,"LONGITUDINE":8.839625,"ALTITUDINE":187.3,"LOCALITA":"NOVI LIGURE","VIA":"STRADA DI CASSANO","CIVICO":158,"distretto_modello":"DNL08.2"},"geometry":{"type":"Point","coordinates":[8.839624999726636,44.759830001586934]}},{"type":"Feature","properties":{"POF":"00100018490","LATITUDINE":44.75787,"LONGITUDINE":8.84079166666667,"ALTITUDINE":198.2,"LOCALITA":"NOVI LIGURE","VIA":"STRADA DI CASSANO","CIVICO":173,"distretto_modello":"DNL08.2"},"geometry":{"type":"Point","coordinates":[8.840791666399104,44.75787000158652]}},{"type":"Feature","properties":{"POF":"00400033200","LATITUDINE":44.74786,"LONGITUDINE":8.845454,"ALTITUDINE":202.5,"LOCALITA":"SERRAVALLE SCRIVIA","VIA":"VIA CASSANO","CIVICO":99999,"distretto_modello":"DNL08.2"},"geometry":{"type":"Point","coordinates":[8.845453999754886,44.7478600015844]}},{"type":"Feature","properties":{"POF":"00100034920","LATITUDINE":44.7472966666667,"LONGITUDINE":8.84615333333333,"ALTITUDINE":202.2,"LOCALITA":"SERRAVALLE SCRIVIA","VIA":"VIA DELL'ARTIGIANATO","CIVICO":9999,"distretto_modello":"DNL08.2"},"geometry":{"type":"Point","coordinates":[8.846153333091472,44.74729666825096]}},{"type":"Feature","properties":{"POF":"00300033200","LATITUDINE":44.7573016666667,"LONGITUDINE":8.84799666666667,"ALTITUDINE":186.2,"LOCALITA":"SERRAVALLE SCRIVIA","VIA":"VIA CASSANO","CIVICO":99999,"distretto_modello":"DNL08.2"},"geometry":{"type":"Point","coordinates":[8.84799666643348,44.7573016682532]}},{"type":"Feature","properties":{"POF":"00200033178","LATITUDINE":44.7456016666667,"LONGITUDINE":8.84701166666667,"ALTITUDINE":196.1,"LOCALITA":"SERRAVALLE SCRIVIA","VIA":"VIA CASSANO","CIVICO":95,"distretto_modello":"DNL08.2"},"geometry":{"type":"Point","coordinates":[8.847011666428788,44.74560166825068]}},{"type":"Feature","properties":{"POF":"00100033178","LATITUDINE":44.745786666666696,"LONGITUDINE":8.846721666666669,"ALTITUDINE":198.4,"LOCALITA":"SERRAVALLE SCRIVIA","VIA":"VIA CASSANO","CIVICO":95,"distretto_modello":"DNL08.2"},"geometry":{"type":"Point","coordinates":[8.84672166642747,44.74578666825069]}},{"type":"Feature","properties":{"POF":"00100033199","LATITUDINE":44.754495,"LONGITUDINE":8.850795,"ALTITUDINE":184.9,"LOCALITA":"SERRAVALLE SCRIVIA","VIA":"VIA CASSANO","CIVICO":188,"distretto_modello":"DNL08.2"},"geometry":{"type":"Point","coordinates":[8.850794999779295,44.75449500158593]}},{"type":"Feature","properties":{"POF":"00100018471","LATITUDINE":44.7649133333333,"LONGITUDINE":8.83959666666667,"ALTITUDINE":216.1,"LOCALITA":"NOVI LIGURE","VIA":"STRADA DI CASSANO","CIVICO":146,"distretto_modello":"DNL08.2"},"geometry":{"type":"Point","coordinates":[8.839596666393247,44.7649133349213]}},{"type":"Feature","properties":{"POF":"04400046132","LATITUDINE":44.76199,"LONGITUDINE":8.84272833333333,"ALTITUDINE":181.3,"LOCALITA":"NOVI LIGURE","VIA":"STRADA DI CASSANO","CIVICO":151,"distretto_modello":"DNL08.2"},"geometry":{"type":"Point","coordinates":[8.8427283330754,44.76199000158744]}},{"type":"Feature","properties":{"POF":"00100018480","LATITUDINE":44.76204,"LONGITUDINE":8.83968833333333,"ALTITUDINE":186.9,"LOCALITA":"NOVI LIGURE","VIA":"STRADA DI CASSANO","CIVICO":152,"distretto_modello":"DNL08.2"},"geometry":{"type":"Point","coordinates":[8.839688333060302,44.762040001587415]}},{"type":"Feature","properties":{"POF":"00100018484","LATITUDINE":44.76059833333329,"LONGITUDINE":8.83965833333333,"ALTITUDINE":181.3,"LOCALITA":"NOVI LIGURE","VIA":"STRADA DI CASSANO","CIVICO":157,"distretto_modello":"DNL08.2"},"geometry":{"type":"Point","coordinates":[8.839658333060155,44.760598334920374]}},{"type":"Feature","properties":{"POF":"00100018483","LATITUDINE":44.7608466666667,"LONGITUDINE":8.83902333333333,"ALTITUDINE":188,"LOCALITA":"NOVI LIGURE","VIA":"STRADA DI CASSANO","CIVICO":156,"distretto_modello":"DNL08.2"},"geometry":{"type":"Point","coordinates":[8.839023333056886,44.76084666825384]}},{"type":"Feature","properties":{"POF":"00100018488","LATITUDINE":44.75858833333329,"LONGITUDINE":8.84186833333333,"ALTITUDINE":194.1,"LOCALITA":"NOVI LIGURE","VIA":"STRADA DI CASSANO","CIVICO":170,"distretto_modello":"DNL08.2"},"geometry":{"type":"Point","coordinates":[8.84186833307114,44.758588334919935]}},{"type":"Feature","properties":{"POF":"00100018492","LATITUDINE":44.757808333333294,"LONGITUDINE":8.84102833333333,"ALTITUDINE":199.8,"LOCALITA":"NOVI LIGURE","VIA":"STRADA DI CASSANO","CIVICO":175,"distretto_modello":"DNL08.2"},"geometry":{"type":"Point","coordinates":[8.841028333066957,44.75780833491979]}},{"type":"Feature","properties":{"POF":"00100018491","LATITUDINE":44.7578416666667,"LONGITUDINE":8.84103833333333,"ALTITUDINE":186.7,"LOCALITA":"NOVI LIGURE","VIA":"STRADA DI CASSANO","CIVICO":174,"distretto_modello":"DNL08.2"},"geometry":{"type":"Point","coordinates":[8.841038333066995,44.75784166825321]}},{"type":"Feature","properties":{"POF":"00200033889","LATITUDINE":44.745943333333294,"LONGITUDINE":8.84462666666667,"ALTITUDINE":199.2,"LOCALITA":"SERRAVALLE SCRIVIA","VIA":"VIA NAPOLEONICA","CIVICO":16,"distretto_modello":"DNL08.2"},"geometry":{"type":"Point","coordinates":[8.844626666417629,44.7459433349173]}},{"type":"Feature","properties":{"POF":"00100033200","LATITUDINE":44.7502083333333,"LONGITUDINE":8.84258166666667,"ALTITUDINE":194.6,"LOCALITA":"SERRAVALLE SCRIVIA","VIA":"VIA CASSANO","CIVICO":111,"distretto_modello":"DNL08.2"},"geometry":{"type":"Point","coordinates":[8.842581666407813,44.750208334918185]}},{"type":"Feature","properties":{"POF":"00100034919","LATITUDINE":44.7476716666667,"LONGITUDINE":8.84614333333333,"ALTITUDINE":196.5,"LOCALITA":"SERRAVALLE SCRIVIA","VIA":"VIA DELL'ARTIGIANATO","CIVICO":1,"distretto_modello":"DNL08.2"},"geometry":{"type":"Point","coordinates":[8.846143333091439,44.74767166825109]}},{"type":"Feature","properties":{"POF":"00100053757","LATITUDINE":44.7478116666667,"LONGITUDINE":8.84503666666667,"ALTITUDINE":202.7,"LOCALITA":"SERRAVALLE SCRIVIA","VIA":"VIA DELL'ARTIGIANATO","CIVICO":19,"distretto_modello":"DNL08.2"},"geometry":{"type":"Point","coordinates":[8.845036666419597,44.747811668251124]}},{"type":"Feature","properties":{"POF":"00700033200","LATITUDINE":44.744125,"LONGITUDINE":8.84656833333333,"ALTITUDINE":199.4,"LOCALITA":"SERRAVALLE SCRIVIA","VIA":"VIA CASSANO","CIVICO":93,"distretto_modello":"DNL08.2"},"geometry":{"type":"Point","coordinates":[8.846568333093392,44.7441250015836]}},{"type":"Feature","properties":{"POF":"00100033192","LATITUDINE":44.753873333333296,"LONGITUDINE":8.84872166666667,"ALTITUDINE":191.4,"LOCALITA":"SERRAVALLE SCRIVIA","VIA":"VIA CASSANO","CIVICO":115,"distretto_modello":"DNL08.2"},"geometry":{"type":"Point","coordinates":[8.848721666436703,44.75387333491908]}},{"type":"Feature","properties":{"POF":"00200018469","LATITUDINE":44.7658816666667,"LONGITUDINE":8.83897166666667,"ALTITUDINE":177.2,"LOCALITA":"NOVI LIGURE","VIA":"STRADA DI CASSANO","CIVICO":142,"distretto_modello":"DNL08.2"},"geometry":{"type":"Point","coordinates":[8.838971666390089,44.76588166825489]}},{"type":"Feature","properties":{"POF":"00200018470","LATITUDINE":44.764705,"LONGITUDINE":8.839355,"ALTITUDINE":178.9,"LOCALITA":"NOVI LIGURE","VIA":"STRADA DI CASSANO","CIVICO":145,"distretto_modello":"DNL08.2"},"geometry":{"type":"Point","coordinates":[8.839354999725357,44.764705001587934]}},{"type":"Feature","properties":{"POF":"00100018472","LATITUDINE":44.7626,"LONGITUDINE":8.84197,"ALTITUDINE":193.2,"LOCALITA":"NOVI LIGURE","VIA":"STRADA DI CASSANO","CIVICO":148,"distretto_modello":"DNL08.2"},"geometry":{"type":"Point","coordinates":[8.84196999973838,44.76260000158752]}},{"type":"Feature","properties":{"POF":"00100018477","LATITUDINE":44.76219,"LONGITUDINE":8.84221,"ALTITUDINE":206.4,"LOCALITA":"NOVI LIGURE","VIA":"STRADA DI CASSANO","CIVICO":150,"distretto_modello":"DNL08.2"},"geometry":{"type":"Point","coordinates":[8.842209999739532,44.762190001587456]}},{"type":"Feature","properties":{"POF":"00100018475","LATITUDINE":44.763941666666696,"LONGITUDINE":8.839025,"ALTITUDINE":191.7,"LOCALITA":"NOVI LIGURE","VIA":"STRADA DI CASSANO","CIVICO":148,"distretto_modello":"DNL08.2"},"geometry":{"type":"Point","coordinates":[8.83902499972364,44.763941668254525]}},{"type":"Feature","properties":{"POF":"00100018482","LATITUDINE":44.76091,"LONGITUDINE":8.83983,"ALTITUDINE":184.8,"LOCALITA":"NOVI LIGURE","VIA":"STRADA DI CASSANO","CIVICO":155,"distretto_modello":"DNL08.2"},"geometry":{"type":"Point","coordinates":[8.839829999727668,44.76091000158719]}},{"type":"Feature","properties":{"POF":"00200018486","LATITUDINE":44.7613966666667,"LONGITUDINE":8.843638333333331,"ALTITUDINE":177.7,"LOCALITA":"NOVI LIGURE","VIA":"STRADA DI CASSANO","CIVICO":159,"distretto_modello":"DNL08.2"},"geometry":{"type":"Point","coordinates":[8.843638333079774,44.76139666825402]}},{"type":"Feature","properties":{"POF":"00100018486","LATITUDINE":44.761373333333296,"LONGITUDINE":8.84383166666667,"ALTITUDINE":178.2,"LOCALITA":"NOVI LIGURE","VIA":"STRADA DI CASSANO","CIVICO":159,"distretto_modello":"DNL08.2"},"geometry":{"type":"Point","coordinates":[8.843831666414063,44.761373334920606]}},{"type":"Feature","properties":{"POF":"00100018489","LATITUDINE":44.757755,"LONGITUDINE":8.84005666666667,"ALTITUDINE":189.2,"LOCALITA":"NOVI LIGURE","VIA":"STRADA DI CASSANO","CIVICO":172,"distretto_modello":"DNL08.2"},"geometry":{"type":"Point","coordinates":[8.840056666395437,44.75775500158649]}},{"type":"Feature","properties":{"POF":"00600018495","LATITUDINE":44.7550183333333,"LONGITUDINE":8.840918333333331,"ALTITUDINE":186.8,"LOCALITA":"NOVI LIGURE","VIA":"STRADA DI CASSANO","CIVICO":99999,"distretto_modello":"DNL08.2"},"geometry":{"type":"Point","coordinates":[8.84091833306638,44.75501833491917]}},{"type":"Feature","properties":{"POF":"00700018495","LATITUDINE":44.76026333333329,"LONGITUDINE":8.83894166666667,"ALTITUDINE":190.6,"LOCALITA":"NOVI LIGURE","VIA":"STRADA DI CASSANO","CIVICO":99999,"distretto_modello":"DNL08.2"},"geometry":{"type":"Point","coordinates":[8.838941666389823,44.76026333492025]}},{"type":"Feature","properties":{"POF":"00100033887","LATITUDINE":44.74381333333329,"LONGITUDINE":8.845075,"ALTITUDINE":195.8,"LOCALITA":"SERRAVALLE SCRIVIA","VIA":"VIA NAPOLEONICA","CIVICO":6,"distretto_modello":"DNL08.2"},"geometry":{"type":"Point","coordinates":[8.845074999753031,44.74381333491676]}},{"type":"Feature","properties":{"POF":"00300033889","LATITUDINE":44.7458666666667,"LONGITUDINE":8.84461833333333,"ALTITUDINE":199.3,"LOCALITA":"SERRAVALLE SCRIVIA","VIA":"VIA NAPOLEONICA","CIVICO":16,"distretto_modello":"DNL08.2"},"geometry":{"type":"Point","coordinates":[8.844618333084224,44.74586666825064]}},{"type":"Feature","properties":{"POF":"00900033200","LATITUDINE":44.7560116666667,"LONGITUDINE":8.84741,"ALTITUDINE":178.3,"LOCALITA":"SERRAVALLE SCRIVIA","VIA":"VIA CASSANO","CIVICO":99999,"distretto_modello":"DNL08.2"},"geometry":{"type":"Point","coordinates":[8.8474099997641,44.75601166825296]}},{"type":"Feature","properties":{"POF":"00100034186","LATITUDINE":44.757305,"LONGITUDINE":8.84827666666667,"ALTITUDINE":186.2,"LOCALITA":"SERRAVALLE SCRIVIA","VIA":"VIA PIEVE","CIVICO":24,"distretto_modello":"DNL08.2"},"geometry":{"type":"Point","coordinates":[8.848276666434739,44.75730500158652]}},{"type":"Feature","properties":{"POF":"00200033177","LATITUDINE":44.74278,"LONGITUDINE":8.84627166666667,"ALTITUDINE":198.2,"LOCALITA":"SERRAVALLE SCRIVIA","VIA":"VIA CASSANO","CIVICO":93,"distretto_modello":"DNL08.2"},"geometry":{"type":"Point","coordinates":[8.846271666425336,44.74278000158328]}},{"type":"Feature","properties":{"POF":"00100018478","LATITUDINE":44.76205333333329,"LONGITUDINE":8.84267333333333,"ALTITUDINE":183.5,"LOCALITA":"NOVI LIGURE","VIA":"STRADA DI CASSANO","CIVICO":150,"distretto_modello":"DNL08.2"},"geometry":{"type":"Point","coordinates":[8.842673333075142,44.7620533349207]}},{"type":"Feature","properties":{"POF":"00100034184","LATITUDINE":44.757066666666695,"LONGITUDINE":8.84789333333333,"ALTITUDINE":193.3,"LOCALITA":"SERRAVALLE SCRIVIA","VIA":"VIA PIEVE","CIVICO":22,"distretto_modello":"DNL08.2"},"geometry":{"type":"Point","coordinates":[8.84789333309966,44.75706666825319]}},{"type":"Feature","properties":{"POF":"00100033177","LATITUDINE":44.742735,"LONGITUDINE":8.84631,"ALTITUDINE":198.3,"LOCALITA":"SERRAVALLE SCRIVIA","VIA":"VIA CASSANO","CIVICO":93,"distretto_modello":"DNL08.2"},"geometry":{"type":"Point","coordinates":[8.846309999758832,44.74273500158329]}},{"type":"Feature","properties":{"POF":"00600051830","LATITUDINE":44.762693333333296,"LONGITUDINE":8.83946,"ALTITUDINE":201.8,"LOCALITA":"CASSANO SPINOLA","VIA":"VIA ARZANI","CIVICO":3,"distretto_modello":"DNL08.2"},"geometry":{"type":"Point","coordinates":[8.839459999725843,44.76269333492081]}},{"type":"Feature","properties":{"POF":"00100033888","LATITUDINE":44.74441333333329,"LONGITUDINE":8.844891666666669,"ALTITUDINE":204.9,"LOCALITA":"SERRAVALLE SCRIVIA","VIA":"VIA NAPOLEONICA","CIVICO":10,"distretto_modello":"DNL08.2"},"geometry":{"type":"Point","coordinates":[8.844891666418862,44.74441333491692]}},{"type":"Feature","properties":{"POF":"00100018479","LATITUDINE":44.7617666666667,"LONGITUDINE":8.843,"ALTITUDINE":183.3,"LOCALITA":"NOVI LIGURE","VIA":"STRADA DI CASSANO","CIVICO":151,"distretto_modello":"DNL08.2"},"geometry":{"type":"Point","coordinates":[8.842999999743395,44.761766668254104]}},{"type":"Feature","properties":{"POF":"00200018489","LATITUDINE":44.7577816666667,"LONGITUDINE":8.84010333333333,"ALTITUDINE":184.3,"LOCALITA":"NOVI LIGURE","VIA":"STRADA DI CASSANO","CIVICO":172,"distretto_modello":"DNL08.2"},"geometry":{"type":"Point","coordinates":[8.840103333062357,44.75778166825316]}},{"type":"Feature","properties":{"POF":"00100018494","LATITUDINE":44.7560998,"LONGITUDINE":8.84084166666667,"ALTITUDINE":191.7,"LOCALITA":"NOVI LIGURE","VIA":"STRADA DI CASSANO","CIVICO":181,"distretto_modello":"DNL08.2"},"geometry":{"type":"Point","coordinates":[8.840841666399372,44.75609980158618]}},{"type":"Feature","properties":{"POF":"00100033190","LATITUDINE":44.75384,"LONGITUDINE":8.848635,"ALTITUDINE":174.5,"LOCALITA":"SERRAVALLE SCRIVIA","VIA":"VIA CASSANO","CIVICO":113,"distretto_modello":"DNL08.2"},"geometry":{"type":"Point","coordinates":[8.84863499976968,44.75384000158577]}},{"type":"Feature","properties":{"POF":"00100033889","LATITUDINE":44.7461266666667,"LONGITUDINE":8.84436833333333,"ALTITUDINE":199.1,"LOCALITA":"SERRAVALLE SCRIVIA","VIA":"VIA NAPOLEONICA","CIVICO":16,"distretto_modello":"DNL08.2"},"geometry":{"type":"Point","coordinates":[8.844368333083073,44.74612666825073]}},{"type":"Feature","properties":{"POF":"00300033562","LATITUDINE":44.7550166666667,"LONGITUDINE":8.85029333333333,"ALTITUDINE":196.3,"LOCALITA":"SERRAVALLE SCRIVIA","VIA":"VIA GAMBARATO","CIVICO":99999,"distretto_modello":"DNL08.2"},"geometry":{"type":"Point","coordinates":[8.85029333311042,44.75501666825277]}},{"type":"Feature","properties":{"POF":"00200034920","LATITUDINE":44.74795,"LONGITUDINE":8.84692166666667,"ALTITUDINE":207.5,"LOCALITA":"SERRAVALLE SCRIVIA","VIA":"VIA DELL'ARTIGIANATO","CIVICO":99999,"distretto_modello":"DNL08.2"},"geometry":{"type":"Point","coordinates":[8.846921666428406,44.74795000158448]}},{"type":"Feature","properties":{"POF":"00100018476","LATITUDINE":44.7631666666667,"LONGITUDINE":8.83891833333333,"ALTITUDINE":80.3,"LOCALITA":"NOVI LIGURE","VIA":"STRADA DI CASSANO","CIVICO":148,"distretto_modello":"DNL08.2"},"geometry":{"type":"Point","coordinates":[8.83891833305641,44.76316666825432]}},{"type":"Feature","properties":{"POF":"00100033181","LATITUDINE":44.74643,"LONGITUDINE":8.846643333333331,"ALTITUDINE":191.9,"LOCALITA":"SERRAVALLE SCRIVIA","VIA":"VIA CASSANO","CIVICO":99,"distretto_modello":"DNL08.2"},"geometry":{"type":"Point","coordinates":[8.846643333093738,44.74643000158412]}},{"type":"Feature","properties":{"POF":"00100034183","LATITUDINE":44.755055,"LONGITUDINE":8.85035,"ALTITUDINE":179.5,"LOCALITA":"SERRAVALLE SCRIVIA","VIA":"VIA PIEVE","CIVICO":4,"distretto_modello":"DNL08.2"},"geometry":{"type":"Point","coordinates":[8.85034999977734,44.75505500158602]}}]}