{"type":"FeatureCollection","name":"valvole","crs":{"type":"name","properties":{"name":"urn:ogc:def:crs:EPSG::32632"}},"features":[{"type":"Feature","properties":{"stato":"APERTA","tipologia":"Valvola a 2 vie","distretto_modello":"DNL08.2"},"geometry":{"type":"Point","coordinates":[8.841377089624826,44.7552676300379]}},{"type":"Feature","properties":{"stato":"APERTA","tipologia":"Valvola a 2 vie","distretto_modello":"DNL08.2"},"geometry":{"type":"Point","coordinates":[8.83891106876406,44.76487473840267]}},{"type":"Feature","properties":{"stato":"APERTA","tipologia":"Valvola a 2 vie","distretto_modello":"DNL08.2"},"geometry":{"type":"Point","coordinates":[8.841581778941102,44.755208470760095]}},{"type":"Feature","properties":{"stato":"APERTA","tipologia":"Valvola a 2 vie","distretto_modello":"DNL08.2"},"geometry":{"type":"Point","coordinates":[8.8462707308015,44.74786753756446]}},{"type":"Feature","properties":{"stato":"APERTA","tipologia":"Valvola a 2 vie","distretto_modello":"DNL08.2"},"geometry":{"type":"Point","coordinates":[8.846311788575528,44.747852517749244]}},{"type":"Feature","properties":{"stato":"APERTA","tipologia":"Valvola a 2 vie","distretto_modello":"DNL08.2"},"geometry":{"type":"Point","coordinates":[8.846232574468774,44.747849380303286]}},{"type":"Feature","properties":{"stato":"APERTA","tipologia":"Valvola a 2 vie","distretto_modello":"DNL08.2"},"geometry":{"type":"Point","coordinates":[8.846170348655113,44.74831009156719]}},{"type":"Feature","properties":{"stato":"APERTA","tipologia":"Valvola a 2 vie","distretto_modello":"DNL08.2"},"geometry":{"type":"Point","coordinates":[8.847770901916027,44.748752565052094]}},{"type":"Feature","properties":{"stato":"APERTA","tipologia":"Valvola a 2 vie","distretto_modello":"DNL08.2"},"geometry":{"type":"Point","coordinates":[8.84799001630319,44.749948209641424]}},{"type":"Feature","properties":{"stato":"APERTA","tipologia":"Valvola a 2 vie","distretto_modello":"DNL08.2"},"geometry":{"type":"Point","coordinates":[8.846124826257274,44.748323571605454]}},{"type":"Feature","properties":{"stato":"APERTA","tipologia":"Valvola a 2 vie","distretto_modello":"DNL08.2"},"geometry":{"type":"Point","coordinates":[8.843450071355594,44.747699383830245]}},{"type":"Feature","properties":{"stato":"CHIUSA","tipologia":"Valvola a 2 vie","distretto_modello":"DNL08.2"},"geometry":{"type":"Point","coordinates":[8.843700684840778,44.746863827633504]}},{"type":"Feature","properties":{"stato":"APERTA","tipologia":"Valvola a 2 vie","distretto_modello":"DNL08.2"},"geometry":{"type":"Point","coordinates":[8.84367057371115,44.746894508806584]}},{"type":"Feature","properties":{"stato":"APERTA","tipologia":"Valvola a 2 vie","distretto_modello":"DNL08.2"},"geometry":{"type":"Point","coordinates":[8.845864619626683,44.74780387270985]}},{"type":"Feature","properties":{"stato":"APERTA","tipologia":"Valvola a 2 vie","distretto_modello":"DNL08.2"},"geometry":{"type":"Point","coordinates":[8.844599321058858,44.74773630862348]}},{"type":"Feature","properties":{"stato":"APERTA","tipologia":"Valvola a 2 vie","distretto_modello":"DNL08.2"},"geometry":{"type":"Point","coordinates":[8.846004652702568,44.74735066351754]}},{"type":"Feature","properties":{"stato":"APERTA","tipologia":"Valvola a 2 vie","distretto_modello":"DNL08.2"},"geometry":{"type":"Point","coordinates":[8.843643208912438,44.74769085775486]}},{"type":"Feature","properties":{"stato":"APERTA","tipologia":"Valvola a 2 vie","distretto_modello":"DNL08.2"},"geometry":{"type":"Point","coordinates":[8.84670810366349,44.7478904390376]}},{"type":"Feature","properties":{"stato":"CHIUSA","tipologia":"Valvola a 2 vie","distretto_modello":"DNL08.2"},"geometry":{"type":"Point","coordinates":[8.843156832608829,44.74826802517474]}},{"type":"Feature","properties":{"stato":"APERTA","tipologia":"Valvola a 2 vie","distretto_modello":"DNL08.2"},"geometry":{"type":"Point","coordinates":[8.846412726391712,44.7430412602644]}},{"type":"Feature","properties":{"stato":"APERTA","tipologia":"Valvola a 2 vie","distretto_modello":"DNL08.2"},"geometry":{"type":"Point","coordinates":[8.84646333346415,44.74306263159017]}},{"type":"Feature","properties":{"stato":"APERTA","tipologia":"Valvola a 2 vie","distretto_modello":"DNL08.2"},"geometry":{"type":"Point","coordinates":[8.849525008045905,44.75493333078166]}},{"type":"Feature","properties":{"stato":"APERTA","tipologia":"Valvola a 2 vie","distretto_modello":"DNL08.2"},"geometry":{"type":"Point","coordinates":[8.85009176835957,44.75501395029164]}},{"type":"Feature","properties":{"stato":"APERTA","tipologia":"Valvola a 2 vie","distretto_modello":"DNL08.2"},"geometry":{"type":"Point","coordinates":[8.850067284942305,44.754969556001605]}},{"type":"Feature","properties":{"stato":"APERTA","tipologia":"Valvola a 2 vie","distretto_modello":"DNL08.2"},"geometry":{"type":"Point","coordinates":[8.847037552159046,44.75597786921386]}},{"type":"Feature","properties":{"stato":"APERTA","tipologia":"Valvola a 2 vie","distretto_modello":"DNL08.2"},"geometry":{"type":"Point","coordinates":[8.848685901479355,44.75599045451868]}},{"type":"Feature","properties":{"stato":"CHIUSA","tipologia":"Valvola a 2 vie","distretto_modello":"DNL08.2"},"geometry":{"type":"Point","coordinates":[8.846399005366656,44.74267439209902]}},{"type":"Feature","properties":{"stato":"APERTA","tipologia":"Valvola a 2 vie","distretto_modello":"DNL08.2"},"geometry":{"type":"Point","coordinates":[8.84551313001457,44.74297717972902]}},{"type":"Feature","properties":{"stato":"APERTA","tipologia":"Valvola a 2 vie","distretto_modello":"DNL08.2"},"geometry":{"type":"Point","coordinates":[8.844927627113215,44.74395740826831]}},{"type":"Feature","properties":{"stato":"APERTA","tipologia":"Valvola a 2 vie","distretto_modello":"DNL08.2"},"geometry":{"type":"Point","coordinates":[8.844940191737043,44.74391125040993]}},{"type":"Feature","properties":{"stato":"APERTA","tipologia":"Valvola a 2 vie","distretto_modello":"DNL08.2"},"geometry":{"type":"Point","coordinates":[8.84497412636074,44.743937314422574]}},{"type":"Feature","properties":{"stato":"APERTA","tipologia":"Valvola a 2 vie","distretto_modello":"DNL08.2"},"geometry":{"type":"Point","coordinates":[8.843655043119474,44.74686496571316]}},{"type":"Feature","properties":{"stato":"APERTA","tipologia":"Valvola a 2 vie","distretto_modello":"DNL08.2"},"geometry":{"type":"Point","coordinates":[8.843694157645759,44.74683767504702]}},{"type":"Feature","properties":{"stato":"APERTA","tipologia":"Valvola a 2 vie","distretto_modello":"DNL08.2"},"geometry":{"type":"Point","coordinates":[8.842404581518265,44.762293217031946]}},{"type":"Feature","properties":{"stato":"APERTA","tipologia":"Valvola a 2 vie","distretto_modello":"DNL08.2"},"geometry":{"type":"Point","coordinates":[8.838669358829229,44.76592127153736]}},{"type":"Feature","properties":{"stato":"APERTA","tipologia":"Valvola a 2 vie","distretto_modello":"DNL08.2"},"geometry":{"type":"Point","coordinates":[8.838681522231328,44.76591363573504]}}]}