{"type":"FeatureCollection", "features": [
{"type":"Feature","geometry":{"type":"Point","coordinates":[13.67413392955345,42.15311872836452]},"properties":{"Rifer":0,"Nome_serba":"SERBATOIO SECINARO 1 ALTO","Nome_comun":"SECINARO","Tipologia":"seminterrato","X":390458,"Y":4667628,"Capacita":200,"Quota":893}},
{"type":"Feature","geometry":{"type":"Point","coordinates":[13.676568552433595,42.15490383284868]},"properties":{"Rifer":1,"Nome_serba":"SERBATOIO SECINARO 2 ALTO","Nome_comun":"SECINARO","Tipologia":"seminterrato","X":390662,"Y":4667823,"Capacita":50,"Quota":865}},
{"type":"Feature","geometry":{"type":"Point","coordinates":[13.676024923468885,42.150516084173795]},"properties":{"Rifer":2,"Nome_serba":"SERBATOIO SECINARO 3 BASSO","Nome_comun":"SECINARO","Tipologia":"seminterrato","X":390609,"Y":4667336,"Capacita":200,"Quota":832}},
{"type":"Feature","geometry":{"type":"Point","coordinates":[13.696770100572788,42.12506650955159]},"properties":{"Rifer":3,"Nome_serba":"SERBATOIO GAGLIANO ATERNO 1 (BASSO)","Nome_comun":"GAGLIANO ATERNO","Tipologia":"seminterrato","X":392280,"Y":4664484,"Capacita":100,"Quota":685}},
{"type":"Feature","geometry":{"type":"Point","coordinates":[13.693944987014063,42.12498797212873]},"properties":{"Rifer":4,"Nome_serba":"SERBATOIO GALIANO A. 2 (ALTO)","Nome_comun":"GAGLIANO ATERNO","Tipologia":"seminterrato","X":392047,"Y":4664479,"Capacita":170,"Quota":740}},
{"type":"Feature","geometry":{"type":"Point","coordinates":[13.742368457826947,42.1542374397708]},"properties":{"Rifer":5,"Nome_serba":"SERBATOIO MOLINA ATERNO ALTO","Nome_comun":"MOLINA ATERNO","Tipologia":"","X":396097,"Y":4667667,"Capacita":0,"Quota":555}},
{"type":"Feature","geometry":{"type":"Point","coordinates":[13.7360337749309,42.14943077543411]},"properties":{"Rifer":6,"Nome_serba":"SERBATOIO MOLINA ATERNO BASSO","Nome_comun":"MOLINA ATERNO","Tipologia":"seminterrato","X":395566,"Y":4667141,"Capacita":100,"Quota":520}},
{"type":"Feature","geometry":{"type":"Point","coordinates":[13.73010431037639,42.13440386816641]},"properties":{"Rifer":7,"Nome_serba":"SERBATOIO CASTELVECCHIO S. 1","Nome_comun":"CASTELVECCHIO SUBEQUO","Tipologia":"seminterrato","X":395051,"Y":4665479,"Capacita":280,"Quota":550}},
{"type":"Feature","geometry":{"type":"Point","coordinates":[13.717374637873167,42.11336083211569]},"properties":{"Rifer":8,"Nome_serba":"SERBATOIO CASTELVECCHIO S. 2","Nome_comun":"CASTELVECCHIO SUBEQUO BASSO (RIOPAGO)","Tipologia":"seminterrato","X":393964,"Y":4663159,"Capacita":200,"Quota":548}},
{"type":"Feature","geometry":{"type":"Point","coordinates":[13.727028775105763,42.1052467135375]},"properties":{"Rifer":9,"Nome_serba":"SERBATOIO CASTEL DI IERI","Nome_comun":"CASTEL DI IERI","Tipologia":"seminterrato","X":394749,"Y":4662246,"Capacita":140,"Quota":617}},
{"type":"Feature","geometry":{"type":"Point","coordinates":[13.738143804491857,42.11219955108813]},"properties":{"Rifer":10,"Nome_serba":"SERBATOIO CASTEL DI IERI","Nome_comun":"CASTEL DI IERI","Tipologia":"","X":395679,"Y":4663004,"Capacita":100,"Quota":557}},
{"type":"Feature","geometry":{"type":"Point","coordinates":[13.777677858786225,42.079898660078115]},"properties":{"Rifer":11,"Nome_serba":"SERBATOIO GORIANO SICOLI","Nome_comun":"GORIANO SICOLI","Tipologia":"seminterrato","X":398896,"Y":4659370,"Capacita":200,"Quota":768}},
{"type":"Feature","geometry":{"type":"Point","coordinates":[13.774238611006828,42.03481443430046]},"properties":{"Rifer":12,"Nome_serba":"SERBATOIO COCULLO","Nome_comun":"COCULLO","Tipologia":"interrato","X":398540,"Y":4654368,"Capacita":50,"Quota":925}},
{"type":"Feature","geometry":{"type":"Point","coordinates":[13.78462400693722,42.01436511642329]},"properties":{"Rifer":13,"Nome_serba":"SERBATOIO CASALE","Nome_comun":"COCULLO","Tipologia":"interrato","X":399367,"Y":4652086,"Capacita":50,"Quota":800}},
{"type":"Feature","geometry":{"type":"Point","coordinates":[13.805303470306265,42.1055154460789]},"properties":{"Rifer":14,"Nome_serba":"SERBATOIO RAIANO (LA POZZOLANA)","Nome_comun":"RAIANO","Tipologia":"interrato","X":401221,"Y":4662182,"Capacita":400,"Quota":420}},
{"type":"Feature","geometry":{"type":"Point","coordinates":[13.811146625327817,42.09382523972053]},"properties":{"Rifer":15,"Nome_serba":"SERBATOIO RAIANO COMUNALE","Nome_comun":"RAIANO","Tipologia":"seminterrato","X":401686,"Y":4660877,"Capacita":800,"Quota":434.6}},
{"type":"Feature","geometry":{"type":"Point","coordinates":[13.815731551124633,42.1224804318595]},"properties":{"Rifer":16,"Nome_serba":"SERBATOIO VITTORRITO - CORFINIO","Nome_comun":"VITTORITO","Tipologia":"seminterrato","X":402109,"Y":4664054,"Capacita":800,"Quota":433.5}},
{"type":"Feature","geometry":{"type":"Point","coordinates":[13.816303999209865,42.1230514179537]},"properties":{"Rifer":17,"Nome_serba":"SERBATOIO DI VITTORITO","Nome_comun":"VITTORITO","Tipologia":"esterno","X":402157,"Y":4664117,"Capacita":150,"Quota":0}},
{"type":"Feature","geometry":{"type":"Point","coordinates":[13.836321526326408,42.09866604285462]},"properties":{"Rifer":18,"Nome_serba":"SERBATOIO RAIANO N.I.","Nome_comun":"RAIANO","Tipologia":"sopraelevato","X":403775,"Y":4661386,"Capacita":50,"Quota":365}},
{"type":"Feature","geometry":{"type":"Point","coordinates":[13.8599633145555,42.08204378513082]},"properties":{"Rifer":19,"Nome_serba":"SERBATOIO N.I. PRATOLA PELIGNA","Nome_comun":"PRATOLA PELIGNA","Tipologia":"sopraelevato","X":405706,"Y":4659514,"Capacita":50,"Quota":355}},
{"type":"Feature","geometry":{"type":"Point","coordinates":[13.874060040690958,42.089476066569986]},"properties":{"Rifer":20,"Nome_serba":"SERBATOIO PRATOLA PELIGNA","Nome_comun":"PRATOLA PELIGNA","Tipologia":"seminterrato","X":406882,"Y":4660324,"Capacita":2850,"Quota":346}},
{"type":"Feature","geometry":{"type":"Point","coordinates":[13.89189088404136,42.120551961009376]},"properties":{"Rifer":21,"Nome_serba":"SERBATOIO ROCCACASALE BASSO","Nome_comun":"ROCCACASALE","Tipologia":"seminterrato","X":408402,"Y":4663755,"Capacita":400,"Quota":434.9}},
{"type":"Feature","geometry":{"type":"Point","coordinates":[13.888845456804596,42.12536291980432]},"properties":{"Rifer":22,"Nome_serba":"SERBATOIO ROCCACASALE ALTO","Nome_comun":"ROCCACASALE","Tipologia":"seminterrato","X":408157,"Y":4664293,"Capacita":100,"Quota":514.9}},
{"type":"Feature","geometry":{"type":"Point","coordinates":[13.924204896910961,42.094075241856935]},"properties":{"Rifer":23,"Nome_serba":"SERBATOIO BADIA","Nome_comun":"SULMONA","Tipologia":"seminterrato","X":411036,"Y":4660781,"Capacita":400,"Quota":419.9}},
{"type":"Feature","geometry":{"type":"Point","coordinates":[13.916056895430334,42.09381580062483]},"properties":{"Rifer":24,"Nome_serba":"SERBATOIO BAGNATURO CASE LUPI","Nome_comun":"SULMONA","Tipologia":"seminterrato","X":410362,"Y":4660761,"Capacita":200,"Quota":397.9}},
{"type":"Feature","geometry":{"type":"Point","coordinates":[13.904831155837364,42.07627395501603]},"properties":{"Rifer":25,"Nome_serba":"N.I. SULMONA","Nome_comun":"SULMONA","Tipologia":"","X":409409,"Y":4658825,"Capacita":0,"Quota":365}},
{"type":"Feature","geometry":{"type":"Point","coordinates":[13.940942933693426,42.08069362321663]},"properties":{"Rifer":26,"Nome_serba":"SERBATOIO MARANE SANTA LUCIA","Nome_comun":"SULMONA","Tipologia":"seminterrato","X":412402,"Y":4659278,"Capacita":100,"Quota":473.2}},
{"type":"Feature","geometry":{"type":"Point","coordinates":[13.948426623972951,42.06929394563051]},"properties":{"Rifer":27,"Nome_serba":"SERBATOIO MARANE","Nome_comun":"SULMONA","Tipologia":"seminterrato","X":413005,"Y":4658005,"Capacita":150,"Quota":438.6}},
{"type":"Feature","geometry":{"type":"Point","coordinates":[13.938127296532986,42.037136758518464]},"properties":{"Rifer":28,"Nome_serba":"SERBATOIO SULMONA EX CASSA","Nome_comun":"SULMONA","Tipologia":"","X":412109,"Y":4654445,"Capacita":3000,"Quota":462.3}},
{"type":"Feature","geometry":{"type":"Point","coordinates":[13.939467888104597,42.023970472723796]},"properties":{"Rifer":29,"Nome_serba":"SERBATOIO PANETTO","Nome_comun":"SULMONA","Tipologia":"seminterrato","X":412202,"Y":4652982,"Capacita":150,"Quota":456.4}},
{"type":"Feature","geometry":{"type":"Point","coordinates":[13.923653424517772,42.01252668883053]},"properties":{"Rifer":30,"Nome_serba":"SERBATOIO MASTROIACOVO","Nome_comun":"PETTORANO","Tipologia":"seminterrato","X":410876,"Y":4651727,"Capacita":150,"Quota":506.2}},
{"type":"Feature","geometry":{"type":"Point","coordinates":[13.915062448864484,42.02662230947622]},"properties":{"Rifer":31,"Nome_serba":"SERBATOIO COLLACINO","Nome_comun":"INTRODACQUA","Tipologia":"seminterrato","X":410185,"Y":4653301,"Capacita":100,"Quota":484.8}},
{"type":"Feature","geometry":{"type":"Point","coordinates":[13.89896493129463,42.03769821240401]},"properties":{"Rifer":32,"Nome_serba":"SERBATOIO CASE TORRONE","Nome_comun":"INTRODACQUA","Tipologia":"seminterrato","X":408868,"Y":4654548,"Capacita":100,"Quota":464.9}},
{"type":"Feature","geometry":{"type":"Point","coordinates":[13.889072589138713,42.058107408965974]},"properties":{"Rifer":33,"Nome_serba":"SERBATOIO PONTE LA TORRE","Nome_comun":"PREZZA","Tipologia":"seminterrato","X":408079,"Y":4656825,"Capacita":100,"Quota":398}},
{"type":"Feature","geometry":{"type":"Point","coordinates":[13.941072989825695,41.99500382039406]},"properties":{"Rifer":34,"Nome_serba":"SERBATOIO MARCIANO","Nome_comun":"PETTORANO","Tipologia":"seminterrato","X":412295,"Y":4649764,"Capacita":150,"Quota":561.4}},
{"type":"Feature","geometry":{"type":"Point","coordinates":[13.956117338703498,42.00141002143693]},"properties":{"Rifer":35,"Nome_serba":"SERBATOIO CONCA","Nome_comun":"PETTORANO","Tipologia":"seminterrato","X":413550,"Y":4650460,"Capacita":100,"Quota":564.3}},
{"type":"Feature","geometry":{"type":"Point","coordinates":[13.959913557541489,41.96978020122735]},"properties":{"Rifer":36,"Nome_serba":"SERBATOIO PETTORANO SUL GIZIO","Nome_comun":"PETTORANO","Tipologia":"seminterrato","X":413821,"Y":4646944,"Capacita":150,"Quota":680}},
{"type":"Feature","geometry":{"type":"Point","coordinates":[13.882421534626992,41.89992602698453]},"properties":{"Rifer":37,"Nome_serba":"SERBATOIO CARDELLA","Nome_comun":"SCANNO","Tipologia":"","X":407299,"Y":4639269,"Capacita":500,"Quota":1100}},
{"type":"Feature","geometry":{"type":"Point","coordinates":[13.900917719663536,41.99995023816883]},"properties":{"Rifer":38,"Nome_serba":"SERBATOIO CAPOLAIA","Nome_comun":"INTRODACQUA","Tipologia":"interrato","X":408976,"Y":4650355,"Capacita":550,"Quota":699}},
{"type":"Feature","geometry":{"type":"Point","coordinates":[13.897325915501186,42.00583162497149]},"properties":{"Rifer":39,"Nome_serba":"NUOVO SERBATOIO TORRETTA","Nome_comun":"INTRODACQUA","Tipologia":"seminterrato","X":408687,"Y":4651012,"Capacita":160,"Quota":691}},
{"type":"Feature","geometry":{"type":"Point","coordinates":[13.897391233000809,42.00599007614842]},"properties":{"Rifer":40,"Nome_serba":"SERBATOIO TORRETTA","Nome_comun":"INTRODACQUA","Tipologia":"interrato","X":408693,"Y":4651029,"Capacita":0,"Quota":687}},
{"type":"Feature","geometry":{"type":"Point","coordinates":[13.895129486871303,42.00585543104465]},"properties":{"Rifer":41,"Nome_serba":"SERBATOIO CASTELLO","Nome_comun":"INTRODACQUA","Tipologia":"seminterrato","X":408505,"Y":4651017,"Capacita":50,"Quota":726}},
{"type":"Feature","geometry":{"type":"Point","coordinates":[13.902502441683215,42.02195275823412]},"properties":{"Rifer":42,"Nome_serba":"SERBATOIO INTRODACQUA SAN MASSIMO","Nome_comun":"INTRODACQUA","Tipologia":"seminterrato","X":409139,"Y":4652796,"Capacita":73,"Quota":565}},
{"type":"Feature","geometry":{"type":"Point","coordinates":[13.831883680057448,42.055754425143846]},"properties":{"Rifer":43,"Nome_serba":"SERBATOIO RIONE COLLE(zona bassa) (IN REALTA' ZONA MEDIA)","Nome_comun":"PREZZA","Tipologia":"seminterrato","X":403343,"Y":4656627,"Capacita":50,"Quota":611}},
{"type":"Feature","geometry":{"type":"Point","coordinates":[13.836494015940662,42.056094666698606]},"properties":{"Rifer":44,"Nome_serba":"SERBATOIO (zona bassa) (IN DISUSO)","Nome_comun":"PREZZA","Tipologia":"","X":403725,"Y":4656659,"Capacita":0,"Quota":55}},
{"type":"Feature","geometry":{"type":"Point","coordinates":[13.84085548781274,42.058047435771805]},"properties":{"Rifer":45,"Nome_serba":"SERBATOIO ZONA STAZIONE F. S.","Nome_comun":"PREZZA","Tipologia":"","X":404089,"Y":4656871,"Capacita":20,"Quota":462}},
{"type":"Feature","geometry":{"type":"Point","coordinates":[13.828265244997814,42.05334797831901]},"properties":{"Rifer":46,"Nome_serba":"SERBATOIO ZONA ALTA","Nome_comun":"PREZZA","Tipologia":"seminterrato","X":403040,"Y":4656364,"Capacita":200,"Quota":648}},
{"type":"Feature","geometry":{"type":"Point","coordinates":[13.879746494173618,42.05753524504673]},"properties":{"Rifer":47,"Nome_serba":"SERBATOIO CAMPO DI FANO","Nome_comun":"PREZZA","Tipologia":"interrato","X":407306,"Y":4656771,"Capacita":0,"Quota":430}},
{"type":"Feature","geometry":{"type":"Point","coordinates":[13.856083881609083,42.04447696127456]},"properties":{"Rifer":48,"Nome_serba":"SERBATOIO TORRE DE NOLFI","Nome_comun":"BUGNARA","Tipologia":"sopraelevato","X":405329,"Y":4655347,"Capacita":0,"Quota":550}},
{"type":"Feature","geometry":{"type":"Point","coordinates":[13.860286925358611,42.01866434142749]},"properties":{"Rifer":49,"Nome_serba":"SERBATOIO PREZZA","Nome_comun":"BUGNARA","Tipologia":"","X":405639,"Y":4652477,"Capacita":0,"Quota":0}},
{"type":"Feature","geometry":{"type":"Point","coordinates":[13.8614894603005,42.019092370498726]},"properties":{"Rifer":50,"Nome_serba":"SERBATOIO COMUNALE","Nome_comun":"BUGNARA","Tipologia":"seminterrato","X":405739,"Y":4652523,"Capacita":0,"Quota":614}},
{"type":"Feature","geometry":{"type":"Point","coordinates":[13.832632213242814,41.93772839859449]},"properties":{"Rifer":51,"Nome_serba":"SERBATOIO DI VILLALAGO","Nome_comun":"VILLALAGO","Tipologia":"seminterrato","X":403226,"Y":4643521,"Capacita":300,"Quota":975}},
{"type":"Feature","geometry":{"type":"Point","coordinates":[13.859780984209014,41.91602443673453]},"properties":{"Rifer":52,"Nome_serba":"SERBATOIO PARTITORE LAGO","Nome_comun":"SCANNO","Tipologia":"seminterrato","X":405445,"Y":4641081,"Capacita":500,"Quota":1000}},
{"type":"Feature","geometry":{"type":"Point","coordinates":[13.872382423246851,41.90625113164123]},"properties":{"Rifer":53,"Nome_serba":"SERBATOIO PARTITORE_SCANNO","Nome_comun":"SCANNO","Tipologia":"","X":406476,"Y":4639982,"Capacita":500,"Quota":1152}},
{"type":"Feature","geometry":{"type":"Point","coordinates":[13.872769032763982,41.90651852422232]},"properties":{"Rifer":54,"Nome_serba":"SERBATOIO COMUNALE SCANNO","Nome_comun":"SCANNO","Tipologia":"seminterrato","X":406508,"Y":4640011,"Capacita":500,"Quota":1148}},
{"type":"Feature","geometry":{"type":"Point","coordinates":[13.877576977138931,41.9072822729216]},"properties":{"Rifer":55,"Nome_serba":"SERBATOIO BASSO","Nome_comun":"SCANNO","Tipologia":"seminterrato","X":406908,"Y":4640091,"Capacita":200,"Quota":1048}},
{"type":"Feature","geometry":{"type":"Point","coordinates":[14.052127398659689,42.01641547982476]},"properties":{"Rifer":56,"Nome_serba":"SERBATOIO CARNICCIO","Nome_comun":"CAMPO DI GIOVE","Tipologia":"","X":421519,"Y":4652033,"Capacita":95,"Quota":1170}},
{"type":"Feature","geometry":{"type":"Point","coordinates":[14.036258456184692,42.01277276424568]},"properties":{"Rifer":57,"Nome_serba":"SERBATOIO","Nome_comun":"CAMPO DI GIOVE","Tipologia":"","X":420201,"Y":4651644,"Capacita":500,"Quota":1130}},
{"type":"Feature","geometry":{"type":"Point","coordinates":[14.05681036024156,41.99593170069304]},"properties":{"Rifer":58,"Nome_serba":"SERBATOIO","Nome_comun":"CAMPO DI GIOVE","Tipologia":"","X":421882,"Y":4649755,"Capacita":500,"Quota":1208}},
{"type":"Feature","geometry":{"type":"Point","coordinates":[14.017971452295948,42.00287343745613]},"properties":{"Rifer":59,"Nome_serba":"SERBATOIO","Nome_comun":"CANSANO","Tipologia":"","X":418674,"Y":4650562,"Capacita":400,"Quota":870}},
{"type":"Feature","geometry":{"type":"Point","coordinates":[14.021121679190498,41.99851654572453]},"properties":{"Rifer":60,"Nome_serba":"SERBATOIO","Nome_comun":"CANSANO","Tipologia":"","X":418929,"Y":4650075,"Capacita":900,"Quota":947}},
{"type":"Feature","geometry":{"type":"Point","coordinates":[14.057629836978823,41.884328213397275]},"properties":{"Rifer":61,"Nome_serba":"SERBATOIO ALTO PESCOCOSTANZO","Nome_comun":"PESCOCOSTANZO","Tipologia":"seminterrato","X":421814,"Y":4637363,"Capacita":600,"Quota":1525}},
{"type":"Feature","geometry":{"type":"Point","coordinates":[14.059846568949167,41.88576284405674]},"properties":{"Rifer":62,"Nome_serba":"SERBATOIO BASSO A","Nome_comun":"PESCOCOSTANZO","Tipologia":"esterno","X":421999,"Y":4637520,"Capacita":200,"Quota":1469}},
{"type":"Feature","geometry":{"type":"Point","coordinates":[14.065139923325628,41.885291430239654]},"properties":{"Rifer":63,"Nome_serba":"SERBATOIO AL SOLLEVAMENTO","Nome_comun":"PESCOCOSTANZO","Tipologia":"","X":422438,"Y":4637463,"Capacita":600,"Quota":1395}},
{"type":"Feature","geometry":{"type":"Point","coordinates":[14.063054265513767,41.888785210263734]},"properties":{"Rifer":64,"Nome_serba":"SERBATOIO BASSO B","Nome_comun":"PESCOCOSTANZO","Tipologia":"interrato","X":422269,"Y":4637853,"Capacita":80,"Quota":1396}},
{"type":"Feature","geometry":{"type":"Point","coordinates":[14.06612099696869,41.87600082926907]},"properties":{"Rifer":65,"Nome_serba":"SERBATOIO  AL PARTITORE DI RIVISONDOLI","Nome_comun":"RIVISONDOLI","Tipologia":"seminterrato","X":422508,"Y":4636430,"Capacita":1200,"Quota":1399}},
{"type":"Feature","geometry":{"type":"Point","coordinates":[14.064753831838985,41.87096466947981]},"properties":{"Rifer":66,"Nome_serba":"SERBATOIO GRANDE DI RIVISONDOLI","Nome_comun":"RIVISONDOLI","Tipologia":"seminterrato","X":422388,"Y":4635873,"Capacita":2400,"Quota":1350}},
{"type":"Feature","geometry":{"type":"Point","coordinates":[14.06485020713522,41.87084476822763]},"properties":{"Rifer":67,"Nome_serba":"SERBATOIO VECCHIO RIVISONDOLI","Nome_comun":"RIVISONDOLI","Tipologia":"seminterrato","X":422396,"Y":4635859,"Capacita":500,"Quota":1345}},
{"type":"Feature","geometry":{"type":"Point","coordinates":[14.079900740635487,41.84519172647294]},"properties":{"Rifer":68,"Nome_serba":"SERBATOIO CENTRALE","Nome_comun":"ROCCARASO","Tipologia":"interrato","X":423615,"Y":4632997,"Capacita":3000,"Quota":1280}},
{"type":"Feature","geometry":{"type":"Point","coordinates":[14.075201069861613,41.84123726563832]},"properties":{"Rifer":69,"Nome_serba":"SERBATOIO ALTO ROCCARASO","Nome_comun":"ROCCARASO","Tipologia":"seminterrato","X":423220,"Y":4632563,"Capacita":400,"Quota":1425}},
{"type":"Feature","geometry":{"type":"Point","coordinates":[14.058483430682719,41.834947387220694]},"properties":{"Rifer":70,"Nome_serba":"SERBATOIO DI ROCCALTA","Nome_comun":"ROCCARASO","Tipologia":"seminterrato","X":421824,"Y":4631879,"Capacita":1000,"Quota":1700}},
{"type":"Feature","geometry":{"type":"Point","coordinates":[14.029681940177225,41.82553616907656]},"properties":{"Rifer":71,"Nome_serba":"SERBATOIO AREMOGNA","Nome_comun":"ROCCARASO","Tipologia":"seminterrato","X":419421,"Y":4630861,"Capacita":250,"Quota":1682}},
{"type":"Feature","geometry":{"type":"Point","coordinates":[14.15539391425884,41.77496867462735]},"properties":{"Rifer":72,"Nome_serba":"SERBATOIO SAN IORIO","Nome_comun":"CASTEL DI SANGRO","Tipologia":"seminterrato","X":429806,"Y":4625136,"Capacita":300,"Quota":992.5}},
{"type":"Feature","geometry":{"type":"Point","coordinates":[14.117547397020621,41.84840462664673]},"properties":{"Rifer":73,"Nome_serba":"SERBATOIO PIETRANSIERI","Nome_comun":"ROCCARASO","Tipologia":"seminterrato","X":426744,"Y":4633321,"Capacita":250,"Quota":1382}},
{"type":"Feature","geometry":{"type":"Point","coordinates":[14.102780228255611,41.82682301711361]},"properties":{"Rifer":74,"Nome_serba":"SERBATOIO PONTONE","Nome_comun":"CASTEL DI SANGRO","Tipologia":"seminterrato","X":425493,"Y":4630938,"Capacita":150,"Quota":1057}},
{"type":"Feature","geometry":{"type":"Point","coordinates":[14.120124954570533,41.81470185756147]},"properties":{"Rifer":75,"Nome_serba":"SERBATOIO ROCCACINQUEMIGLIA","Nome_comun":"CASTEL DI SANGRO","Tipologia":"seminterrato","X":426919,"Y":4629577,"Capacita":100,"Quota":1072}},
{"type":"Feature","geometry":{"type":"Point","coordinates":[14.10337840629212,41.79965881433789]},"properties":{"Rifer":76,"Nome_serba":"SERBATOIO DI CARICO","Nome_comun":"CASTEL DI SANGRO","Tipologia":"interrato","X":425511,"Y":4627921,"Capacita":500,"Quota":807}},
{"type":"Feature","geometry":{"type":"Point","coordinates":[14.108713224038269,41.788271383300845]},"properties":{"Rifer":77,"Nome_serba":"SERBATOIO NEVIERA","Nome_comun":"CASTEL DI SANGRO","Tipologia":"seminterrato","X":425941,"Y":4626653,"Capacita":1500,"Quota":857}},
{"type":"Feature","geometry":{"type":"Point","coordinates":[14.113184887366348,41.78723048351926]},"properties":{"Rifer":78,"Nome_serba":"SERBATOIO RICCIOLINO","Nome_comun":"CASTEL DI SANGRO","Tipologia":"esterno","X":426312,"Y":4626533,"Capacita":300,"Quota":895}},
{"type":"Feature","geometry":{"type":"Point","coordinates":[14.117963865800057,41.786491167382934]},"properties":{"Rifer":79,"Nome_serba":"SERBATOIO COLLE","Nome_comun":"CASTEL DI SANGRO","Tipologia":"seminterrato","X":426708,"Y":4626447,"Capacita":600,"Quota":938}},
{"type":"Feature","geometry":{"type":"Point","coordinates":[13.873806221812949,41.93085504184051]},"properties":{"Rifer":80,"Nome_serba":"SERBATOIO FRATTURA","Nome_comun":"SCANNO","Tipologia":"","X":406630,"Y":4642712,"Capacita":100,"Quota":1340}},
{"type":"Feature","geometry":{"type":"Point","coordinates":[13.928776111074027,41.834948343717876]},"properties":{"Rifer":81,"Nome_serba":"SERBATOIO PASSO GODI","Nome_comun":"SCANNO","Tipologia":"","X":411054,"Y":4632006,"Capacita":0,"Quota":1587}},
{"type":"Feature","geometry":{"type":"Point","coordinates":[14.185429799993488,41.86995034843823]},"properties":{"Rifer":82,"Nome_serba":"SERBATOIO S. ELENA","Nome_comun":"ATELETA","Tipologia":"interrato","X":432402,"Y":4635658,"Capacita":12,"Quota":1104}},
{"type":"Feature","geometry":{"type":"Point","coordinates":[14.172997671650725,41.86071330292834]},"properties":{"Rifer":83,"Nome_serba":"SERBATOIO PITASSI","Nome_comun":"ATELETA","Tipologia":"interrato","X":431360,"Y":4634642,"Capacita":84,"Quota":1147}},
{"type":"Feature","geometry":{"type":"Point","coordinates":[14.191178564268437,41.85466961808862]},"properties":{"Rifer":84,"Nome_serba":"SERBATOIO ATELETA 1 ALTO","Nome_comun":"ATELETA","Tipologia":"interrato","X":432863,"Y":4633957,"Capacita":150,"Quota":824}},
{"type":"Feature","geometry":{"type":"Point","coordinates":[14.195732540447807,41.853253846416116]},"properties":{"Rifer":85,"Nome_serba":"SERBATOIO ATELETA 2 BASSO","Nome_comun":"ATELETA","Tipologia":"interrato","X":433239,"Y":4633796,"Capacita":120,"Quota":784}},
{"type":"Feature","geometry":{"type":"Point","coordinates":[14.16196064426073,41.85571276606208]},"properties":{"Rifer":86,"Nome_serba":"SERBATOIO CARCERI ALTE","Nome_comun":"ATELETA","Tipologia":"interrato","X":430439,"Y":4634096,"Capacita":84,"Quota":1115}},
{"type":"Feature","geometry":{"type":"Point","coordinates":[13.790595962947265,41.81243369643145]},"properties":{"Rifer":90,"Nome_serba":"SERBATOIO CASTEL MANCINO","Nome_comun":"PESCASSEROLI","Tipologia":"sopraelevato","X":399546,"Y":4629658,"Capacita":500,"Quota":1177}},
{"type":"Feature","geometry":{"type":"Point","coordinates":[13.802693407496973,41.809047123812775]},"properties":{"Rifer":91,"Nome_serba":"SERBATOIO COLLE DELL'INFERNO","Nome_comun":"PESCASSEROLI","Tipologia":"seminterrato","X":400545,"Y":4629268,"Capacita":500,"Quota":1306}},
{"type":"Feature","geometry":{"type":"Point","coordinates":[13.799442673260899,41.80958056470099]},"properties":{"Rifer":92,"Nome_serba":"SERBATOIO COLLI BASSI","Nome_comun":"PESCASSEROLI","Tipologia":"seminterrato","X":400276,"Y":4629331,"Capacita":1000,"Quota":1261}},
{"type":"Feature","geometry":{"type":"Point","coordinates":[13.79239198484031,41.81560861658416]},"properties":{"Rifer":93,"Nome_serba":"SERBATOIO DI ACCUMULO SAN NICOLA","Nome_comun":"PESCASSEROLI","Tipologia":"seminterrato","X":399700,"Y":4630009,"Capacita":10,"Quota":1202}},
{"type":"Feature","geometry":{"type":"Point","coordinates":[13.938157723950301,42.037153334701216]},"properties":{"Rifer":100,"Nome_serba":"SERBATOIO SULMONA NUOVO","Nome_comun":"SULMONA","Tipologia":"seminterrato","X":412111,"Y":4654447,"Capacita":4000,"Quota":462.3}},
{"type":"Feature","geometry":{"type":"Point","coordinates":[14.080200388821783,41.76498642438787]},"properties":{"Rifer":101,"Nome_serba":"PIEZOMETRO SANTA LIBERATA","Nome_comun":"CASTEL DI SANGRO","Tipologia":"seminterrato","X":423544,"Y":4624092,"Capacita":400,"Quota":862.5}},
{"type":"Feature","geometry":{"type":"Point","coordinates":[14.101142353814108,41.80011852934564]},"properties":{"Rifer":102,"Nome_serba":"PIEZOMETRO INTERRATO","Nome_comun":"CASTEL DI SANGRO","Tipologia":"interrato","X":425326,"Y":4627974,"Capacita":15,"Quota":847.6}},
{"type":"Feature","geometry":{"type":"Point","coordinates":[14.096776658665473,41.809444412491736]},"properties":{"Rifer":103,"Nome_serba":"PIEZOMETRO INTERRATO","Nome_comun":"CASTEL DI SANGRO","Tipologia":"interrato","X":424974,"Y":4629014,"Capacita":40,"Quota":1350}},
{"type":"Feature","geometry":{"type":"Point","coordinates":[13.938395806944742,41.76416494380885]},"properties":{"Rifer":108,"Nome_serba":"SERBATOIO CIVITELLA ALFEDENA","Nome_comun":"CIVITELLA ALFEDENA","Tipologia":"","X":411756,"Y":4624137,"Capacita":null,"Quota":null}},
{"type":"Feature","geometry":{"type":"Point","coordinates":[13.83003300741549,41.7767047410479]},"properties":{"Rifer":105,"Nome_serba":"SRBATOIO LA MADONNINA","Nome_comun":"OPI","Tipologia":"","X":402767,"Y":4625646,"Capacita":null,"Quota":null}},
{"type":"Feature","geometry":{"type":"Point","coordinates":[13.830935998524364,41.778972633695645]},"properties":{"Rifer":106,"Nome_serba":"SERBATOIO FONTE CARNEVALE","Nome_comun":"OPI","Tipologia":"","X":402846,"Y":4625897,"Capacita":null,"Quota":null}},
{"type":"Feature","geometry":{"type":"Point","coordinates":[13.82970953391805,41.780957458703234]},"properties":{"Rifer":107,"Nome_serba":"SERBATOIO CENTRO","Nome_comun":"OPI","Tipologia":"","X":402747,"Y":4626118,"Capacita":null,"Quota":null}},
{"type":"Feature","geometry":{"type":"Point","coordinates":[13.88373245802561,42.118221578495806]},"properties":{"Rifer":null,"Nome_serba":"SERBATOIO LA FONTE","Nome_comun":"ROCCACASALE","Tipologia":"","X":407724,"Y":4663505,"Capacita":null,"Quota":null}},
{"type":"Feature","geometry":{"type":"Point","coordinates":[14.10648586263725,41.77920648448681]},"properties":{"Rifer":null,"Nome_serba":"SERBATOIO POZZI RIO","Nome_comun":"CASTEL DI SANGRO","Tipologia":"","X":null,"Y":null,"Capacita":null,"Quota":null}}
]}
