{"type":"FeatureCollection", "features": [
{"type":"Feature","geometry":{"type":"Point","coordinates":[14.161972974589819,41.85569132479455]},"properties":{"id":1,"ID META":"META 1","X":430440,"Y":4634093,"META":"1","DISTRETTO":"","QUOTA":1119.6}},
{"type":"Feature","geometry":{"type":"Point","coordinates":[14.168380550175405,41.8532600911214]},"properties":{"id":3,"ID META":"META 2","X":430969,"Y":4633818,"META":"2","DISTRETTO":"","QUOTA":1027.01}},
{"type":"Feature","geometry":{"type":"Point","coordinates":[14.16790512791641,41.84786500075707]},"properties":{"id":4,"ID META":"META 3","X":430924,"Y":4633220,"META":"3","DISTRETTO":"","QUOTA":880.584}},
{"type":"Feature","geometry":{"type":"Point","coordinates":[14.173030988955885,41.86077332353447]},"properties":{"id":5,"ID META":"META 4","X":431363,"Y":4634649,"META":"4","DISTRETTO":"","QUOTA":1146.2}},
{"type":"Feature","geometry":{"type":"Point","coordinates":[14.173035969266193,41.8607802744806]},"properties":{"id":6,"ID META":"META 4_2","X":431363,"Y":4634650,"META":"4_2","DISTRETTO":"","QUOTA":1146.2}},
{"type":"Feature","geometry":{"type":"Point","coordinates":[14.133614682484142,41.77067068428107]},"properties":{"id":8,"ID META":"META 6","X":427991,"Y":4624677,"META":"6","DISTRETTO":"","QUOTA":831.017}},
{"type":"Feature","geometry":{"type":"Point","coordinates":[14.191561723665485,41.85480754822602]},"properties":{"id":9,"ID META":"META 7","X":432895,"Y":4633972,"META":"7","DISTRETTO":"","QUOTA":827.046}},
{"type":"Feature","geometry":{"type":"Point","coordinates":[14.19154504386642,41.854818468368585]},"properties":{"id":10,"ID META":"META 7_2","X":432893,"Y":4633973,"META":"7_2","DISTRETTO":"","QUOTA":827.046}},
{"type":"Feature","geometry":{"type":"Point","coordinates":[14.117366862103811,41.775863363975]},"properties":{"id":11,"ID META":"META 8","X":426646,"Y":4625268,"META":"8","DISTRETTO":"","QUOTA":811.606}},
{"type":"Feature","geometry":{"type":"Point","coordinates":[14.196405096114818,41.856224890900755]},"properties":{"id":12,"ID META":"META 9","X":433298,"Y":4634125,"META":"9","DISTRETTO":"","QUOTA":766.802}},
{"type":"Feature","geometry":{"type":"Point","coordinates":[14.203532985676608,41.853847610615915]},"properties":{"id":13,"ID META":"META 10","X":433888,"Y":4633856,"META":"10","DISTRETTO":"","QUOTA":744.346}},
{"type":"Feature","geometry":{"type":"Point","coordinates":[14.185441091296667,41.86992994684198]},"properties":{"id":14,"ID META":"META 11","X":432403,"Y":4635656,"META":"11","DISTRETTO":"","QUOTA":1099.13}},
{"type":"Feature","geometry":{"type":"Point","coordinates":[14.021081457609107,41.99854737801772]},"properties":{"id":16,"ID META":"META 17","X":418926,"Y":4650078,"META":"16","DISTRETTO":"","QUOTA":935.738}},
{"type":"Feature","geometry":{"type":"Point","coordinates":[13.940149707460801,42.04738999429001]},"properties":{"id":17,"ID META":"META 18","X":412290,"Y":4655581,"META":"18","DISTRETTO":"","QUOTA":419.638}},
{"type":"Feature","geometry":{"type":"Point","coordinates":[14.012231565633114,42.00611822251763]},"properties":{"id":18,"ID META":"META 19","X":418203,"Y":4650927,"META":"19","DISTRETTO":"","QUOTA":802.067}},
{"type":"Feature","geometry":{"type":"Point","coordinates":[13.727016448236512,42.105274088894085]},"properties":{"id":19,"ID META":"META 20","X":394748,"Y":4662249,"META":"20","DISTRETTO":"","QUOTA":619.745}},
{"type":"Feature","geometry":{"type":"Point","coordinates":[13.74754232446846,42.108196847692774]},"properties":{"id":20,"ID META":"META 21","X":396449,"Y":4662548,"META":"21","DISTRETTO":"","QUOTA":523.995}},
{"type":"Feature","geometry":{"type":"Point","coordinates":[13.938346349312766,41.76416753608542]},"properties":{"id":23,"ID META":"META 24","X":411752,"Y":4624137,"META":"24","DISTRETTO":"","QUOTA":1143.1}},
{"type":"Feature","geometry":{"type":"Point","coordinates":[13.93835862261066,41.76418328837199]},"properties":{"id":24,"ID META":"META175","X":411753,"Y":4624139,"META":"175","DISTRETTO":"","QUOTA":1143.1}},
{"type":"Feature","geometry":{"type":"Point","coordinates":[13.94312827316799,41.76705901800839]},"properties":{"id":26,"ID META":"META 26","X":412153,"Y":4624453,"META":"26","DISTRETTO":"","QUOTA":1078.3}},
{"type":"Feature","geometry":{"type":"Point","coordinates":[13.774170326429918,42.03480010440861]},"properties":{"id":27,"ID META":"META 30","X":398534,"Y":4654367,"META":"30","DISTRETTO":"","QUOTA":911.203}},
{"type":"Feature","geometry":{"type":"Point","coordinates":[13.774171548916444,42.0347780752504]},"properties":{"id":28,"ID META":"META 30_2","X":398534,"Y":4654364,"META":"30_2","DISTRETTO":"","QUOTA":911.203}},
{"type":"Feature","geometry":{"type":"Point","coordinates":[13.775710067649625,42.03239650312477]},"properties":{"id":29,"ID META":"META 31","X":398658,"Y":4654098,"META":"31","DISTRETTO":"","QUOTA":863.088}},
{"type":"Feature","geometry":{"type":"Point","coordinates":[13.772560062123764,42.03405577763966]},"properties":{"id":30,"ID META":"META 32","X":398400,"Y":4654286,"META":"32","DISTRETTO":"","QUOTA":918.521}},
{"type":"Feature","geometry":{"type":"Point","coordinates":[13.775170053495193,42.03897988359887]},"properties":{"id":31,"ID META":"META 33","X":398624,"Y":4654830,"META":"33","DISTRETTO":"","QUOTA":887.704}},
{"type":"Feature","geometry":{"type":"Point","coordinates":[13.784766461831786,42.01437313066668]},"properties":{"id":32,"ID META":"META 34","X":399379,"Y":4652086,"META":"34","DISTRETTO":"","QUOTA":792.424}},
{"type":"Feature","geometry":{"type":"Point","coordinates":[13.784704642548675,42.014368305929565]},"properties":{"id":33,"ID META":"META 34_2","X":399374,"Y":4652086,"META":"34_2","DISTRETTO":"","QUOTA":792.424}},
{"type":"Feature","geometry":{"type":"Point","coordinates":[13.789459916865477,42.01484749110747]},"properties":{"id":35,"ID META":"META 36","X":399768,"Y":4652133,"META":"36","DISTRETTO":"","QUOTA":730.352}},
{"type":"Feature","geometry":{"type":"Point","coordinates":[13.693950437843942,42.12501363241075]},"properties":{"id":36,"ID META":"META 37","X":392047,"Y":4664482,"META":"37","DISTRETTO":"","QUOTA":727.782}},
{"type":"Feature","geometry":{"type":"Point","coordinates":[13.69681167732278,42.125081615017976]},"properties":{"id":37,"ID META":"META 38","X":392284,"Y":4664486,"META":"38","DISTRETTO":"","QUOTA":683.239}},
{"type":"Feature","geometry":{"type":"Point","coordinates":[13.703237481596956,42.122491051755475]},"properties":{"id":38,"ID META":"META 39","X":392810,"Y":4664190,"META":"39","DISTRETTO":"","QUOTA":601.452}},
{"type":"Feature","geometry":{"type":"Point","coordinates":[13.69988950354204,42.12723636591818]},"properties":{"id":39,"ID META":"META 40","X":392542,"Y":4664721,"META":"40","DISTRETTO":"","QUOTA":678.63}},
{"type":"Feature","geometry":{"type":"Point","coordinates":[13.777651734679825,42.07974920715477]},"properties":{"id":40,"ID META":"META 41","X":398894,"Y":4659354,"META":"41","DISTRETTO":"","QUOTA":759.581}},
{"type":"Feature","geometry":{"type":"Point","coordinates":[13.77353114002288,42.08133757807636]},"properties":{"id":43,"ID META":"META 44","X":398555,"Y":4659535,"META":"44","DISTRETTO":"","QUOTA":702.68}},
{"type":"Feature","geometry":{"type":"Point","coordinates":[13.742352702685974,42.154218627184406]},"properties":{"id":44,"ID META":"META 45","X":396096,"Y":4667665,"META":"45","DISTRETTO":"","QUOTA":552.94}},
{"type":"Feature","geometry":{"type":"Point","coordinates":[13.736035519641097,42.14943479352043]},"properties":{"id":45,"ID META":"META 46","X":395566,"Y":4667141,"META":"46","DISTRETTO":"","QUOTA":503.614}},
{"type":"Feature","geometry":{"type":"Point","coordinates":[13.736054745295554,42.14943668082018]},"properties":{"id":46,"ID META":"META 46_2","X":395567,"Y":4667141,"META":"46_2","DISTRETTO":"","QUOTA":503.614}},
{"type":"Feature","geometry":{"type":"Point","coordinates":[13.735062620065627,42.15395659151506]},"properties":{"id":48,"ID META":"META 48","X":395493,"Y":4667644,"META":"48","DISTRETTO":"","QUOTA":485.302}},
{"type":"Feature","geometry":{"type":"Point","coordinates":[13.95989080410222,41.96980618681236]},"properties":{"id":49,"ID META":"META 49","X":413819,"Y":4646947,"META":"49","DISTRETTO":"","QUOTA":678.412}},
{"type":"Feature","geometry":{"type":"Point","coordinates":[13.963327513833827,41.97102125360229]},"properties":{"id":50,"ID META":"META 50","X":414106,"Y":4647078,"META":"50","DISTRETTO":"","QUOTA":603.507}},
{"type":"Feature","geometry":{"type":"Point","coordinates":[13.957110937442994,41.97597355364111]},"properties":{"id":51,"ID META":"META 51","X":413597,"Y":4647635,"META":"51","DISTRETTO":"","QUOTA":565.386}},
{"type":"Feature","geometry":{"type":"Point","coordinates":[13.956083914598112,42.001405773785045]},"properties":{"id":52,"ID META":"META 52","X":413547,"Y":4650459,"META":"52","DISTRETTO":"","QUOTA":567.589}},
{"type":"Feature","geometry":{"type":"Point","coordinates":[13.95557368560834,41.99163548381226]},"properties":{"id":53,"ID META":"META 53","X":413491,"Y":4649375,"META":"53","DISTRETTO":"","QUOTA":523.933}},
{"type":"Feature","geometry":{"type":"Point","coordinates":[13.94111766728855,41.995005996770765]},"properties":{"id":54,"ID META":"META 54","X":412298,"Y":4649764,"META":"54","DISTRETTO":"","QUOTA":558.181}},
{"type":"Feature","geometry":{"type":"Point","coordinates":[13.937314619012593,42.01820544941138]},"properties":{"id":55,"ID META":"META 55","X":412015,"Y":4652344,"META":"55","DISTRETTO":"","QUOTA":460.308}},
{"type":"Feature","geometry":{"type":"Point","coordinates":[13.930026987337918,42.01220939317857]},"properties":{"id":56,"ID META":"META 56","X":411404,"Y":4651686,"META":"56","DISTRETTO":"","QUOTA":467.641}},
{"type":"Feature","geometry":{"type":"Point","coordinates":[13.810893197072268,42.09383390757143]},"properties":{"id":57,"ID META":"META 59","X":401665,"Y":4660879,"META":"59","DISTRETTO":"","QUOTA":427.832}},
{"type":"Feature","geometry":{"type":"Point","coordinates":[13.816985264768812,42.098095495282486]},"properties":{"id":59,"ID META":"META 63","X":402175,"Y":4661345,"META":"63","DISTRETTO":"","QUOTA":382.834}},
{"type":"Feature","geometry":{"type":"Point","coordinates":[13.814463269891172,42.10393066497695]},"properties":{"id":61,"ID META":"META 62","X":401976,"Y":4661996,"META":"62","DISTRETTO":"","QUOTA":365.056}},
{"type":"Feature","geometry":{"type":"Point","coordinates":[13.805406561166519,42.10550636868968]},"properties":{"id":62,"ID META":"META 64","X":401229,"Y":4662181,"META":"64","DISTRETTO":"","QUOTA":410.934}},
{"type":"Feature","geometry":{"type":"Point","coordinates":[13.805372696283216,42.105508345622475]},"properties":{"id":63,"ID META":"META 64_2","X":401227,"Y":4662181,"META":"64_2","DISTRETTO":"","QUOTA":410.934}},
{"type":"Feature","geometry":{"type":"Point","coordinates":[13.836355310675053,42.09865071250539]},"properties":{"id":64,"ID META":"META 65","X":403778,"Y":4661385,"META":"65","DISTRETTO":"","QUOTA":358.638}},
{"type":"Feature","geometry":{"type":"Point","coordinates":[13.831049849890798,42.10129945481507]},"properties":{"id":65,"ID META":"META 66","X":403343,"Y":4661685,"META":"66","DISTRETTO":"","QUOTA":362.508}},
{"type":"Feature","geometry":{"type":"Point","coordinates":[14.099528827911755,41.777481624495564]},"properties":{"id":66,"ID META":"META 67","X":425166,"Y":4625463,"META":"67","DISTRETTO":"","QUOTA":799.875}},
{"type":"Feature","geometry":{"type":"Point","coordinates":[13.832553766287317,41.937599896618664]},"properties":{"id":67,"ID META":"META 68","X":403220,"Y":4643507,"META":"68","DISTRETTO":"","QUOTA":982.487}},
{"type":"Feature","geometry":{"type":"Point","coordinates":[13.843409859109938,41.9339237020813]},"properties":{"id":69,"ID META":"META 71","X":404114,"Y":4643087,"META":"71","DISTRETTO":"","QUOTA":919.036}},
{"type":"Feature","geometry":{"type":"Point","coordinates":[13.85979720559478,41.91603200376073]},"properties":{"id":71,"ID META":"META 72","X":405446,"Y":4641082,"META":"72","DISTRETTO":"","QUOTA":992.473}},
{"type":"Feature","geometry":{"type":"Point","coordinates":[13.859796913095792,41.916038563407746]},"properties":{"id":72,"ID META":"META 72_2","X":405446,"Y":4641083,"META":"72_2","DISTRETTO":"","QUOTA":992.473}},
{"type":"Feature","geometry":{"type":"Point","coordinates":[13.857536351309284,41.92630353839257]},"properties":{"id":73,"ID META":"META 73","X":405274,"Y":4642225,"META":"73","DISTRETTO":"","QUOTA":923.287}},
{"type":"Feature","geometry":{"type":"Point","coordinates":[13.868047348779603,41.916003140243284]},"properties":{"id":74,"ID META":"META 74","X":406131,"Y":4641070,"META":"74","DISTRETTO":"","QUOTA":924.759}},
{"type":"Feature","geometry":{"type":"Point","coordinates":[13.861578781695217,42.019134672428486]},"properties":{"id":75,"ID META":"META 12","X":405746,"Y":4652528,"META":"12","DISTRETTO":"","QUOTA":617.823}},
{"type":"Feature","geometry":{"type":"Point","coordinates":[13.861544806277005,42.01914483532517]},"properties":{"id":76,"ID META":"META 12_2","X":405743,"Y":4652529,"META":"12_2","DISTRETTO":"","QUOTA":617.823}},
{"type":"Feature","geometry":{"type":"Point","coordinates":[13.84049362620789,42.02256915493427]},"properties":{"id":77,"ID META":"META 14","X":404006,"Y":4652932,"META":"14","DISTRETTO":"","QUOTA":416.544}},
{"type":"Feature","geometry":{"type":"Point","coordinates":[13.884123010309024,42.03906122088217]},"properties":{"id":78,"ID META":"META 13","X":407642,"Y":4654715,"META":"13","DISTRETTO":"","QUOTA":437.237}},
{"type":"Feature","geometry":{"type":"Point","coordinates":[13.856112351519105,42.04451574882154]},"properties":{"id":79,"ID META":"META 15","X":405331,"Y":4655352,"META":"15","DISTRETTO":"","QUOTA":465.676}},
{"type":"Feature","geometry":{"type":"Point","coordinates":[13.856138983112233,42.04449370207625]},"properties":{"id":80,"ID META":"META 15_2","X":405334,"Y":4655349,"META":"15_2","DISTRETTO":"","QUOTA":465.933}},
{"type":"Feature","geometry":{"type":"Point","coordinates":[13.869241169943813,42.0442160207052]},"properties":{"id":81,"ID META":"META 16","X":406417,"Y":4655304,"META":"16","DISTRETTO":"","QUOTA":391.861}},
{"type":"Feature","geometry":{"type":"Point","coordinates":[13.84378804982402,42.127623596959836]},"properties":{"id":82,"ID META":"META 28","X":404436,"Y":4664593,"META":"28","DISTRETTO":"","QUOTA":330.22}},
{"type":"Feature","geometry":{"type":"Point","coordinates":[13.938828273311389,42.023093808011765]},"properties":{"id":83,"ID META":"META 29","X":412148,"Y":4652885,"META":"29","DISTRETTO":"","QUOTA":458.45}},
{"type":"Feature","geometry":{"type":"Point","coordinates":[13.815849684853836,42.12242678710392]},"properties":{"id":92,"ID META":"META 96","X":402119,"Y":4664048,"META":"96","DISTRETTO":"","QUOTA":443.055}},
{"type":"Feature","geometry":{"type":"Point","coordinates":[13.860008616962014,42.0819654927629]},"properties":{"id":115,"ID META":"META 86","X":405709,"Y":4659506,"META":"86","DISTRETTO":"","QUOTA":355.974}},
{"type":"Feature","geometry":{"type":"Point","coordinates":[13.874019759910718,42.089546327980564]},"properties":{"id":83,"ID META":"META 88","X":406879,"Y":4660332,"META":"88","DISTRETTO":"","QUOTA":345.783}},
{"type":"Feature","geometry":{"type":"Point","coordinates":[13.874015406686931,42.08948815648234]},"properties":{"id":84,"ID META":"META 89","X":406879,"Y":4660325,"META":"89","DISTRETTO":"","QUOTA":345.618}},
{"type":"Feature","geometry":{"type":"Point","coordinates":[13.831873818389381,42.055839725786]},"properties":{"id":86,"ID META":"META 97","X":403342,"Y":4656636,"META":"97","DISTRETTO":"","QUOTA":609.261}},
{"type":"Feature","geometry":{"type":"Point","coordinates":[13.840934777282648,42.058080370281886]},"properties":{"id":87,"ID META":"META 98","X":404096,"Y":4656875,"META":"98","DISTRETTO":"","QUOTA":463.906}},
{"type":"Feature","geometry":{"type":"Point","coordinates":[13.828296145152665,42.05337786895726]},"properties":{"id":88,"ID META":"META 99","X":403043,"Y":4656367,"META":"99","DISTRETTO":"","QUOTA":664.591}},
{"type":"Feature","geometry":{"type":"Point","coordinates":[13.876052525066221,42.090574741535775]},"properties":{"id":85,"ID META":"META 87","X":407049,"Y":4660444,"META":"87","DISTRETTO":"","QUOTA":338.736}},
{"type":"Feature","geometry":{"type":"Point","coordinates":[13.879723434999505,42.05748115142004]},"properties":{"id":89,"ID META":"META 84","X":407304,"Y":4656765,"META":"84","DISTRETTO":"","QUOTA":424.428}},
{"type":"Feature","geometry":{"type":"Point","coordinates":[13.889066806032945,42.058142072264744]},"properties":{"id":90,"ID META":"META 115","X":408078,"Y":4656829,"META":"115","DISTRETTO":"PONTE LA TORRE","QUOTA":411.861}},
{"type":"Feature","geometry":{"type":"Point","coordinates":[13.924213587476178,42.094038951612255]},"properties":{"id":91,"ID META":"META 120","X":411037,"Y":4660777,"META":"120","DISTRETTO":"","QUOTA":421.253}},
{"type":"Feature","geometry":{"type":"Point","coordinates":[13.916012104001002,42.09377169490508]},"properties":{"id":93,"ID META":"META 121","X":410358,"Y":4660756,"META":"121","DISTRETTO":"","QUOTA":396.493}},
{"type":"Feature","geometry":{"type":"Point","coordinates":[14.036389112345946,42.01270730816778]},"properties":{"id":94,"ID META":"META 75","X":420212,"Y":4651636,"META":"75","DISTRETTO":"","QUOTA":1127.14}},
{"type":"Feature","geometry":{"type":"Point","coordinates":[14.035994741620732,42.01273171655349]},"properties":{"id":95,"ID META":"META 80","X":420179,"Y":4651639,"META":"80","DISTRETTO":"","QUOTA":1123.36}},
{"type":"Feature","geometry":{"type":"Point","coordinates":[14.056909487346214,41.99604289407742]},"properties":{"id":96,"ID META":"POC01","X":421890,"Y":4649767,"META":"POC01","DISTRETTO":"","QUOTA":1203.27}},
{"type":"Feature","geometry":{"type":"Point","coordinates":[13.940901573880005,42.080626139167656]},"properties":{"id":97,"ID META":"META 113","X":412398,"Y":4659271,"META":"113","DISTRETTO":"","QUOTA":469.175}},
{"type":"Feature","geometry":{"type":"Point","coordinates":[13.948394298416053,42.06929844484692]},"properties":{"id":98,"ID META":"META 122","X":413003,"Y":4658005,"META":"122","DISTRETTO":"","QUOTA":439.328}},
{"type":"Feature","geometry":{"type":"Point","coordinates":[13.915068741387312,42.026628361048246]},"properties":{"id":99,"ID META":"META 109","X":410185,"Y":4653302,"META":"109","DISTRETTO":"","QUOTA":483.151}},
{"type":"Feature","geometry":{"type":"Point","coordinates":[13.909478200240857,42.073567269353184]},"properties":{"id":100,"ID META":"META 116","X":409789,"Y":4658520,"META":"116","DISTRETTO":"","QUOTA":362.992}},
{"type":"Feature","geometry":{"type":"Point","coordinates":[13.92098553340037,42.03573230742161]},"properties":{"id":101,"ID META":"META 111","X":410688,"Y":4654307,"META":"111","DISTRETTO":"","QUOTA":425.957}},
{"type":"Feature","geometry":{"type":"Point","coordinates":[14.07983977077716,41.84524174637094]},"properties":{"id":102,"ID META":"META 94","X":423610,"Y":4633003,"META":"94","DISTRETTO":"","QUOTA":1284.57}},
{"type":"Feature","geometry":{"type":"Point","coordinates":[13.898995237150878,42.037767531312724]},"properties":{"id":103,"ID META":"META 110","X":408871,"Y":4654556,"META":"110","DISTRETTO":"","QUOTA":463.662}},
{"type":"Feature","geometry":{"type":"Point","coordinates":[13.898987512165231,42.037775239031134]},"properties":{"id":104,"ID META":"META 112","X":408870,"Y":4654557,"META":"112","DISTRETTO":"","QUOTA":463.662}},
{"type":"Feature","geometry":{"type":"Point","coordinates":[13.89513390395933,42.056381434809595]},"properties":{"id":113,"ID META":"META 114","X":408578,"Y":4656627,"META":"114","DISTRETTO":"","QUOTA":360.756}},
{"type":"Feature","geometry":{"type":"Point","coordinates":[13.938058791497454,42.037124999052814]},"properties":{"id":114,"ID META":"META 117","X":412103,"Y":4654444,"META":"106","DISTRETTO":"","QUOTA":458.135}},
{"type":"Feature","geometry":{"type":"Point","coordinates":[13.938358887821405,42.03722678585837]},"properties":{"id":107,"ID META":"META 118","X":412128,"Y":4654455,"META":"118","DISTRETTO":"","QUOTA":459.538}},
{"type":"Feature","geometry":{"type":"Point","coordinates":[14.066069927518356,41.875988903503305]},"properties":{"id":108,"ID META":"META 100","X":422504,"Y":4636429,"META":"100","DISTRETTO":"","QUOTA":1398.86}},
{"type":"Feature","geometry":{"type":"Point","coordinates":[14.097126045289528,41.759067204559244]},"properties":{"id":109,"ID META":"META 101","X":424944,"Y":4623420,"META":"101","DISTRETTO":"","QUOTA":815.805}},
{"type":"Feature","geometry":{"type":"Point","coordinates":[14.064889510101471,41.87083532636392]},"properties":{"id":112,"ID META":"META 137","X":422400,"Y":4635858,"META":"137","DISTRETTO":"","QUOTA":1347.98}},
{"type":"Feature","geometry":{"type":"Point","coordinates":[14.06483792610982,41.87097727215587]},"properties":{"id":110,"ID META":"META 102","X":422395,"Y":4635874,"META":"102","DISTRETTO":"","QUOTA":1349.78}},
{"type":"Feature","geometry":{"type":"Point","coordinates":[14.064814162412723,41.8709364879602]},"properties":{"id":111,"ID META":"META 103","X":422393,"Y":4635869,"META":"103","DISTRETTO":"","QUOTA":1348.92}},
{"type":"Feature","geometry":{"type":"Point","coordinates":[13.923701895669176,42.01258034800067]},"properties":{"id":200,"ID META":"META 57","X":410881,"Y":4651733,"META":"57","DISTRETTO":"","QUOTA":498.931}},
{"type":"Feature","geometry":{"type":"Point","coordinates":[13.879606653170987,42.055309307111145]},"properties":{"id":105,"ID META":"META 106","X":407291,"Y":4656524,"META":"106","DISTRETTO":"","QUOTA":400.303}},
{"type":"Feature","geometry":{"type":"Point","coordinates":[13.916009145762159,42.09382302777037]},"properties":{"id":107,"ID META":"META 78","X":410358,"Y":4660762,"META":"78","DISTRETTO":"","QUOTA":397.508}},
{"type":"Feature","geometry":{"type":"Point","coordinates":[13.924217005709275,42.094058856258265]},"properties":{"id":106,"ID META":"META 76","X":411037,"Y":4660779,"META":"76","DISTRETTO":"","QUOTA":421.253}},
{"type":"Feature","geometry":{"type":"Point","coordinates":[13.815790052310987,42.12252615827782]},"properties":{"id":150,"ID META":"META 27","X":402114,"Y":4664059,"META":"27","DISTRETTO":"","QUOTA":440.543}},
{"type":"Feature","geometry":{"type":"Point","coordinates":[13.835520976113456,42.056822782065694]},"properties":{"id":501,"ID META":"META 107","X":403646,"Y":4656741,"META":"107","DISTRETTO":"","QUOTA":539.765}},
{"type":"Feature","geometry":{"type":"Point","coordinates":[13.83241410411578,42.054372388017654]},"properties":{"id":502,"ID META":"META 105","X":403385,"Y":4656473,"META":"105","DISTRETTO":"","QUOTA":601.993}},
{"type":"Feature","geometry":{"type":"Point","coordinates":[14.185459010516691,41.86992384061334]},"properties":{"id":15,"ID META":"META 11_2","X":432404,"Y":4635655,"META":"11_2","DISTRETTO":"","QUOTA":1099.13}},
{"type":"Feature","geometry":{"type":"Point","coordinates":[14.161962491149122,41.85568160780694]},"properties":{"id":2,"ID META":"META 1_2","X":430439,"Y":4634092,"META":"1_2","DISTRETTO":"","QUOTA":1119.6}},
{"type":"Feature","geometry":{"type":"Point","coordinates":[14.036673892369855,42.01134394935386]},"properties":{"id":600,"ID META":"META 05","X":420233,"Y":4651485,"META":"05","DISTRETTO":"","QUOTA":1082.2}},
{"type":"Feature","geometry":{"type":"Point","coordinates":[14.079795018046308,41.851245616750376]},"properties":{"id":700,"ID META":"META 108","X":423613,"Y":4633670,"META":"108","DISTRETTO":"ROCCARASO BASSO","QUOTA":1219.15}},
{"type":"Feature","geometry":{"type":"Point","coordinates":[14.066633493963922,41.87338423777456]},"properties":{"id":750,"ID META":"META 95","X":422547,"Y":4636139,"META":"95","DISTRETTO":"RIVISONDOLI PA.","QUOTA":1334.65}},
{"type":"Feature","geometry":{"type":"Point","coordinates":[13.942510745956595,42.00922547291973]},"properties":{"id":116,"ID META":"META 58","X":412433,"Y":4651341,"META":"58","DISTRETTO":"MASTROIACOVO","QUOTA":477.513}},
{"type":"Feature","geometry":{"type":"Point","coordinates":[13.938348545133898,42.037221506393145]},"properties":{"id":850,"ID META":"META 79","X":412127,"Y":4654454,"META":"79","DISTRETTO":"SULMONA","QUOTA":459.538}},
{"type":"Feature","geometry":{"type":"Point","coordinates":[13.938065143791293,42.0371193556604]},"properties":{"id":851,"ID META":"META 25","X":412104,"Y":4654443,"META":"25","DISTRETTO":"SULMONA","QUOTA":458.135}},
{"type":"Feature","geometry":{"type":"Point","coordinates":[13.9498675033094,42.06038846371829]},"properties":{"id":877,"ID META":"META 93","X":413112,"Y":4657015,"META":"93","DISTRETTO":"MARANE","QUOTA":406.987}},
{"type":"Feature","geometry":{"type":"Point","coordinates":[13.93779025074684,42.076204402091356]},"properties":{"id":888,"ID META":"META 91","X":412135,"Y":4658783,"META":"91","DISTRETTO":"SANTA LUCIA","QUOTA":373.866}},
{"type":"Feature","geometry":{"type":"Point","coordinates":[13.91259237549961,42.09154347041265]},"properties":{"id":889,"ID META":"META 92","X":410072,"Y":4660512,"META":"92","DISTRETTO":"BAGNATURO","QUOTA":355.647}},
{"type":"Feature","geometry":{"type":"Point","coordinates":[13.902507616997022,42.02200299858395]},"properties":{"id":777,"ID META":"META 77","X":409139,"Y":4652802,"META":"77","DISTRETTO":"INTRODACQUA","QUOTA":563.42}},
{"type":"Feature","geometry":{"type":"Point","coordinates":[13.900930164105711,41.99998484997868]},"properties":{"id":778,"ID META":"META 85","X":408977,"Y":4650359,"META":"85","DISTRETTO":"INTRODACQUA","QUOTA":679.974}},
{"type":"Feature","geometry":{"type":"Point","coordinates":[13.897352064366375,42.005984362929745]},"properties":{"id":999,"ID META":"META 90","X":408689,"Y":4651029,"META":"90","DISTRETTO":"","QUOTA":674.992}},
{"type":"Feature","geometry":{"type":"Point","coordinates":[13.895182130901844,42.005846955999814]},"properties":{"id":998,"ID META":"META 81","X":408509,"Y":4651016,"META":"81","DISTRETTO":"","QUOTA":723.634}},
{"type":"Feature","geometry":{"type":"Point","coordinates":[13.676603675422788,42.15489347060251]},"properties":{"id":925,"ID META":"META 119","X":390665,"Y":4667822,"META":"119","DISTRETTO":"SECINARO ALTO","QUOTA":861.006}},
{"type":"Feature","geometry":{"type":"Point","coordinates":[13.674166643825258,42.1531290619516]},"properties":{"id":826,"ID META":"META 82","X":390460,"Y":4667629,"META":"82","DISTRETTO":"ATELETA ALTO","QUOTA":884.841}},
{"type":"Feature","geometry":{"type":"Point","coordinates":[13.67607274096116,42.150491423429386]},"properties":{"id":827,"ID META":"META 83","X":390613,"Y":4667334,"META":"83","DISTRETTO":"ATELETA BASSO","QUOTA":827.316}},
{"type":"Feature","geometry":{"type":"Point","coordinates":[13.891861524738719,42.12049734225601]},"properties":{"id":null,"ID META":"META128","X":408399,"Y":4663749,"META":"128","DISTRETTO":"ROCCACASALE","QUOTA":433.143}},
{"type":"Feature","geometry":{"type":"Point","coordinates":[13.891877129167105,42.120487179512665]},"properties":{"id":null,"ID META":"META 129","X":408401,"Y":4663748,"META":"129","DISTRETTO":"ROCCACASALE","QUOTA":434.832}},
{"type":"Feature","geometry":{"type":"Point","coordinates":[13.717401721563842,42.11336079712214]},"properties":{"id":null,"ID META":"META125","X":393966,"Y":4663159,"META":"125","DISTRETTO":"CASTELVECCHIO S","QUOTA":551.321}},
{"type":"Feature","geometry":{"type":"Point","coordinates":[13.730148765960477,42.13426907861715]},"properties":{"id":null,"ID META":"META123","X":395054,"Y":4665464,"META":"123","DISTRETTO":"CASTELVECCHIO S","QUOTA":545.902}},
{"type":"Feature","geometry":{"type":"Point","coordinates":[13.933460408655085,42.05358159171143]},"properties":{"id":null,"ID META":"META 130","X":411745,"Y":4656276,"META":"130","DISTRETTO":"","QUOTA":402.664}},
{"type":"Feature","geometry":{"type":"Point","coordinates":[13.92085988436868,42.05875853016269]},"properties":{"id":null,"ID META":"META126","X":410710,"Y":4656863,"META":"126","DISTRETTO":"","QUOTA":386.552}},
{"type":"Feature","geometry":{"type":"Point","coordinates":[13.927434409819377,42.046423694351965]},"properties":{"id":null,"ID META":"META24_2","X":411237,"Y":4655487,"META":"24_2","DISTRETTO":"","QUOTA":409.551}},
{"type":"Feature","geometry":{"type":"Point","coordinates":[13.918038103937208,42.04657047938972]},"properties":{"id":null,"ID META":"META124","X":410459,"Y":4655513,"META":"META124","DISTRETTO":"","QUOTA":391.206}},
{"type":"Feature","geometry":{"type":"Point","coordinates":[13.919797505271166,42.05394254816531]},"properties":{"id":null,"ID META":"META127","X":410615,"Y":4656330,"META":"127","DISTRETTO":"","QUOTA":381.669}},
{"type":"Feature","geometry":{"type":"Point","coordinates":[14.067822478141679,41.889031734666084]},"properties":{"id":null,"ID META":"META157","X":422665,"Y":4637876,"META":"157","DISTRETTO":"Pescocostanzo B","QUOTA":1318.9}},
{"type":"Feature","geometry":{"type":"Point","coordinates":[14.063086598716863,41.88878630710156]},"properties":{"id":null,"ID META":"META156","X":422272,"Y":4637853,"META":"156","DISTRETTO":"Pescocostanzo B","QUOTA":1384.87}},
{"type":"Feature","geometry":{"type":"Point","coordinates":[14.062760933865654,41.88852962751692]},"properties":{"id":null,"ID META":"META155","X":422244,"Y":4637825,"META":"155","DISTRETTO":"Pescocostanzo b","QUOTA":1392.28}},
{"type":"Feature","geometry":{"type":"Point","coordinates":[14.117617374268049,41.84837888864013]},"properties":{"id":null,"ID META":"META165","X":426750,"Y":4633318,"META":"165","DISTRETTO":"Pietransieri","QUOTA":1387.89}},
{"type":"Feature","geometry":{"type":"Point","coordinates":[13.889076473638532,42.058115602689405]},"properties":{"id":null,"ID META":"META138","X":408079,"Y":4656826,"META":"138","DISTRETTO":"PONTE LA TORRE","QUOTA":411.861}},
{"type":"Feature","geometry":{"type":"Point","coordinates":[14.155420912998743,41.7749978799461]},"properties":{"id":null,"ID META":"META134","X":429808,"Y":4625140,"META":"134","DISTRETTO":"IORIO","QUOTA":995.802}},
{"type":"Feature","geometry":{"type":"Point","coordinates":[14.061080807457756,41.89231021946177]},"properties":{"id":null,"ID META":"META159","X":422110,"Y":4638246,"META":"159","DISTRETTO":"BOSCO S.ANTONIO","QUOTA":1351.09}},
{"type":"Feature","geometry":{"type":"Point","coordinates":[14.068347122615236,41.86630659028074]},"properties":{"id":null,"ID META":"META160","X":422681,"Y":4635352,"META":"160","DISTRETTO":"RIVISONDOLI B.","QUOTA":1236.74}},
{"type":"Feature","geometry":{"type":"Point","coordinates":[14.07255741709698,41.885374131824925]},"properties":{"id":null,"ID META":"META158","X":423053,"Y":4637465,"META":"158","DISTRETTO":"","QUOTA":1314.21}},
{"type":"Feature","geometry":{"type":"Point","coordinates":[14.09275232069988,41.84490019680188]},"properties":{"id":null,"ID META":"META43","X":424681,"Y":4632954,"META":"43","DISTRETTO":"ROCCARASO TELOM","QUOTA":1274.99}},
{"type":"Feature","geometry":{"type":"Point","coordinates":[14.074326747177155,41.84727903356544]},"properties":{"id":null,"ID META":"META35","X":423155,"Y":4633234,"META":"35","DISTRETTO":"ROCCARASO ALTO","QUOTA":1328.92}},
{"type":"Feature","geometry":{"type":"Point","coordinates":[14.059846221523532,41.88576682057639]},"properties":{"id":null,"ID META":"META154","X":421999,"Y":4637520,"META":"154","DISTRETTO":"PESCOCOSTANZO A","QUOTA":1452.51}},
{"type":"Feature","geometry":{"type":"Point","coordinates":[13.877599999834128,41.90725841677637]},"properties":{"id":null,"ID META":"META167","X":406910,"Y":4640088,"META":"167","DISTRETTO":"SCANNO BASSO","QUOTA":1038.69}},
{"type":"Feature","geometry":{"type":"Point","coordinates":[13.882110628432732,41.90884802439857]},"properties":{"id":null,"ID META":"META168","X":407286,"Y":4640260,"META":"168","DISTRETTO":"SCANNO BASSO","QUOTA":948.742}},
{"type":"Feature","geometry":{"type":"Point","coordinates":[14.081801877691655,41.84490500395024]},"properties":{"id":null,"ID META":"META 42","X":423772,"Y":4632964,"META":"42","DISTRETTO":"Roccaraso Alto","QUOTA":1263.41}},
{"type":"Feature","geometry":{"type":"Point","coordinates":[13.904805250211677,42.06859750772326]},"properties":{"id":null,"ID META":"META139","X":409395,"Y":4657973,"META":"139","DISTRETTO":"Sulmona Ind.","QUOTA":362.528}},
{"type":"Feature","geometry":{"type":"Point","coordinates":[13.876861324773023,42.08824321985015]},"properties":{"id":null,"ID META":"META162","X":407112,"Y":4660184,"META":"162","DISTRETTO":"PRATOLA V.PREZZ","QUOTA":344.4}},
{"type":"Feature","geometry":{"type":"Point","coordinates":[13.872799763358042,41.90650176948734]},"properties":{"id":null,"ID META":"META169","X":406511,"Y":4640010,"META":"169","DISTRETTO":"Scanno Comunale","QUOTA":1128.61}},
{"type":"Feature","geometry":{"type":"Point","coordinates":[13.873785998326627,41.93085531969599]},"properties":{"id":null,"ID META":"META171","X":406628,"Y":4642712,"META":"171","DISTRETTO":"FRATTURA","QUOTA":1339.49}},
{"type":"Feature","geometry":{"type":"Point","coordinates":[13.87419833056765,42.09996445632128]},"properties":{"id":null,"ID META":"META 161","X":406909,"Y":4661488,"META":"161","DISTRETTO":"PRATOLA CENTRO","QUOTA":306.406}},
{"type":"Feature","geometry":{"type":"Point","coordinates":[13.866991765696305,42.07644576283193]},"properties":{"id":null,"ID META":"META 61","X":406279,"Y":4658885,"META":"61","DISTRETTO":"PRATOLA IND.","QUOTA":361.203}},
{"type":"Feature","geometry":{"type":"Point","coordinates":[13.858560985007529,42.10262652060419]},"properties":{"id":null,"ID META":"META 60","X":405620,"Y":4661801,"META":"60","DISTRETTO":"PRATOLA PERIFER","QUOTA":348.144}},
{"type":"Feature","geometry":{"type":"Point","coordinates":[13.8824501853452,41.89992071577001]},"properties":{"id":null,"ID META":"META170","X":407302,"Y":4639268,"META":"170","DISTRETTO":"Scanno Cardella","QUOTA":1088.8}},
{"type":"Feature","geometry":{"type":"Point","coordinates":[13.882265018382663,41.902264173398]},"properties":{"id":null,"ID META":"META 69","X":407290,"Y":4639529,"META":"69","DISTRETTO":"SCANNO PAESE","QUOTA":1026.31}},
{"type":"Feature","geometry":{"type":"Point","coordinates":[13.898971750900746,42.00847571590111]},"properties":{"id":null,"ID META":"META 70","X":408827,"Y":4651304,"META":"70","DISTRETTO":"INTRODACQUA ALT","QUOTA":640.664}},
{"type":"Feature","geometry":{"type":"Point","coordinates":[13.891183486399056,42.02116679052941]},"properties":{"id":null,"ID META":"META164","X":408200,"Y":4652721,"META":"164","DISTRETTO":"INTRODACQUA BAS","QUOTA":566.726}},
{"type":"Feature","geometry":{"type":"Point","coordinates":[13.895098110731615,42.02973542297289]},"properties":{"id":null,"ID META":"META 140","X":408537,"Y":4653668,"META":"140","DISTRETTO":"","QUOTA":512.65}},
{"type":"Feature","geometry":{"type":"Point","coordinates":[13.92677742092201,42.084678805232144]},"properties":{"id":null,"ID META":"META 174","X":411236,"Y":4659735,"META":"174","DISTRETTO":"BADIA","QUOTA":354.88}},
{"type":"Feature","geometry":{"type":"Point","coordinates":[14.047641034530702,42.01236553399566]},"properties":{"id":null,"ID META":"META 131","X":421143,"Y":4651588,"META":"131","DISTRETTO":"CAMPO DI GIOVE","QUOTA":1062.46}},
{"type":"Feature","geometry":{"type":"Point","coordinates":[14.117904291299052,41.78655251315589]},"properties":{"id":null,"ID META":"RTU 004","X":426703,"Y":4626454,"META":"004","DISTRETTO":"CASTEL DI SANGR","QUOTA":933.106}},
{"type":"Feature","geometry":{"type":"Point","coordinates":[14.120094482969971,41.81471982717049]},"properties":{"id":null,"ID META":"RTU 002","X":426917,"Y":4629579,"META":"002","DISTRETTO":"ROCCACINQUEMIGL","QUOTA":1068.27}},
{"type":"Feature","geometry":{"type":"Point","coordinates":[14.102805062250553,41.82686005956595]},"properties":{"id":null,"ID META":"RTU 001","X":425495,"Y":4630942,"META":"001","DISTRETTO":"PONTONE","QUOTA":1056.38}},
{"type":"Feature","geometry":{"type":"Point","coordinates":[14.106569397926023,41.77921563973365]},"properties":{"id":null,"ID META":"RTU 23","X":425753,"Y":4625649,"META":"23","DISTRETTO":"CDS ZONA IND.","QUOTA":796.194}},
{"type":"Feature","geometry":{"type":"Point","coordinates":[14.10863435148438,41.78828410136053]},"properties":{"id":null,"ID META":"RTU 003","X":425935,"Y":4626654,"META":"003","DISTRETTO":"NEVIERA","QUOTA":849.011}},
{"type":"Feature","geometry":{"type":"Point","coordinates":[13.830035097895806,41.776692550956305]},"properties":{"id":null,"ID META":"META 142","X":402767,"Y":4625645,"META":"142","DISTRETTO":"OPI MEDIO","QUOTA":1158.48}},
{"type":"Feature","geometry":{"type":"Point","coordinates":[13.829724863988892,41.78095704994272]},"properties":{"id":null,"ID META":"META145","X":402748,"Y":4626118,"META":"145","DISTRETTO":"OPI ALTO","QUOTA":1241.14}},
{"type":"Feature","geometry":{"type":"Point","coordinates":[13.829733990925808,41.78086880079709]},"properties":{"id":null,"ID META":"META146","X":402749,"Y":4626109,"META":"146","DISTRETTO":"OPI ALTO","QUOTA":1238.21}},
{"type":"Feature","geometry":{"type":"Point","coordinates":[13.828146653003728,41.78233311992856]},"properties":{"id":null,"ID META":"META144","X":402619,"Y":4626273,"META":"144","DISTRETTO":"OPI MEDIO","QUOTA":1192.16}},
{"type":"Feature","geometry":{"type":"Point","coordinates":[13.830947556296667,41.77897650633298]},"properties":{"id":null,"ID META":"META143","X":402847,"Y":4625897,"META":"143","DISTRETTO":"OPI BASSO","QUOTA":1172.79}},
{"type":"Feature","geometry":{"type":"Point","coordinates":[13.83439883405448,41.781471216402565]},"properties":{"id":null,"ID META":"META147","X":403137,"Y":4626170,"META":"147","DISTRETTO":"","QUOTA":1103}},
{"type":"Feature","geometry":{"type":"Point","coordinates":[13.79938357740107,41.809559754312716]},"properties":{"id":null,"ID META":"META150","X":400271,"Y":4629329,"META":"150","DISTRETTO":"PESCASSEROLI","QUOTA":1246.23}},
{"type":"Feature","geometry":{"type":"Point","coordinates":[13.799442970112946,41.809601390331004]},"properties":{"id":null,"ID META":"META 151","X":400276,"Y":4629333,"META":"151","DISTRETTO":"PESCASSEROLI","QUOTA":1247.91}},
{"type":"Feature","geometry":{"type":"Point","coordinates":[13.790617007833188,41.812444009373756]},"properties":{"id":null,"ID META":"META 148","X":399547,"Y":4629659,"META":"148","DISTRETTO":"PESCASSEROLI","QUOTA":1174.84}},
{"type":"Feature","geometry":{"type":"Point","coordinates":[13.790594727480046,41.81243777255225]},"properties":{"id":null,"ID META":"META149","X":399545,"Y":4629659,"META":"149","DISTRETTO":"PESCASSEROLI","QUOTA":1174.84}},
{"type":"Feature","geometry":{"type":"Point","coordinates":[13.677041352479517,42.1531536266085]},"properties":{"id":null,"ID META":"META 172","X":390698,"Y":4667628,"META":"172","DISTRETTO":"SECINARO ALTO","QUOTA":817.898}},
{"type":"Feature","geometry":{"type":"Point","coordinates":[13.683946603857992,42.15408731827141]},"properties":{"id":null,"ID META":"META 173","X":391270,"Y":4667723,"META":"173","DISTRETTO":"SECINARO BASSO","QUOTA":688.432}},
{"type":"Feature","geometry":{"type":"Point","coordinates":[13.786337509471,41.80908899755357]},"properties":{"id":null,"ID META":"META 133","X":399187,"Y":4629292,"META":"133","DISTRETTO":"PESCASSEROLI","QUOTA":1155.88}},
{"type":"Feature","geometry":{"type":"Point","coordinates":[13.782216878625778,41.803101379814514]},"properties":{"id":null,"ID META":"META152","X":398835,"Y":4628632,"META":"152","DISTRETTO":"PESCASSEROLI","QUOTA":1154.94}},
{"type":"Feature","geometry":{"type":"Point","coordinates":[13.902433985721487,42.02199167279452]},"properties":{"id":null,"ID META":"META 163","X":409133,"Y":4652801,"META":"163","DISTRETTO":"INTRODACQUA","QUOTA":563.42}},
{"type":"Feature","geometry":{"type":"Point","coordinates":[13.73013044289816,42.13430420752282]},"properties":{"id":null,"ID META":"META 166","X":395053,"Y":4665468,"META":"166","DISTRETTO":"CASTELVECCHIO","QUOTA":545.902}},
{"type":"Feature","geometry":{"type":"Point","coordinates":[13.877457671394545,42.12116368723493]},"properties":{"id":null,"ID META":"META 47","X":407210,"Y":4663839,"META":"47","DISTRETTO":"ROCCACASALE","QUOTA":274.97}},
{"type":"Feature","geometry":{"type":"Point","coordinates":[13.725694872288603,42.13235686846061]},"properties":{"id":null,"ID META":"META 22","X":394683,"Y":4665258,"META":"22","DISTRETTO":"CASTELVECCHIO","QUOTA":496.746}},
{"type":"Feature","geometry":{"type":"Point","coordinates":[13.732858354555528,42.12620189746334]},"properties":{"id":null,"ID META":"META 23","X":395265,"Y":4664565,"META":"23","DISTRETTO":"CASTELVECCHIO","QUOTA":484.758}},
{"type":"Feature","geometry":{"type":"Point","coordinates":[13.87991237706233,41.904060431817975]},"properties":{"id":null,"ID META":"META 141","X":407097,"Y":4639731,"META":"141","DISTRETTO":"SCANNO","QUOTA":987.08}},
{"type":"Feature","geometry":{"type":"Point","coordinates":[13.89756974086141,42.04410307030413]},"properties":{"id":null,"ID META":"META 135","X":408762,"Y":4655261,"META":"135","DISTRETTO":"BUGNARA_TORLINI","QUOTA":423.522}},
{"type":"Feature","geometry":{"type":"Point","coordinates":[14.075151078206797,41.841274351827984]},"properties":{"id":null,"ID META":"META 136","X":423216,"Y":4632567,"META":"136","DISTRETTO":"ROCCARASO ALTO","QUOTA":1407.11}},
{"type":"Feature","geometry":{"type":"Point","coordinates":[13.894467005980758,42.0922277797687]},"properties":{"id":null,"ID META":"META 153","X":408574,"Y":4660608,"META":"153","DISTRETTO":"S.BRIGIDA","QUOTA":353.44}},
{"type":"Feature","geometry":{"type":"Point","coordinates":[13.819182678677388,42.12601622153581]},"properties":{"id":null,"ID META":"META 132","X":402400,"Y":4664442,"META":"132","DISTRETTO":"VITTORITO","QUOTA":366.715}},
{"type":"Feature","geometry":{"type":"Point","coordinates":[14.057623370090033,41.884371127997746]},"properties":{"id":null,"ID META":"RTU 11","X":421813,"Y":4637368,"META":"RTU 11","DISTRETTO":"PESCOCOSTANZO","QUOTA":1522.14}},
{"type":"Feature","geometry":{"type":"Point","coordinates":[14.059889738465897,41.88577490849297]},"properties":{"id":null,"ID META":"104","X":422003,"Y":4637521,"META":"META 104","DISTRETTO":"PESCO MEDIO","QUOTA":1450.76}}
]}