{"type":"FeatureCollection","features":[{"type":"Feature","geometry":{"type":"MultiPolygon","coordinates":[[[[12.07402428076878,45.30909300887456],[12.07636869231256,45.31150246258719],[12.07485501076951,45.31364650405273],[12.07602463361949,45.31397352720688],[12.07630557515691,45.31403023309398],[12.07626637289262,45.3141102410048],[12.07571109649074,45.31399249681142],[12.07479872408556,45.31374857698674],[12.07178597725167,45.31929266535448],[12.07018154752079,45.32145681803691],[12.00812004471116,45.39468443045034],[12.00553680897473,45.39420675024569],[12.0029294860174,45.39322867096527],[11.99256611138242,45.3884352172984],[11.99194954825445,45.38837636230642],[11.97355641032314,45.37939734819188],[11.96808721259674,45.37756417232653],[11.96117932747027,45.37680763997935],[11.95640013058535,45.37721018295418],[11.94027912492579,45.38147694588779],[11.93993572182527,45.38216166894229],[11.94116219442449,45.3820386182274],[11.95270236460196,45.37865698990498],[11.95908602335598,45.37759241665866],[11.96259849358193,45.37755464224219],[11.96591328879072,45.37787246901294],[11.96917288917415,45.37837454350115],[11.97142779248216,45.37910083395366],[11.99641000424003,45.3911053491635],[12.00491399622539,45.39482187800056],[12.00669996329016,45.39635562170173],[11.99712686169009,45.40767167063283],[11.99629513499583,45.40793332028445],[11.99085144937199,45.40787090670392],[11.95236255715712,45.40707894760269],[11.94784455569935,45.40679616410857],[11.94658492107211,45.40705050489946],[11.92889056827672,45.40662064298722],[11.92860330396145,45.40614484390257],[11.92467511274645,45.40559347524548],[11.92324885441993,45.40415082440124],[11.9237707435183,45.4031882554861],[11.92293047947946,45.40172089122991],[11.92404922091548,45.40047287133724],[11.9240850390278,45.39957820790707],[11.92281616833228,45.39894540926367],[11.92186793039029,45.39805570818471],[11.92085447517235,45.39613359025743],[11.92074607949884,45.39413237595689],[11.91933244373693,45.3938151774307],[11.91877868014087,45.39219349203285],[11.9174827883795,45.3914743911297],[11.91691780901185,45.38982538922939],[11.91742013054539,45.38798919188569],[11.91827143909193,45.38731008537911],[11.91836107244232,45.38654289404535],[11.91809903418577,45.38619376680717],[11.91661348214413,45.38579357976148],[11.91571184909764,45.38446402071812],[11.91566933282831,45.38389578859144],[11.9164634745412,45.3833861749707],[11.91881517721468,45.38318416535146],[11.92180869137371,45.38174824082169],[11.92270959977702,45.38091741573057],[11.9236099492567,45.37909642463737],[11.92501560725091,45.37773010916555],[11.92612274854666,45.37715685263851],[11.92867932634374,45.37664511206338],[11.93108354214648,45.37493653955222],[11.93212900192704,45.37378998182627],[11.93208532563985,45.37152947474016],[11.93140968569395,45.36920696601944],[11.93482275074504,45.36642727967092],[11.9354725157418,45.36491900649027],[11.93546332645884,45.36373058265731],[11.93487202294996,45.36297659071768],[11.93459795894216,45.36113745620608],[11.93505833956683,45.35905701131871],[11.93452581548118,45.35709841500173],[11.9356451586293,45.35457660230363],[11.93502981641071,45.35267429096482],[11.93648068890638,45.34921172958387],[11.93904817863443,45.34498248917336],[11.94010837984627,45.34230601727477],[11.93996012844102,45.34156393113027],[11.93688152552036,45.33652607378557],[11.93675490242724,45.33579806402911],[11.93769845307563,45.3332715045895],[11.93866803321618,45.33179879464645],[11.93919233940075,45.32958951988594],[11.94139995477097,45.32426139643068],[11.94169280182184,45.32172635513929],[11.94183025185658,45.32172103883056],[11.94217934331328,45.32163587950785],[11.94457073779349,45.32100233468189],[11.94538965606075,45.3207812257407],[11.94593004818426,45.32063816605529],[11.94918165987774,45.31978451046079],[11.99899333556897,45.30643322644994],[12.03481215060131,45.29702255716782],[12.04062689350824,45.29857323219704],[12.07232207191828,45.30814920905438],[12.07402428076878,45.30909300887456]]],[[[11.947581312521,45.40759023684721],[11.95302690061199,45.40749724670512],[11.99448624878459,45.40836725874518],[11.99626551010953,45.40861213699791],[11.99427239170616,45.41089098468358],[11.99069695058479,45.41354213715409],[11.98799339484247,45.41493351314262],[11.98040751180421,45.41800048556033],[11.97594986553986,45.41943965753848],[11.95617833510125,45.42422471279173],[11.9542150257923,45.42501844333189],[11.95467540824251,45.4236490368596],[11.9560669943469,45.42225496602259],[11.95590295256483,45.42185903476548],[11.95425006161227,45.42151788584329],[11.95397101283581,45.41999372322023],[11.95544234997882,45.41747212864274],[11.95614801478784,45.41516412539536],[11.95450795495316,45.41589447383612],[11.95386224613596,45.4158997412937],[11.95223299612832,45.41541967403776],[11.95118799516021,45.41477066934277],[11.94901826765514,45.41133719605656],[11.94868644592995,45.40919501944687],[11.947581312521,45.40759023684721]]]]},"properties":{"Name":"1° Sez Dx Brenta","altitudeMode":"clampToGround","AREA_HA":"9683,56","UBICAZ_BAC":"1° Sez Dx Brenta","Field_1":"1° Sez Dx Brenta","fill":"#bec165","stroke":"#BEC165"}},{"type":"Feature","geometry":{"type":"Polygon","coordinates":[[[12.12595672402205,45.33026535300161],[12.11999372705164,45.33152822521209],[12.11800330761057,45.33227459270568],[12.11626843423928,45.33301388157039],[12.11355552456698,45.33472755900097],[12.11185804096362,45.33654788842437],[12.1087789917054,45.33842771029815],[12.10118886046617,45.34072402067231],[12.09817013102231,45.34097584392946],[12.09308073912081,45.34414980133839],[12.08754682489901,45.34602499401086],[12.0903779416755,45.35062039009171],[12.09122803957954,45.35358549901189],[12.1027204915798,45.4100009598915],[12.10265436272198,45.41104342755046],[12.1016819801174,45.41218889927767],[12.09375488788358,45.41599285234098],[12.07845886798055,45.4220111688571],[12.07728772333486,45.42167063632525],[12.07501786199914,45.42156747184236],[12.06992938301133,45.41974019415741],[12.06621424137423,45.42002729487132],[12.0649394859675,45.41990000161338],[12.05415367711038,45.41317267129453],[12.05176237304511,45.41234130594967],[12.04236025037891,45.41324566481144],[12.03720988200984,45.41599246292111],[12.03098814761782,45.4160062774852],[12.02713396966922,45.41547387167285],[12.02414456824624,45.41544995922769],[12.02292687943117,45.41503114264917],[12.01960924418864,45.41280673821019],[12.01504224988559,45.41149919610149],[12.01421370568337,45.40818755366183],[12.01273428025356,45.40716319374462],[12.01018349090813,45.40706938459982],[12.0060337986995,45.40815325126471],[11.99893349115702,45.40800273960285],[12.07156548292841,45.32220795140584],[12.07402282688352,45.31865693820309],[12.07567626614063,45.31559834973991],[12.07611657609049,45.3144799599596],[12.0762663729929,45.31411024097109],[12.07630557463247,45.31403023298865],[12.07633614583784,45.31393200110421],[12.0772214799707,45.31414371056346],[12.07725242857572,45.31441004397793],[12.07545384826774,45.31731641320832],[12.07553953704958,45.31899736581656],[12.07969173966566,45.33203866927198],[12.08029656584561,45.33361588202674],[12.08740016188795,45.34577371373687],[12.0927687211263,45.34401133293445],[12.09778390140854,45.34085350467785],[12.10135037511396,45.34043557981165],[12.1088293856949,45.33812744193134],[12.11167645202982,45.33635426394481],[12.11336277577438,45.33456515960871],[12.11593455775341,45.33292893214115],[12.11859125687206,45.33175385974397],[12.12061896363669,45.33115244451373],[12.12592258517709,45.3302464904588],[12.12595672402205,45.33026535300161]]]},"properties":{"Name":"1° Sezione Sinistra Brenta","altitudeMode":"clampToGround","AREA_HA":"4880,12","UBICAZ_BAC":"1° Sezione Sinistra Brenta","Field_1":"1° Sezione Sinistra Brenta","fill":"#bda56c","stroke":"#BDA56C"}},{"type":"Feature","geometry":{"type":"MultiPolygon","coordinates":[[[[11.9434752490776,45.26837773495175],[11.94361263334713,45.26878648018065],[11.93404267866747,45.27522679286496],[11.93398253862922,45.27279478859269],[11.9346078046088,45.27201496173307],[11.93710153190544,45.27074521872168],[11.93881072875147,45.26930585105058],[11.9434752490776,45.26837773495175]]],[[[12.07402428076878,45.30909300887456],[12.07232207191828,45.30814920905438],[12.04062689350824,45.29857323219704],[12.03481215060131,45.29702255716782],[11.99899333556897,45.30643322644994],[11.94918165872243,45.31978450984819],[11.94593004762968,45.32063816616299],[11.94538965566888,45.32078122461643],[11.94457073704041,45.32100233544126],[11.94217934375739,45.32163587944005],[11.94183025293895,45.32172103794433],[11.94169280247186,45.32172635521001],[11.9416993376543,45.32160501170515],[11.94170192270965,45.32143855540294],[11.9416492744734,45.32111309441001],[11.94134907174058,45.32064597672259],[11.93831548199053,45.31763016330417],[11.93605169166768,45.31631370150412],[11.93502413883176,45.31531845406575],[11.93451204503284,45.3129283292203],[11.93534796726583,45.30996682234245],[11.93543725126269,45.30712927919812],[11.93459182901065,45.30607140779508],[11.9312129324005,45.30439183129519],[11.93054847326867,45.30299674311365],[11.92905995582966,45.30180450939122],[11.9285409251289,45.2990181046975],[11.92932219981692,45.29689229709553],[11.92771671449325,45.295507867117],[11.92741743047501,45.29491021529082],[11.92859299673367,45.29073820497749],[11.93007362582774,45.28787959532217],[11.93175473212582,45.2861470341911],[11.93209732634657,45.28434696010471],[11.93331683369159,45.28236342469873],[11.93399869986024,45.27710691105795],[11.93466245577687,45.27590955184901],[11.94730380694407,45.2672875420621],[11.9693556371428,45.2622180014574],[11.97271031455381,45.261213381992],[11.97669019688262,45.26055378455045],[11.98113220608254,45.25910964769051],[11.98892893471036,45.25748837472931],[11.99750496077128,45.25527947938091],[12.00153542934785,45.25467435350078],[12.00377056896073,45.25385542751908],[12.01747262146754,45.25065433844455],[12.02515581093865,45.24842001851705],[12.03359835454313,45.24749663381701],[12.03594155867831,45.24611729415243],[12.04103977956166,45.24517394327066],[12.04368519893147,45.24410382988398],[12.05911525699779,45.24047441171328],[12.06979133719551,45.23832768094947],[12.07252026427976,45.23666944547936],[12.07955153169458,45.23607549811943],[12.0886344345863,45.23777484838011],[12.09298834526029,45.23784084701685],[12.09887431643147,45.23696898275387],[12.10877614784739,45.2347854082836],[12.11226900871576,45.23323558914819],[12.11517015874188,45.23311544107395],[12.15199500444672,45.22856759698519],[12.15269248694112,45.2278018747223],[12.15574217398668,45.22629367161176],[12.15669020103945,45.22631279732138],[12.15647655258915,45.22829679989302],[12.15871500452422,45.22760093554514],[12.15956108808766,45.22800456240803],[12.15936719818937,45.22818876686102],[12.16060689328935,45.22874620741401],[12.16086260307158,45.22859954491668],[12.16504006642122,45.23053520722237],[12.16673373374335,45.23099584091152],[12.16977628899008,45.23103904170335],[12.17275070143597,45.23033494692121],[12.17243620368108,45.23076822644704],[12.16954335937213,45.2313671167122],[12.16659877806755,45.23127603632599],[12.16445516820488,45.23070520456862],[12.1604014456996,45.22897063265191],[12.15927114920367,45.22826288831624],[12.157510376138,45.22953325581911],[12.14995762836947,45.23345403625667],[12.14429781959335,45.23701663721939],[12.13753343894097,45.23991664907432],[12.13028116348897,45.24414070604131],[12.12325339701301,45.24572803256955],[12.11362366129289,45.24691608353618],[12.11109894356506,45.2476398193287],[12.10940634653877,45.24860061665373],[12.10812127637624,45.25012980775838],[12.10656523786459,45.25592330070486],[12.10618409716647,45.26811958641797],[12.10212985467946,45.27219786099468],[12.09952316354686,45.27681687323507],[12.0947847408527,45.29807017714784],[12.0938279755864,45.29907197297945],[12.07636869182615,45.31150246198559],[12.07402428076878,45.30909300887456]]]]},"properties":{"Name":"2° Sezione Sud Fiumicello","altitudeMode":"clampToGround","AREA_HA":"8821,88","UBICAZ_BAC":"2° Sezione Sud Fiumicello","Field_1":"2° Sezione Sud Fiumicello","fill":"#C99675","stroke":"#C99675"}},{"type":"Feature","geometry":{"type":"Polygon","coordinates":[[[11.73638564181478,45.41739350785483],[11.73437989088283,45.41804271716737],[11.73439771663756,45.41878583461635],[11.73257337729963,45.4190036414009],[11.73042973379641,45.41650737802748],[11.73011032598317,45.41523354103886],[11.72532988630857,45.41413779210828],[11.72189235772035,45.41231082373246],[11.72124452769126,45.41224270079466],[11.7183271351962,45.4129104314936],[11.71496618666808,45.41202609306174],[11.71139151098345,45.41201762314174],[11.67626031810032,45.39345146590944],[11.67522364834488,45.39244911488908],[11.67183684446838,45.39040607427209],[11.6711996971313,45.39032447577293],[11.67104498622848,45.39083753835323],[11.66928411268429,45.39118220177176],[11.67009308870199,45.3894820609277],[11.66991985584913,45.38868038595044],[11.66657412431244,45.38572925082579],[11.66605510932181,45.38510649382191],[11.66582582429804,45.38406463845227],[11.66671148197955,45.38209222020497],[11.66833751562343,45.38045196529991],[11.66918405285565,45.37870791905679],[11.669618780188,45.37609221605202],[11.6695152736745,45.37252915864281],[11.670065225709,45.37148305220164],[11.67125667494808,45.37141880783618],[11.67186183299183,45.37106290730588],[11.67411708153715,45.37060659831393],[11.67505310621159,45.37075990147189],[11.67730439607283,45.37042493230428],[11.67710521116464,45.36990155276524],[11.67832221880932,45.36950942932051],[11.67719360499405,45.36817586639149],[11.67711980032619,45.36714756160755],[11.67366879972633,45.36328442281147],[11.67309393408133,45.36220099801367],[11.67232734446555,45.36171957026103],[11.66974511725763,45.36100962367131],[11.66636135796138,45.3588404807643],[11.66645870124891,45.35593588184203],[11.66574155611182,45.35342154312072],[11.66708573792988,45.3522726396813],[11.66888589185249,45.35156460074798],[11.67098393591492,45.3502936388314],[11.67268198235699,45.34762475972862],[11.6732173097972,45.34486344500564],[11.67357868330575,45.34441491193805],[11.6756953624053,45.34347295635794],[11.67709223002713,45.3413623204719],[11.67778799444426,45.34136008069054],[11.67888116649754,45.34187348428203],[11.68003796648926,45.3417361284398],[11.68140309834395,45.34196487680973],[11.68137547646993,45.34014579288041],[11.68310985894751,45.33787837454717],[11.68414783782883,45.33720644009219],[11.68531111828836,45.33739326912765],[11.68427980299384,45.33604009461498],[11.68468765336409,45.33544885443035],[11.68485901895852,45.33327999745475],[11.68572877177034,45.33166251363334],[11.68566789716401,45.3307381017979],[11.68639268736291,45.3302910835322],[11.68647935638229,45.32973551412037],[11.68790480594749,45.32783260506444],[11.69197063412464,45.32342736899106],[11.69250625816949,45.32222770936713],[11.69349283747029,45.32150019008707],[11.69272559016179,45.32010523510369],[11.69063856155864,45.31809590682413],[11.69192894874892,45.3167516153011],[11.6925353441285,45.31652615945788],[11.69762701800338,45.31650713788485],[11.69858903878513,45.3160894118943],[11.69861844156932,45.31690038988648],[11.69790675521979,45.31745588274711],[11.698051893464,45.31803167327286],[11.6988632328343,45.31877976702321],[11.69941606380311,45.31859773165662],[11.7008353917951,45.31881881450086],[11.70346020209128,45.31767049983753],[11.70500635933283,45.31762965390775],[11.70576137043356,45.31720588822716],[11.70864439428444,45.31842327935427],[11.70975475561082,45.31852731978577],[11.71071652883839,45.31816799346797],[11.71354755658687,45.31813706593858],[11.71482526524746,45.31727822614869],[11.715892465485,45.31724594270407],[11.71877746418963,45.31920575006914],[11.72145395259798,45.3192556943726],[11.72276545826188,45.3195229128086],[11.72127209033506,45.32019561555595],[11.72172735743517,45.32032121643096],[11.72210569100456,45.32106120130313],[11.72276385595672,45.32109811280348],[11.72290722248528,45.32154329996738],[11.72398568917762,45.32115120807035],[11.72579563445479,45.32123917329922],[11.72650007748018,45.32191199035143],[11.72749357203475,45.32205301058286],[11.72953459189264,45.32134191884337],[11.73040070081102,45.32075914953953],[11.73621720290324,45.32051163405887],[11.73653265544438,45.31962951913285],[11.7379536135634,45.31810391300065],[11.73964518039999,45.31691907485788],[11.74443445699107,45.31611069566931],[11.74517950000686,45.3160779455081],[11.74783775783838,45.31711240363327],[11.75003706668337,45.31641445773289],[11.7529013108872,45.31870135989926],[11.75402215692168,45.31895829082042],[11.7542936656805,45.31856095226352],[11.75686646407199,45.32025887159442],[11.75775868395871,45.31960462530994],[11.75921256211505,45.31916885964603],[11.7618079485562,45.31935507316062],[11.76492342769893,45.32015456979175],[11.76606085540562,45.32017781585349],[11.76930711014785,45.31856852363083],[11.77047155951424,45.31834045155578],[11.77166122329621,45.316434319176],[11.77234097078603,45.3160349866759],[11.77356063442126,45.31584445066141],[11.77351493541184,45.31451545083145],[11.77308292774241,45.31414767688597],[11.77225025361667,45.31162623097477],[11.77234089910264,45.310031045],[11.77445640090114,45.30888918689568],[11.77668654130138,45.30825460750233],[11.77992888530619,45.30787809399739],[11.78062197959698,45.30802817468762],[11.78285088739614,45.30758246945626],[11.78440601448897,45.30687019299454],[11.78691320620214,45.30505503485667],[11.78750797275885,45.30248837710348],[11.78684428466058,45.30091694207655],[11.78761294959219,45.30012395953374],[11.7879441262245,45.29900360561447],[11.78936830548382,45.29687885114714],[11.78784676882839,45.29519776265349],[11.7882845871984,45.2947285123488],[11.78847530564735,45.29535948033746],[11.79224855672684,45.29985382769592],[11.79952385384294,45.31063031251217],[11.81685781039754,45.33048175650534],[11.8313321616246,45.34945900369837],[11.83965202583148,45.36172007482713],[11.84344145386674,45.36836445301696],[11.84999761589641,45.37660184172569],[11.85404398333587,45.38015199027389],[11.85932878578419,45.38337603631435],[11.86167206067534,45.38436764966877],[11.86314379858085,45.38552878550645],[11.86033508385506,45.38521299697484],[11.85675049637262,45.38581640544958],[11.85482484488326,45.38495322099971],[11.85224469821094,45.38500808678896],[11.85085392315609,45.38578432871017],[11.84914253115583,45.38750133926324],[11.84563078089507,45.3883404434508],[11.84381383260281,45.38948287161913],[11.83762610140171,45.39174189228515],[11.83593965005376,45.39094352718185],[11.83297541703664,45.39037971572179],[11.83213802704292,45.38867772284909],[11.83139728017533,45.38810357252618],[11.82915406817643,45.38812676594052],[11.82697873384054,45.3873371832844],[11.82555820750339,45.38772523213246],[11.82247164522021,45.38746828886645],[11.81792824465548,45.38682408956439],[11.81658854781968,45.38634115245607],[11.81414825623258,45.38663309164627],[11.81350228960284,45.38642152410372],[11.81163807519318,45.38487522401508],[11.81026801860753,45.38470641039474],[11.8094084653728,45.38533947348289],[11.80938978269157,45.38720222533343],[11.80730359468857,45.39123946832218],[11.80587634221382,45.39128953392176],[11.80333428813522,45.39088979144779],[11.80060889240852,45.39328426165046],[11.79982107385485,45.39309564279162],[11.79842710891146,45.39125627152075],[11.79738279285545,45.39091641674866],[11.79501817259604,45.39150261304548],[11.78813311111336,45.39160154105235],[11.78526407541477,45.39454518169622],[11.78260919764622,45.39669367144223],[11.78102335288729,45.39705850000713],[11.78053719022394,45.39746334379327],[11.77844245676503,45.3967786240807],[11.7756398614103,45.39669045341863],[11.77356882268946,45.39598381025114],[11.7734062222062,45.39452099815154],[11.7724500404867,45.39409339401951],[11.77149288602338,45.39407531442303],[11.76966825500477,45.39498680890958],[11.7678867937047,45.39508487759598],[11.7659613784467,45.39731215072464],[11.76322210136525,45.39779255228748],[11.75694466170687,45.40305108367691],[11.7553246564748,45.40322555571589],[11.75313038903831,45.40461234272423],[11.74929826232177,45.40503429926532],[11.74794573586685,45.40594539330604],[11.74614402368745,45.40638909522862],[11.7448892829052,45.4062092823964],[11.74449354614889,45.4063690159358],[11.7443337640713,45.40714757060634],[11.74344736773087,45.40761734531172],[11.74293258292316,45.40845777483825],[11.74227321531561,45.40881250366274],[11.74278580487166,45.41056439129307],[11.74257323397617,45.41275914165129],[11.74086536220109,45.41489768415709],[11.739553762965,45.41570183123418],[11.7396214778573,45.41668940883933],[11.73638564181478,45.41739350785483]]]},"properties":{"Name":"Colli Euganei","altitudeMode":"clampToGround","AREA_HA":"11556,46","UBICAZ_BAC":"Colli Euganei","Field_1":"Colli Euganei","fill":"#92BA5F","stroke":"#92ba5f"}},{"type":"Feature","geometry":{"type":"MultiPolygon","coordinates":[[[[12.16086260307158,45.22859954491668],[12.16577670538455,45.22436949202116],[12.16647522073661,45.22460287497847],[12.20428037619802,45.1978557775435],[12.21135737057497,45.19919464021531],[12.21432809906912,45.2002168590707],[12.21759714953519,45.19956299315422],[12.21986494779567,45.20031588353876],[12.22199056965868,45.20039465541206],[12.22226446863852,45.20405143266208],[12.21829121725681,45.20536788122828],[12.21843199530861,45.20587539686606],[12.21562495769176,45.20853439219872],[12.21515161126265,45.21229446725162],[12.2137978708683,45.21445778539303],[12.21049433026305,45.22197883062632],[12.20796083435986,45.22188986581929],[12.20600127904702,45.22217495814672],[12.18445638702938,45.22817147064966],[12.18176523701899,45.22849660204243],[12.17540234805361,45.22849680312746],[12.17385856887825,45.22917027750503],[12.17275070143597,45.23033494692121],[12.16977628899008,45.23103904170335],[12.16673373374335,45.23099584091152],[12.16504006642122,45.23053520722237],[12.16086260307158,45.22859954491668]]],[[[12.17243620368108,45.23076822644704],[12.17106733205591,45.23203951184989],[12.16744013094945,45.23410140835482],[12.16674555545157,45.23498482891134],[12.16706145667928,45.23529317763523],[12.16822779375263,45.23425545378898],[12.17217651393082,45.23176545525039],[12.17433788280074,45.22960463482514],[12.17515676278976,45.22921084172686],[12.18498163669821,45.22856249125407],[12.18739005803026,45.22796477205193],[12.18836837817343,45.22743529088086],[12.20736468949378,45.22229384685775],[12.21036431144477,45.22235821508954],[12.20716726342451,45.22957120877366],[12.20205692031744,45.23272705683405],[12.20497452417266,45.23810942090046],[12.20580135495591,45.23852573426083],[12.20550378450358,45.23874798468561],[12.20566637753085,45.23913452835176],[12.20925252400099,45.24245831179434],[12.21306289118156,45.24504933796317],[12.21424026750121,45.25100103944879],[12.21300865310906,45.25455354058238],[12.20493271223963,45.25836615700958],[12.20219777886459,45.25793457708632],[12.19789424903613,45.25648776839081],[12.1911168495403,45.25804491930069],[12.19011268520478,45.25792568221627],[12.18883461922754,45.25819125156766],[12.1873380054579,45.25778531356931],[12.1859509029199,45.25671144929832],[12.18279854111261,45.25531945679842],[12.18210946245312,45.25475785543796],[12.17633262934596,45.25341786302906],[12.17391931336127,45.25197189771402],[12.17079148114489,45.25279003457083],[12.16769293597846,45.25423441281321],[12.15953923829526,45.25373469300848],[12.15772283036861,45.25278481874413],[12.15744502747787,45.25196776862363],[12.1567455380928,45.25136524763884],[12.15487279850641,45.25103502394363],[12.15465489956597,45.25035898286072],[12.15334602385259,45.24913814688919],[12.151826253773,45.24824958638899],[12.15008111080869,45.24785495758934],[12.14872040769448,45.2472268695432],[12.14294012388753,45.24687525587143],[12.1424023301588,45.24660974858526],[12.15115682965526,45.23813323954894],[12.15659607856232,45.23694118994212],[12.16618570604549,45.23663515458981],[12.16691410638668,45.23627067915437],[12.1670402008922,45.23597676135746],[12.16672762797633,45.23579347222014],[12.16707038064379,45.23536991165053],[12.16505687346285,45.23634157223504],[12.15693146848768,45.23660299036354],[12.15226485015561,45.23744077983217],[12.15090313368394,45.23791987181562],[12.14966208621668,45.23891504519775],[12.14250155156208,45.23974412032896],[12.15213184787382,45.23360283547564],[12.15871329894224,45.23012580675055],[12.1604014456996,45.22897063265191],[12.16445516820488,45.23070520456862],[12.16659877806755,45.23127603632599],[12.16954335937213,45.2313671167122],[12.17243620368108,45.23076822644704]]],[[[12.14681377463485,45.2633413047708],[12.14585426470299,45.26341182435389],[12.1443303154194,45.26177594193607],[12.14290462945424,45.26192928444819],[12.1415652372862,45.26118912784493],[12.13937170375258,45.25918534737083],[12.13365769599374,45.25509032502332],[12.1421059689777,45.24718292030479],[12.1487503206695,45.24752016421559],[12.14992102613381,45.24812550360985],[12.15190008725253,45.2486204887747],[12.15394594174722,45.25020178020962],[12.15470666104344,45.25142694520291],[12.15652479218465,45.25163879202724],[12.15703261047429,45.2521240210726],[12.15713094611663,45.25308962576806],[12.15879803695198,45.25371173970194],[12.15800614758197,45.25368301844052],[12.15615386103984,45.25498258682766],[12.15503792336746,45.25703860397615],[12.15567842100103,45.25812124160747],[12.15502416690853,45.25878003970566],[12.15422595072982,45.26053341926484],[12.15345732165192,45.26080229396044],[12.15226587857507,45.26022347883175],[12.15099306878787,45.26006118659873],[12.14714521448349,45.26334059012495],[12.14681377463485,45.2633413047708]]]]},"properties":{"Name":"Delta Brenta","altitudeMode":"clampToGround","AREA_HA":"2391,18","UBICAZ_BAC":"Delta Brenta","Field_1":"Delta Brenta","fill":"#BC78C2","stroke":"#BC78C2"}},{"type":"Feature","geometry":{"type":"Polygon","coordinates":[[[11.86020999273055,45.28729260101427],[11.85833119854342,45.28887013998462],[11.85645930548949,45.2890526167359],[11.85459237968173,45.28972127672081],[11.84462058392743,45.29218236021749],[11.84100015070333,45.2927887854786],[11.83698884907215,45.29400085753751],[11.83406611236566,45.29444187368247],[11.83298593331551,45.29483046051951],[11.83212029144786,45.29480192734837],[11.82564598110467,45.29677781578582],[11.82442175434967,45.29677525224516],[11.82325996897938,45.29765205276117],[11.82294792306546,45.29872803481127],[11.82178892470006,45.30052304241725],[11.82040307026235,45.30129905645198],[11.81967971293572,45.302885647557],[11.818587500883,45.30411089368327],[11.81712086364338,45.3044480462805],[11.81615407023257,45.30497015681733],[11.81361185887326,45.3054932775617],[11.81063309599988,45.30708880877208],[11.8092717836248,45.30912557038599],[11.80835634796122,45.30975256701382],[11.80705281496057,45.31013465886591],[11.80569164951532,45.31154128267672],[11.80495975608169,45.31292950869317],[11.80338677946189,45.3143571768614],[11.79938506669875,45.30964076478624],[11.7921993563183,45.29908732350498],[11.78868265346013,45.29490624416869],[11.78939672160203,45.2941747222656],[11.78831914269416,45.28886955400026],[11.78884193870027,45.28689495308752],[11.79083986073181,45.28391768598769],[11.79121624308865,45.28250154451475],[11.79371345946662,45.27931323145714],[11.79482835045044,45.2785344288546],[11.79619425395759,45.2782217382],[11.79920100477503,45.27837364529875],[11.80465782111302,45.27741043039968],[11.80783310371765,45.27586555654244],[11.81429929300348,45.27474250792557],[11.8191089506463,45.27337204447166],[11.82093224966048,45.2724552094909],[11.82192566257161,45.27241537568121],[11.82433779319866,45.2733376804994],[11.82752025245151,45.27342171910591],[11.82788422547615,45.27363887282389],[11.82784180862237,45.2751994443264],[11.83165256545344,45.28260100327434],[11.83154604989763,45.28359720461815],[11.83252005603526,45.28436686852691],[11.83609262547987,45.28472703936924],[11.8412516401808,45.28596816519712],[11.8454481725305,45.28617428868634],[11.84815720486936,45.28566856740024],[11.85026427402295,45.28659089448715],[11.85107829064341,45.28645583922544],[11.85240702355145,45.28571838145101],[11.85445084652674,45.2856532294885],[11.85542232339778,45.28457283324366],[11.85717296379705,45.28427451558643],[11.85774328728832,45.28479880550205],[11.85762691869578,45.28644286235666],[11.85827677682049,45.28673980354557],[11.85997231066802,45.28686299262907],[11.86020999273055,45.28729260101427]]]},"properties":{"Name":"Due Carrare","altitudeMode":"clampToGround","AREA_HA":"1165,19","UBICAZ_BAC":"Due Carrare","Field_1":"Due Carrare","fill":"#2DA3BD","stroke":"#2DA3BD"}},{"type":"Feature","geometry":{"type":"MultiPolygon","coordinates":[[[[12.30300636041578,45.19640616490115],[12.30127387761165,45.19891713342324],[12.29474481779876,45.19745732314804],[12.28436593268083,45.19671122294779],[12.28005174562001,45.196941531108],[12.2787901639196,45.19396345999649],[12.27959111766221,45.19351897910465],[12.27867982912084,45.19380780319019],[12.27819816463722,45.19329673194767],[12.27852479692405,45.19285444654169],[12.27816044911594,45.19215264032128],[12.27864862246349,45.191993254332],[12.27854936709713,45.19173884492584],[12.27932660534715,45.19159085014176],[12.27932100048814,45.19137468018477],[12.27727160537903,45.19177137582188],[12.2761157061304,45.19038456201994],[12.27510161217046,45.18869507084007],[12.27430611371027,45.18522849067821],[12.27521621938791,45.18529523312699],[12.27980492792541,45.18442804331421],[12.28012870867734,45.18404419471945],[12.27976088935689,45.18154650583355],[12.28016404216842,45.18129957191505],[12.28558337329316,45.18149161961652],[12.28659768910426,45.18103866148385],[12.28751081112703,45.17976865077457],[12.29062197668995,45.17978405024128],[12.29379759146403,45.18045350388386],[12.30115840894701,45.18123992911992],[12.30732733002856,45.18146217040994],[12.30862561449661,45.18193387192199],[12.30988154079112,45.18350724662824],[12.30832958108032,45.18949266684882],[12.30736715838265,45.19073467479634],[12.30727344063464,45.19157410488848],[12.30428342656178,45.19591875291996],[12.30353123583311,45.19573895467549],[12.30300636041578,45.19640616490115]]],[[[12.27287352953806,45.21320244478284],[12.27203770779255,45.2133039873358],[12.27206453242593,45.21314260181132],[12.27042196411868,45.21300430786238],[12.27039311138416,45.21214397558604],[12.27084329412288,45.2117181707459],[12.27150179534961,45.20926750897585],[12.27103936699391,45.20875236775975],[12.26990585290196,45.20842370509967],[12.26924511844148,45.2071971947559],[12.26956976192901,45.20620129622744],[12.27245123669551,45.20658975807339],[12.27298712164667,45.20630101530129],[12.27265402938748,45.20607701898652],[12.26904803705454,45.20566222415376],[12.26872940174279,45.20626670000436],[12.26666176230353,45.20590214111752],[12.26614072785594,45.20641174660076],[12.26560276288263,45.20793811289723],[12.26428702145602,45.20782556426033],[12.26373290274784,45.20855940280827],[12.26316067642484,45.21139465254983],[12.26239237989775,45.2118803071472],[12.26115034426379,45.21175598832311],[12.2611678227826,45.21019914993086],[12.26238077901629,45.20734777746725],[12.26313054662045,45.20638459899737],[12.26400449138336,45.20621652452576],[12.26416551411487,45.20425355785702],[12.26497421509121,45.20398489521671],[12.26489224887042,45.2036363729484],[12.26432089793083,45.20346965181573],[12.26493898293177,45.20193170871702],[12.26632837581841,45.19984064617901],[12.26720883664915,45.19960069107876],[12.26780204740374,45.19884526698637],[12.26795647048859,45.19641855737245],[12.27032310230303,45.19219047396496],[12.26989489974742,45.1920272045898],[12.27192531132547,45.19063101968233],[12.27415738186408,45.18754282946566],[12.27487554933494,45.18963033103866],[12.27626833241777,45.19138737318229],[12.27615004057264,45.19179861931481],[12.2757462325345,45.19192400263445],[12.27652224682871,45.1920685469405],[12.27667227757889,45.19245919255125],[12.2771624459511,45.19252489836023],[12.27795654219467,45.19369153590048],[12.27490675527108,45.19670626454012],[12.27459726259856,45.19812111139196],[12.27505263251999,45.20711098255425],[12.27478118434904,45.21225785427308],[12.27407205950788,45.21283951623217],[12.27287352953806,45.21320244478284]]]]},"properties":{"Name":"Foci Brenta","altitudeMode":"clampToGround","AREA_HA":"580,95","UBICAZ_BAC":"Foci Brenta","Field_1":"Foci Brenta","fill":"#d438a8","stroke":"#d438a8"}},{"type":"Feature","geometry":{"type":"MultiPolygon","coordinates":[[[[11.92253625769651,45.40597687196997],[11.92230178086766,45.40641161090299],[11.92192174844977,45.40643490070013],[11.91043778235972,45.40627166638587],[11.90778566604799,45.40578647875621],[11.89774773383283,45.40501306664743],[11.89745416306618,45.40430748422606],[11.89782376158671,45.40391697576556],[11.89891470618816,45.40365408881782],[11.90156000138407,45.40359093306503],[11.9020625587792,45.40316351542883],[11.90228178749765,45.40207580993315],[11.90387421311955,45.40152044480765],[11.90476850491208,45.40204878025123],[11.90545127036131,45.40334998409504],[11.90724929750501,45.40370927853456],[11.90853256540378,45.40483771147274],[11.91195453598476,45.40506089279017],[11.91430831367486,45.4041929366243],[11.91779608758842,45.40173983708424],[11.92253625769651,45.40597687196997]]],[[[11.92324885441993,45.40415082440124],[11.92467511274645,45.40559347524548],[11.92860330396145,45.40614484390257],[11.92889056827672,45.40662064298722],[11.92570472966618,45.40645834073865],[11.92401686337829,45.40594928574366],[11.91838022774449,45.40139556283317],[11.91987406211871,45.40065278478745],[11.92259965906145,45.4024005684053],[11.92290974610411,45.40316053911712],[11.9227136359066,45.40388885568998],[11.92288006924105,45.40417688484887],[11.92324885441993,45.40415082440124]]],[[[11.9542150257923,45.42501844333189],[11.9522107715184,45.4262746114418],[11.94846436530979,45.42943294060741],[11.94412328323711,45.43152207412484],[11.94112503645939,45.43454267227605],[11.93773909290618,45.43615759251136],[11.93468357500829,45.43698017730072],[11.93308425690241,45.43688319513031],[11.93023900061537,45.43618559928515],[11.92231164105707,45.43689918595413],[11.92082983328834,45.43746229276281],[11.91798877640545,45.43956389423145],[11.91650684476372,45.44000992507709],[11.91002376402428,45.4393169753731],[11.90806719615576,45.43949800719973],[11.89987859612858,45.44449655075444],[11.89685006967271,45.44550788010632],[11.8860670889141,45.44788749072703],[11.88104765032562,45.45258406722444],[11.87802007559984,45.45362192523966],[11.86875683636395,45.45392167524753],[11.86517754566992,45.45296827740675],[11.86278358930267,45.45278096486508],[11.86027678706147,45.45330159527931],[11.85914598614581,45.4545486505516],[11.85931428858784,45.45606549199699],[11.86304650489261,45.45893154076531],[11.86366206254105,45.45999710630722],[11.86139765833551,45.46432294468372],[11.86272833584816,45.46869363146723],[11.86257738064738,45.46968411646225],[11.8620364802508,45.47049735531764],[11.86096830629599,45.47112956469212],[11.85961468603447,45.47120033297413],[11.85786022260554,45.47094500476579],[11.85778624939259,45.47072243767204],[11.85435222890463,45.47053330641889],[11.85081516452575,45.47093080806435],[11.84925895654323,45.47159444336106],[11.84860087764721,45.47244038759134],[11.84879136849279,45.47344028389066],[11.84939640843229,45.47434811286098],[11.84967362702756,45.47425225295084],[11.85023355513367,45.47465026278365],[11.85258801446907,45.47699704140339],[11.85219468628746,45.47745425469967],[11.84915004762697,45.47847737112282],[11.84568584125685,45.48059595799688],[11.84599908929908,45.481230201599],[11.84534893155923,45.48250390284291],[11.84535432657126,45.48395324743258],[11.84352199081637,45.48302495562939],[11.84366105670509,45.4828262752233],[11.84154620394975,45.48094500839115],[11.84130305067233,45.47951608510375],[11.84064872353301,45.4784043215222],[11.84107726614421,45.47834867726699],[11.83809955775747,45.4705161468351],[11.83642629687557,45.46492950828921],[11.83407422481419,45.45936451396188],[11.83029077824274,45.44803041573228],[11.82994805458129,45.44781386548022],[11.82866997347856,45.43628823891419],[11.82902673501738,45.43505597929838],[11.82879596045347,45.43318630257884],[11.82954209160827,45.43156430552015],[11.82924817153827,45.43110607434924],[11.82842699121812,45.41953010832251],[11.82756610700038,45.41710283130541],[11.82726101562826,45.40880865710443],[11.8251079076746,45.39507578056557],[11.82545733531834,45.39248862399059],[11.82745004948002,45.39209398491106],[11.82851651517952,45.39078693840839],[11.82955177074674,45.39055017141809],[11.83136241531073,45.39158161392903],[11.83456410571508,45.39161197643876],[11.8353750140418,45.39281814396909],[11.83835563666503,45.39234719568102],[11.85001669252138,45.38803405084679],[11.85058269744926,45.38767612089674],[11.85152705888949,45.3861989637271],[11.85336293195033,45.38551600151899],[11.85583871582988,45.38642137577823],[11.86211594490319,45.38598209308223],[11.86619335198313,45.3876108774915],[11.86704879481354,45.38848499410358],[11.86720694427347,45.38926344963922],[11.86663935618,45.39224980208335],[11.86456739841275,45.39806173691836],[11.86481434117484,45.39948622812069],[11.86411556860405,45.39953003443227],[11.86437361374631,45.40023472724455],[11.86424232579838,45.40341307924613],[11.86371451650166,45.4037721263465],[11.86419148857551,45.40410028149225],[11.86416434653803,45.40741651353388],[11.86372656106179,45.40776453271381],[11.86417689413312,45.40799744190762],[11.8645495824707,45.41118964096616],[11.86424256193722,45.41154125531249],[11.86469912357992,45.41200836703145],[11.86506402724482,45.41516884437031],[11.8637864788543,45.41631290471503],[11.8670500377004,45.41761773499235],[11.86772171655379,45.41800972907524],[11.8675296192963,45.4182474901247],[11.86799467333587,45.41862030786395],[11.86865108731933,45.41842229340607],[11.86862552517901,45.4181335508377],[11.87022162399304,45.41798831594285],[11.87231636265919,45.41830229173521],[11.87230241590681,45.41861245366235],[11.87303147553049,45.41877645655268],[11.87341803551282,45.41837299070247],[11.87320516700925,45.41811962225479],[11.87547209449564,45.41658849487459],[11.87614069191854,45.41645828049514],[11.87455429737813,45.41527167403249],[11.87512539759369,45.41482374993124],[11.87685966894537,45.41362005429077],[11.87913944914978,45.41370493615887],[11.88066189752114,45.41332800769015],[11.88131935225732,45.41229732954578],[11.88221144734358,45.41164661270038],[11.88560217269756,45.41151418072859],[11.88805443937678,45.41084298325235],[11.89319789721262,45.41009201941309],[11.89875146456381,45.4096670157607],[11.89960891415514,45.40935276929856],[11.90042418037547,45.40881683889232],[11.90052316528107,45.40817593554902],[11.89988774611775,45.40735305773312],[11.89872837038619,45.40705601395308],[11.89803431062768,45.40549431216405],[11.89827987829211,45.40535855960522],[11.90169745365594,45.40594660610037],[11.90771166473628,45.40623543695082],[11.91315340808093,45.40692420767861],[11.91898511952795,45.40676718030787],[11.92056262427032,45.40705623063691],[11.92162591338971,45.40688440165815],[11.93411546914348,45.40712120265368],[11.947581312521,45.40759023684721],[11.94868644592995,45.40919501944687],[11.94901826765514,45.41133719605656],[11.95118799516021,45.41477066934277],[11.95223299612832,45.41541967403776],[11.95386224613596,45.4158997412937],[11.95450795495316,45.41589447383612],[11.95614801478784,45.41516412539536],[11.95544234997882,45.41747212864274],[11.95397101283581,45.41999372322023],[11.95425006161227,45.42151788584329],[11.95590295256483,45.42185903476548],[11.9560669943469,45.42225496602259],[11.95467540824251,45.4236490368596],[11.9542150257923,45.42501844333189]]]]},"properties":{"Name":"Montà Portello","altitudeMode":"clampToGround","AREA_HA":"5100,45","UBICAZ_BAC":"Montà Portello","Field_1":"Montà Portello","fill":"#89b52a","stroke":"#89B52A"}},{"type":"Feature","geometry":{"type":"MultiPolygon","coordinates":[[[[11.86020999273055,45.28729260101427],[11.86100578678981,45.28829565401711],[11.86190880974313,45.28833849798382],[11.8626841317661,45.28786474194583],[11.86657908657888,45.28677908981415],[11.88794076449053,45.28177837355493],[11.89087240926286,45.28074662341534],[11.89423767820556,45.28052772990895],[11.89589039130519,45.2796815645801],[11.91834303178286,45.27444827903431],[11.92451511626486,45.27247247406509],[11.92645979182381,45.2724033573444],[11.9282084934538,45.27153680463631],[11.93199563253501,45.27128314546999],[11.93366994590317,45.27067104963175],[11.93492418716861,45.27052022083444],[11.93793196200376,45.26934978132825],[11.93634924021566,45.27068901534473],[11.93470843828052,45.27121203646504],[11.9329757048711,45.27243467507369],[11.93283124755813,45.27328142782329],[11.93327790536858,45.27439611028112],[11.9330108571107,45.27580215770292],[11.93261591233206,45.2761515980653],[11.93318884514877,45.27669808409489],[11.93250527691889,45.28210307100814],[11.93126225313736,45.28410846887348],[11.93096859580029,45.28588735329132],[11.92934274872048,45.28748186801916],[11.92803845835713,45.28990864736374],[11.9262562970727,45.29474391935833],[11.92826292088809,45.29731835533126],[11.92761405054557,45.2987636138515],[11.92824201206726,45.30207053648807],[11.92965628332984,45.30322027662009],[11.93012745325545,45.30459216676964],[11.93277786429717,45.30582462780754],[11.9344577564504,45.30725599057479],[11.93444703588511,45.31005513748687],[11.93362741276032,45.31289105627025],[11.93422880219027,45.31557612969116],[11.93516103895023,45.31656432331329],[11.93778545522079,45.31829104365031],[11.94073271470863,45.32154759360811],[11.94037149596227,45.32452186598576],[11.93580127506734,45.33573195209147],[11.93599097654443,45.33665068521388],[11.93926817131411,45.34232398869159],[11.93790677750732,45.3443127671633],[11.93752723042394,45.34584631344941],[11.93555749219983,45.34916893644053],[11.93402618891149,45.35270133570723],[11.93452858096911,45.35480314686009],[11.93361508169519,45.35723596808276],[11.93412447786531,45.35909043114586],[11.9336902918485,45.36115807348353],[11.93440339133985,45.36532685102618],[11.93403966375614,45.36614970149692],[11.93113023141632,45.3682948159142],[11.93035819112527,45.3692281896603],[11.93117130814555,45.37142838343102],[11.93131540953962,45.37348456151334],[11.93032168065466,45.374619002563],[11.9282185289355,45.37607462464431],[11.92574657539646,45.37655713018305],[11.92421400435953,45.37737995468424],[11.92243264075706,45.37890265200188],[11.92195089810331,45.38059990807694],[11.92107498989261,45.3813818939143],[11.91823105474317,45.38259230607208],[11.91717344503952,45.38272125928182],[11.90856302587348,45.38321290155016],[11.90635111201565,45.38307643966104],[11.90202610183725,45.3835081728374],[11.86970696648344,45.38534448158489],[11.86767018869346,45.38562163321884],[11.86562604139941,45.38655114158612],[11.86353357664877,45.38581404110128],[11.86341634788237,45.38516272349815],[11.8620084916572,45.38417437316527],[11.85933849957017,45.3829127355738],[11.85359285562702,45.37947795306832],[11.84992751000606,45.37608232965221],[11.84384416430594,45.3680695480576],[11.8389260229623,45.35968366037984],[11.83164900937908,45.34915725589332],[11.81762555906094,45.33061569136966],[11.80338677946189,45.3143571768614],[11.80495975608169,45.31292950869317],[11.80569164951532,45.31154128267672],[11.80705281496057,45.31013465886591],[11.80835634796122,45.30975256701382],[11.8092717836248,45.30912557038599],[11.81063309599988,45.30708880877208],[11.81361185887326,45.3054932775617],[11.81615407023257,45.30497015681733],[11.81712086364338,45.3044480462805],[11.818587500883,45.30411089368327],[11.81967971293572,45.302885647557],[11.82040307026235,45.30129905645198],[11.82178892470006,45.30052304241725],[11.82294792306546,45.29872803481127],[11.82325996897938,45.29765205276117],[11.82442175434967,45.29677525224516],[11.82564598110467,45.29677781578582],[11.83212029144786,45.29480192734837],[11.83298593331551,45.29483046051951],[11.83406611236566,45.29444187368247],[11.83698884907215,45.29400085753751],[11.84100015070333,45.2927887854786],[11.84462058392743,45.29218236021749],[11.85459237968173,45.28972127672081],[11.85645930548949,45.2890526167359],[11.85833119854342,45.28887013998462],[11.86020999273055,45.28729260101427]]],[[[11.92000277340176,45.39429234023741],[11.9201647309202,45.39448573924213],[11.91883363350169,45.39605653525791],[11.91880778066911,45.39817564336379],[11.92013528224318,45.39908010829014],[11.92031962965218,45.39950814503021],[11.91799520669137,45.40107461908607],[11.91473482189821,45.39812409429918],[11.90791257308406,45.38688131498966],[11.90448425076482,45.38416447430262],[11.91514019394927,45.38340891490309],[11.91508121133002,45.3843749616594],[11.91643205732328,45.38636926164558],[11.91784920076836,45.38685311563491],[11.91628811216854,45.38825114627247],[11.91653480140958,45.38929296365411],[11.91537141926129,45.39188990074042],[11.91598305588883,45.39232949541996],[11.91828074779403,45.39254009701617],[11.91851114020152,45.39405853848236],[11.92000277340176,45.39429234023741]]],[[[11.91191548446355,45.40442974542742],[11.90888638866087,45.40432522232103],[11.90774346989956,45.40343463060064],[11.90605880463466,45.40310542175103],[11.90494323553495,45.4014819376658],[11.90395570144941,45.40114010080414],[11.90221167280813,45.40154733051727],[11.90150689658401,45.40245982838174],[11.90034404874442,45.40304483355088],[11.89837912909374,45.40334248877707],[11.89619792599226,45.40408879237372],[11.89378783112499,45.4035326367048],[11.88916214382587,45.40161535834975],[11.88704637325847,45.39919481322865],[11.8835831049229,45.39746653743372],[11.88106396767391,45.39390969831764],[11.87997883312112,45.39406905834327],[11.87547375960205,45.39276660805086],[11.87565325705449,45.39246547875509],[11.87515990329775,45.39208741526411],[11.87392653711595,45.39238667890485],[11.86805596684035,45.39025439927892],[11.8675233808336,45.39029828740723],[11.86782089621278,45.38861420784725],[11.86681847559738,45.38710596889605],[11.86821549376567,45.38627119506353],[11.8692077853159,45.3861139001987],[11.89766415582121,45.38443831064118],[11.9016446127458,45.38429443087065],[11.90276161136812,45.38448228003306],[11.90761723866671,45.38778694442718],[11.91409524357536,45.39843084547674],[11.91740517766565,45.40140973098701],[11.91413136391941,45.40380559627001],[11.91191548446355,45.40442974542742]]]]},"properties":{"Name":"Pratiarcati","altitudeMode":"clampToGround","AREA_HA":"9858,9","UBICAZ_BAC":"Pratiarcati","Field_1":"Pratiarcati","fill":"#6BC4AD","stroke":"#6BC4AD"}},{"type":"Feature","geometry":{"type":"Polygon","coordinates":[[[12.14966208621668,45.23891504519775],[12.12918532927884,45.25879900669082],[12.12740595661983,45.26084706100934],[12.13086624833458,45.30065736210556],[12.13358861150014,45.3275993839688],[12.13141118225833,45.32820176717441],[12.12760287797161,45.3299512477369],[12.12595672402205,45.33026535300161],[12.12592258517709,45.3302464904588],[12.09258652056662,45.31897391412831],[12.09078390879491,45.31748775101164],[12.08788064771887,45.31663057568593],[12.08602835293913,45.31555713218258],[12.07725242857572,45.31441004397793],[12.0772214799707,45.31414371056346],[12.07633614583784,45.31393200110421],[12.07761163946151,45.31226341351004],[12.09460997490367,45.29999202620542],[12.09631131835983,45.29833406870777],[12.10079442082648,45.27738926525025],[12.10299957987431,45.27326861135771],[12.10725282532925,45.26897481645561],[12.10793541906176,45.26764640489612],[12.10787827190427,45.2569827527781],[12.10935081377294,45.25113761959037],[12.11003489954994,45.25002526512377],[12.11185528513054,45.2488696611512],[12.1159634321724,45.24757834235754],[12.12439607045693,45.24656696566115],[12.13105828713889,45.24509189827545],[12.13285590779652,45.244313447113],[12.13787464201716,45.24111340083574],[12.14250155156208,45.23974412032896],[12.14966208621668,45.23891504519775]]]},"properties":{"Name":"Settima Presa","altitudeMode":"clampToGround","AREA_HA":"2305,71","UBICAZ_BAC":"Settima Presa","Field_1":"Settima Presa","fill":"#AD98B7","stroke":"#AD98B7"}}]}
